{
"type": "FeatureCollection",
"name": "bus_stops",
"crs": { "type": "name", "properties": { "name": "urn:ogc:def:crs:OGC:1.3:CRS84" } },
"features": [
{ "type": "Feature", "properties": { "lat": 23.1023628, "visible": "False", "version": 1, "tags": null, "id": 1349429275, "lon": 72.5702646, "changeset": 0.0, "timestamp": 1309801074, "addr:city": null, "addr:country": null, "addr:full": null, "addr:housenumber": null, "addr:housename": null, "addr:postcode": null, "addr:place": null, "addr:street": null, "email": null, "name": "D-cabin", "opening_hours": null, "operator": null, "phone": null, "ref": null, "url": null, "website": null, "amenity": "bus_station", "atm": null, "bank": null, "bicycle_parking": null, "bicycle_rental": null, "bar": null, "biergarten": null, "building": null, "building:levels": null, "cafe": null, "drinking_water": null, "fast_food": null, "fountain": null, "fuel": null, "internet_access": null, "landuse": null, "office": null, "parking": null, "police": null, "post_office": null, "restaurant": null, "school": null, "social_facility": null, "source": null, "start_date": null, "taxi": null, "wikipedia": null, "agrarian": null, "alcohol": null, "bag": null, "books": null, "butcher": null, "clothes": null, "computer": null, "craft": null, "furniture": null, "gas": null, "hairdresser": null, "kitchen": null, "massage": null, "medical_supply": null, "motorcycle": null, "organic": null, "outdoor": null, "pet": null, "religion": null, "second_hand": null, "shoes": null, "shop": null, "swimming_pool": null, "trade": null, "wholesale": null, "attraction": null, "camp_site": null, "guest_house": null, "hostel": null, "information": null, "museum": null, "tourism": null, "viewpoint": null, "zoo": null, "osm_type": "node", "spa": null, "fireplace": null, "fishing": null, "security": null, "water": null }, "geometry": { "type": "Point", "coordinates": [ 72.5702646, 23.1023628 ] } },
{ "type": "Feature", "properties": { "lat": 23.101524, "visible": "False", "version": 1, "tags": null, "id": 1349429278, "lon": 72.576519, "changeset": 0.0, "timestamp": 1309801074, "addr:city": null, "addr:country": null, "addr:full": null, "addr:housenumber": null, "addr:housename": null, "addr:postcode": null, "addr:place": null, "addr:street": null, "email": null, "name": "Vallabhpark", "opening_hours": null, "operator": null, "phone": null, "ref": null, "url": null, "website": null, "amenity": "bus_station", "atm": null, "bank": null, "bicycle_parking": null, "bicycle_rental": null, "bar": null, "biergarten": null, "building": null, "building:levels": null, "cafe": null, "drinking_water": null, "fast_food": null, "fountain": null, "fuel": null, "internet_access": null, "landuse": null, "office": null, "parking": null, "police": null, "post_office": null, "restaurant": null, "school": null, "social_facility": null, "source": null, "start_date": null, "taxi": null, "wikipedia": null, "agrarian": null, "alcohol": null, "bag": null, "books": null, "butcher": null, "clothes": null, "computer": null, "craft": null, "furniture": null, "gas": null, "hairdresser": null, "kitchen": null, "massage": null, "medical_supply": null, "motorcycle": null, "organic": null, "outdoor": null, "pet": null, "religion": null, "second_hand": null, "shoes": null, "shop": null, "swimming_pool": null, "trade": null, "wholesale": null, "attraction": null, "camp_site": null, "guest_house": null, "hostel": null, "information": null, "museum": null, "tourism": null, "viewpoint": null, "zoo": null, "osm_type": "node", "spa": null, "fireplace": null, "fishing": null, "security": null, "water": null }, "geometry": { "type": "Point", "coordinates": [ 72.576519, 23.101524 ] } },
{ "type": "Feature", "properties": { "lat": 23.0355882, "visible": "False", "version": 2, "tags": null, "id": 3161575026, "lon": 72.5641854, "changeset": 0.0, "timestamp": 1507118245, "addr:city": null, "addr:country": null, "addr:full": null, "addr:housenumber": null, "addr:housename": null, "addr:postcode": null, "addr:place": null, "addr:street": null, "email": null, "name": "Navrangpura", "opening_hours": null, "operator": "AMTS", "phone": null, "ref": null, "url": null, "website": null, "amenity": "bus_station", "atm": null, "bank": null, "bicycle_parking": null, "bicycle_rental": null, "bar": null, "biergarten": null, "building": null, "building:levels": null, "cafe": null, "drinking_water": null, "fast_food": null, "fountain": null, "fuel": null, "internet_access": null, "landuse": null, "office": null, "parking": null, "police": null, "post_office": null, "restaurant": null, "school": null, "social_facility": null, "source": null, "start_date": null, "taxi": null, "wikipedia": null, "agrarian": null, "alcohol": null, "bag": null, "books": null, "butcher": null, "clothes": null, "computer": null, "craft": null, "furniture": null, "gas": null, "hairdresser": null, "kitchen": null, "massage": null, "medical_supply": null, "motorcycle": null, "organic": null, "outdoor": null, "pet": null, "religion": null, "second_hand": null, "shoes": null, "shop": null, "swimming_pool": null, "trade": null, "wholesale": null, "attraction": null, "camp_site": null, "guest_house": null, "hostel": null, "information": null, "museum": null, "tourism": null, "viewpoint": null, "zoo": null, "osm_type": "node", "spa": null, "fireplace": null, "fishing": null, "security": null, "water": null }, "geometry": { "type": "Point", "coordinates": [ 72.5641854, 23.0355882 ] } },
{ "type": "Feature", "properties": { "lat": 22.99746, "visible": "False", "version": 2, "tags": null, "id": 3333487128, "lon": 72.6259649, "changeset": 0.0, "timestamp": 1473740690, "addr:city": null, "addr:country": null, "addr:full": null, "addr:housenumber": null, "addr:housename": null, "addr:postcode": null, "addr:place": null, "addr:street": null, "email": null, "name": "Maninagar Bus stop", "opening_hours": null, "operator": null, "phone": null, "ref": null, "url": null, "website": null, "amenity": "bus_station", "atm": null, "bank": null, "bicycle_parking": null, "bicycle_rental": null, "bar": null, "biergarten": null, "building": null, "building:levels": null, "cafe": null, "drinking_water": null, "fast_food": null, "fountain": null, "fuel": null, "internet_access": null, "landuse": null, "office": null, "parking": null, "police": null, "post_office": null, "restaurant": null, "school": null, "social_facility": null, "source": null, "start_date": null, "taxi": null, "wikipedia": null, "agrarian": null, "alcohol": null, "bag": null, "books": null, "butcher": null, "clothes": null, "computer": null, "craft": null, "furniture": null, "gas": null, "hairdresser": null, "kitchen": null, "massage": null, "medical_supply": null, "motorcycle": null, "organic": null, "outdoor": null, "pet": null, "religion": null, "second_hand": null, "shoes": null, "shop": null, "swimming_pool": null, "trade": null, "wholesale": null, "attraction": null, "camp_site": null, "guest_house": null, "hostel": null, "information": null, "museum": null, "tourism": null, "viewpoint": null, "zoo": null, "osm_type": "node", "spa": null, "fireplace": null, "fishing": null, "security": null, "water": null }, "geometry": { "type": "Point", "coordinates": [ 72.6259649, 22.99746 ] } },
{ "type": "Feature", "properties": { "lat": 22.9986995, "visible": "False", "version": 2, "tags": null, "id": 3333942359, "lon": 72.6109437, "changeset": 0.0, "timestamp": 1423226659, "addr:city": null, "addr:country": null, "addr:full": null, "addr:housenumber": null, "addr:housename": null, "addr:postcode": null, "addr:place": null, "addr:street": null, "email": null, "name": "Maninagar Railway Station", "opening_hours": null, "operator": null, "phone": null, "ref": null, "url": null, "website": null, "amenity": "bus_station", "atm": null, "bank": null, "bicycle_parking": null, "bicycle_rental": null, "bar": null, "biergarten": null, "building": null, "building:levels": null, "cafe": null, "drinking_water": null, "fast_food": null, "fountain": null, "fuel": null, "internet_access": null, "landuse": null, "office": null, "parking": null, "police": null, "post_office": null, "restaurant": null, "school": null, "social_facility": null, "source": null, "start_date": null, "taxi": null, "wikipedia": null, "agrarian": null, "alcohol": null, "bag": null, "books": null, "butcher": null, "clothes": null, "computer": null, "craft": null, "furniture": null, "gas": null, "hairdresser": null, "kitchen": null, "massage": null, "medical_supply": null, "motorcycle": null, "organic": null, "outdoor": null, "pet": null, "religion": null, "second_hand": null, "shoes": null, "shop": null, "swimming_pool": null, "trade": null, "wholesale": null, "attraction": null, "camp_site": null, "guest_house": null, "hostel": null, "information": null, "museum": null, "tourism": null, "viewpoint": null, "zoo": null, "osm_type": "node", "spa": null, "fireplace": null, "fishing": null, "security": null, "water": null }, "geometry": { "type": "Point", "coordinates": [ 72.6109437, 22.9986995 ] } },
{ "type": "Feature", "properties": { "lat": 23.0770964, "visible": "False", "version": 4, "tags": { "addr:district": "Ahmedabad", "bus": "yes", "network": "AMTS", "public_transport": "station" }, "id": 3335600154, "lon": 72.6558075, "changeset": 0.0, "timestamp": 1781455698, "addr:city": "Ahmedabad", "addr:country": null, "addr:full": null, "addr:housenumber": null, "addr:housename": null, "addr:postcode": null, "addr:place": null, "addr:street": null, "email": null, "name": "Krishna Nagar Bus Statiom", "opening_hours": null, "operator": "AMTS, Janmarg BRTS", "phone": null, "ref": null, "url": null, "website": null, "amenity": "bus_station", "atm": null, "bank": null, "bicycle_parking": null, "bicycle_rental": null, "bar": null, "biergarten": null, "building": null, "building:levels": null, "cafe": null, "drinking_water": null, "fast_food": null, "fountain": null, "fuel": null, "internet_access": null, "landuse": null, "office": null, "parking": null, "police": null, "post_office": null, "restaurant": null, "school": null, "social_facility": null, "source": null, "start_date": null, "taxi": null, "wikipedia": null, "agrarian": null, "alcohol": null, "bag": null, "books": null, "butcher": null, "clothes": null, "computer": null, "craft": null, "furniture": null, "gas": null, "hairdresser": null, "kitchen": null, "massage": null, "medical_supply": null, "motorcycle": null, "organic": null, "outdoor": null, "pet": null, "religion": null, "second_hand": null, "shoes": null, "shop": null, "swimming_pool": null, "trade": null, "wholesale": null, "attraction": null, "camp_site": null, "guest_house": null, "hostel": null, "information": null, "museum": null, "tourism": null, "viewpoint": null, "zoo": null, "osm_type": "node", "spa": null, "fireplace": null, "fishing": null, "security": null, "water": null }, "geometry": { "type": "Point", "coordinates": [ 72.6558075, 23.0770964 ] } },
{ "type": "Feature", "properties": { "lat": 23.0218734, "visible": "False", "version": 5, "tags": { "bus": "yes", "name:en": "Kalupur Bus stop", "public_transport": "station" }, "id": 3336777167, "lon": 72.5984903, "changeset": 0.0, "timestamp": 1623945576, "addr:city": null, "addr:country": null, "addr:full": null, "addr:housenumber": null, "addr:housename": null, "addr:postcode": null, "addr:place": null, "addr:street": "Gandhi Road", "email": null, "name": "Ahmedabad", "opening_hours": null, "operator": null, "phone": null, "ref": null, "url": null, "website": null, "amenity": "bus_station", "atm": null, "bank": null, "bicycle_parking": null, "bicycle_rental": null, "bar": null, "biergarten": null, "building": null, "building:levels": null, "cafe": null, "drinking_water": null, "fast_food": null, "fountain": null, "fuel": null, "internet_access": null, "landuse": null, "office": null, "parking": null, "police": null, "post_office": null, "restaurant": null, "school": null, "social_facility": null, "source": null, "start_date": null, "taxi": null, "wikipedia": null, "agrarian": null, "alcohol": null, "bag": null, "books": null, "butcher": null, "clothes": null, "computer": null, "craft": null, "furniture": null, "gas": null, "hairdresser": null, "kitchen": null, "massage": null, "medical_supply": null, "motorcycle": null, "organic": null, "outdoor": null, "pet": null, "religion": null, "second_hand": null, "shoes": null, "shop": null, "swimming_pool": null, "trade": null, "wholesale": null, "attraction": null, "camp_site": null, "guest_house": null, "hostel": null, "information": null, "museum": null, "tourism": null, "viewpoint": null, "zoo": null, "osm_type": "node", "spa": null, "fireplace": null, "fishing": null, "security": null, "water": null }, "geometry": { "type": "Point", "coordinates": [ 72.5984903, 23.0218734 ] } },
{ "type": "Feature", "properties": { "lat": 23.0241902, "visible": "False", "version": 3, "tags": { "bus": "yes", "public_transport": "station", "wikidata": "Q4696119" }, "id": 3355794772, "lon": 72.5785562, "changeset": 0.0, "timestamp": 1623945576, "addr:city": null, "addr:country": null, "addr:full": null, "addr:housenumber": null, "addr:housename": null, "addr:postcode": null, "addr:place": null, "addr:street": null, "email": null, "name": "Lal Darwaja AMTS Bus Stop", "opening_hours": null, "operator": "Ahmedabad Municipal Transport Service", "phone": null, "ref": null, "url": null, "website": null, "amenity": "bus_station", "atm": null, "bank": null, "bicycle_parking": null, "bicycle_rental": null, "bar": null, "biergarten": null, "building": null, "building:levels": null, "cafe": null, "drinking_water": null, "fast_food": null, "fountain": null, "fuel": null, "internet_access": null, "landuse": null, "office": null, "parking": null, "police": null, "post_office": null, "restaurant": null, "school": null, "social_facility": null, "source": null, "start_date": null, "taxi": null, "wikipedia": "en:Ahmedabad Municipal Transport Service", "agrarian": null, "alcohol": null, "bag": null, "books": null, "butcher": null, "clothes": null, "computer": null, "craft": null, "furniture": null, "gas": null, "hairdresser": null, "kitchen": null, "massage": null, "medical_supply": null, "motorcycle": null, "organic": null, "outdoor": null, "pet": null, "religion": null, "second_hand": null, "shoes": null, "shop": null, "swimming_pool": null, "trade": null, "wholesale": null, "attraction": null, "camp_site": null, "guest_house": null, "hostel": null, "information": null, "museum": null, "tourism": null, "viewpoint": null, "zoo": null, "osm_type": "node", "spa": null, "fireplace": null, "fishing": null, "security": null, "water": null }, "geometry": { "type": "Point", "coordinates": [ 72.5785562, 23.0241902 ] } },
{ "type": "Feature", "properties": { "lat": 23.0544365, "visible": "False", "version": 2, "tags": { "name:en": "Meghaninagar Char Rasta" }, "id": 4460015489, "lon": 72.61801, "changeset": 0.0, "timestamp": 1571960694, "addr:city": null, "addr:country": null, "addr:full": null, "addr:housenumber": null, "addr:housename": null, "addr:postcode": null, "addr:place": null, "addr:street": null, "email": null, "name": "Meghaninagar Char Rasta", "opening_hours": null, "operator": null, "phone": null, "ref": null, "url": null, "website": null, "amenity": "bus_stop", "atm": null, "bank": null, "bicycle_parking": null, "bicycle_rental": null, "bar": null, "biergarten": null, "building": null, "building:levels": null, "cafe": null, "drinking_water": null, "fast_food": null, "fountain": null, "fuel": null, "internet_access": null, "landuse": null, "office": null, "parking": null, "police": null, "post_office": null, "restaurant": null, "school": null, "social_facility": null, "source": null, "start_date": null, "taxi": null, "wikipedia": null, "agrarian": null, "alcohol": null, "bag": null, "books": null, "butcher": null, "clothes": null, "computer": null, "craft": null, "furniture": null, "gas": null, "hairdresser": null, "kitchen": null, "massage": null, "medical_supply": null, "motorcycle": null, "organic": null, "outdoor": null, "pet": null, "religion": null, "second_hand": null, "shoes": null, "shop": null, "swimming_pool": null, "trade": null, "wholesale": null, "attraction": null, "camp_site": null, "guest_house": null, "hostel": null, "information": null, "museum": null, "tourism": null, "viewpoint": null, "zoo": null, "osm_type": "node", "spa": null, "fireplace": null, "fishing": null, "security": null, "water": null }, "geometry": { "type": "Point", "coordinates": [ 72.61801, 23.0544365 ] } },
{ "type": "Feature", "properties": { "lat": 23.0024253, "visible": "False", "version": 1, "tags": { "bus": "yes", "public_transport": "station" }, "id": 5540117738, "lon": 72.5928352, "changeset": 0.0, "timestamp": 1523274590, "addr:city": null, "addr:country": null, "addr:full": null, "addr:housenumber": null, "addr:housename": null, "addr:postcode": null, "addr:place": null, "addr:street": null, "email": null, "name": "Kankaria Telephone exchange", "opening_hours": null, "operator": "BRTS, Ahmedabad", "phone": null, "ref": null, "url": null, "website": null, "amenity": "bus_station", "atm": null, "bank": null, "bicycle_parking": null, "bicycle_rental": null, "bar": null, "biergarten": null, "building": null, "building:levels": null, "cafe": null, "drinking_water": null, "fast_food": null, "fountain": null, "fuel": null, "internet_access": null, "landuse": null, "office": null, "parking": null, "police": null, "post_office": null, "restaurant": null, "school": null, "social_facility": null, "source": null, "start_date": null, "taxi": null, "wikipedia": null, "agrarian": null, "alcohol": null, "bag": null, "books": null, "butcher": null, "clothes": null, "computer": null, "craft": null, "furniture": null, "gas": null, "hairdresser": null, "kitchen": null, "massage": null, "medical_supply": null, "motorcycle": null, "organic": null, "outdoor": null, "pet": null, "religion": null, "second_hand": null, "shoes": null, "shop": null, "swimming_pool": null, "trade": null, "wholesale": null, "attraction": null, "camp_site": null, "guest_house": null, "hostel": null, "information": null, "museum": null, "tourism": null, "viewpoint": null, "zoo": null, "osm_type": "node", "spa": null, "fireplace": null, "fishing": null, "security": null, "water": null }, "geometry": { "type": "Point", "coordinates": [ 72.5928352, 23.0024253 ] } },
{ "type": "Feature", "properties": { "lat": 23.030556, "visible": "False", "version": 1, "tags": null, "id": 5711634722, "lon": 72.4501878, "changeset": 0.0, "timestamp": 1529679994, "addr:city": null, "addr:country": null, "addr:full": null, "addr:housenumber": null, "addr:housename": null, "addr:postcode": null, "addr:place": null, "addr:street": null, "email": null, "name": "AMTS Ghuma Bus terminal", "opening_hours": null, "operator": null, "phone": null, "ref": null, "url": null, "website": null, "amenity": "bus_station", "atm": null, "bank": null, "bicycle_parking": null, "bicycle_rental": null, "bar": null, "biergarten": null, "building": null, "building:levels": null, "cafe": null, "drinking_water": null, "fast_food": null, "fountain": null, "fuel": null, "internet_access": null, "landuse": null, "office": null, "parking": null, "police": null, "post_office": null, "restaurant": null, "school": null, "social_facility": null, "source": null, "start_date": null, "taxi": null, "wikipedia": null, "agrarian": null, "alcohol": null, "bag": null, "books": null, "butcher": null, "clothes": null, "computer": null, "craft": null, "furniture": null, "gas": null, "hairdresser": null, "kitchen": null, "massage": null, "medical_supply": null, "motorcycle": null, "organic": null, "outdoor": null, "pet": null, "religion": null, "second_hand": null, "shoes": null, "shop": null, "swimming_pool": null, "trade": null, "wholesale": null, "attraction": null, "camp_site": null, "guest_house": null, "hostel": null, "information": null, "museum": null, "tourism": null, "viewpoint": null, "zoo": null, "osm_type": "node", "spa": null, "fireplace": null, "fishing": null, "security": null, "water": null }, "geometry": { "type": "Point", "coordinates": [ 72.4501878, 23.030556 ] } },
{ "type": "Feature", "properties": { "lat": 23.0430359, "visible": "False", "version": 2, "tags": { "bus": "yes", "name:ko": "Bus stand(from Jodhpur)", "public_transport": "station" }, "id": 7020233387, "lon": 72.5895319, "changeset": 0.0, "timestamp": 1716372522, "addr:city": null, "addr:country": null, "addr:full": null, "addr:housenumber": null, "addr:housename": null, "addr:postcode": null, "addr:place": null, "addr:street": null, "email": null, "name": null, "opening_hours": null, "operator": null, "phone": null, "ref": null, "url": null, "website": null, "amenity": "bus_station", "atm": null, "bank": null, "bicycle_parking": null, "bicycle_rental": null, "bar": null, "biergarten": null, "building": null, "building:levels": null, "cafe": null, "drinking_water": null, "fast_food": null, "fountain": null, "fuel": null, "internet_access": null, "landuse": null, "office": null, "parking": null, "police": null, "post_office": null, "restaurant": null, "school": null, "social_facility": null, "source": null, "start_date": null, "taxi": null, "wikipedia": null, "agrarian": null, "alcohol": null, "bag": null, "books": null, "butcher": null, "clothes": null, "computer": null, "craft": null, "furniture": null, "gas": null, "hairdresser": null, "kitchen": null, "massage": null, "medical_supply": null, "motorcycle": null, "organic": null, "outdoor": null, "pet": null, "religion": null, "second_hand": null, "shoes": null, "shop": null, "swimming_pool": null, "trade": null, "wholesale": null, "attraction": null, "camp_site": null, "guest_house": null, "hostel": null, "information": null, "museum": null, "tourism": null, "viewpoint": null, "zoo": null, "osm_type": "node", "spa": null, "fireplace": null, "fishing": null, "security": null, "water": null }, "geometry": { "type": "Point", "coordinates": [ 72.5895319, 23.0430359 ] } },
{ "type": "Feature", "properties": { "lat": 23.0340108, "visible": "False", "version": 1, "tags": null, "id": 8153542476, "lon": 72.4641074, "changeset": 0.0, "timestamp": 1606115328, "addr:city": null, "addr:country": null, "addr:full": null, "addr:housenumber": null, "addr:housename": null, "addr:postcode": null, "addr:place": null, "addr:street": null, "email": null, "name": "Bopal gam", "opening_hours": null, "operator": null, "phone": null, "ref": null, "url": null, "website": null, "amenity": "bus_station", "atm": null, "bank": null, "bicycle_parking": null, "bicycle_rental": null, "bar": null, "biergarten": null, "building": null, "building:levels": null, "cafe": null, "drinking_water": null, "fast_food": null, "fountain": null, "fuel": null, "internet_access": null, "landuse": null, "office": null, "parking": null, "police": null, "post_office": null, "restaurant": null, "school": null, "social_facility": null, "source": null, "start_date": null, "taxi": null, "wikipedia": null, "agrarian": null, "alcohol": null, "bag": null, "books": null, "butcher": null, "clothes": null, "computer": null, "craft": null, "furniture": null, "gas": null, "hairdresser": null, "kitchen": null, "massage": null, "medical_supply": null, "motorcycle": null, "organic": null, "outdoor": null, "pet": null, "religion": null, "second_hand": null, "shoes": null, "shop": null, "swimming_pool": null, "trade": null, "wholesale": null, "attraction": null, "camp_site": null, "guest_house": null, "hostel": null, "information": null, "museum": null, "tourism": null, "viewpoint": null, "zoo": null, "osm_type": "node", "spa": null, "fireplace": null, "fishing": null, "security": null, "water": null }, "geometry": { "type": "Point", "coordinates": [ 72.4641074, 23.0340108 ] } },
{ "type": "Feature", "properties": { "lat": 23.0323222, "visible": "False", "version": 1, "tags": null, "id": 8153545458, "lon": 72.4691519, "changeset": 0.0, "timestamp": 1606115380, "addr:city": null, "addr:country": null, "addr:full": null, "addr:housenumber": null, "addr:housename": null, "addr:postcode": null, "addr:place": null, "addr:street": null, "email": null, "name": "Sterling City", "opening_hours": null, "operator": null, "phone": null, "ref": null, "url": null, "website": null, "amenity": "bus_station", "atm": null, "bank": null, "bicycle_parking": null, "bicycle_rental": null, "bar": null, "biergarten": null, "building": null, "building:levels": null, "cafe": null, "drinking_water": null, "fast_food": null, "fountain": null, "fuel": null, "internet_access": null, "landuse": null, "office": null, "parking": null, "police": null, "post_office": null, "restaurant": null, "school": null, "social_facility": null, "source": null, "start_date": null, "taxi": null, "wikipedia": null, "agrarian": null, "alcohol": null, "bag": null, "books": null, "butcher": null, "clothes": null, "computer": null, "craft": null, "furniture": null, "gas": null, "hairdresser": null, "kitchen": null, "massage": null, "medical_supply": null, "motorcycle": null, "organic": null, "outdoor": null, "pet": null, "religion": null, "second_hand": null, "shoes": null, "shop": null, "swimming_pool": null, "trade": null, "wholesale": null, "attraction": null, "camp_site": null, "guest_house": null, "hostel": null, "information": null, "museum": null, "tourism": null, "viewpoint": null, "zoo": null, "osm_type": "node", "spa": null, "fireplace": null, "fishing": null, "security": null, "water": null }, "geometry": { "type": "Point", "coordinates": [ 72.4691519, 23.0323222 ] } },
{ "type": "Feature", "properties": { "lat": null, "visible": "False", "version": 8, "tags": null, "id": 37231778, "lon": null, "changeset": null, "timestamp": 1423341126, "addr:city": null, "addr:country": null, "addr:full": null, "addr:housenumber": null, "addr:housename": null, "addr:postcode": null, "addr:place": null, "addr:street": null, "email": null, "name": "Gita Mandir Bus Station", "opening_hours": null, "operator": "Gujarat State Road Transport Corporation", "phone": null, "ref": null, "url": null, "website": "http://www.gsrtc.in/site/", "amenity": "bus_station", "atm": null, "bank": null, "bicycle_parking": null, "bicycle_rental": null, "bar": null, "biergarten": null, "building": null, "building:levels": null, "cafe": null, "drinking_water": null, "fast_food": null, "fountain": null, "fuel": null, "internet_access": null, "landuse": null, "office": null, "parking": null, "police": null, "post_office": null, "restaurant": null, "school": null, "social_facility": null, "source": null, "start_date": null, "taxi": null, "wikipedia": null, "agrarian": null, "alcohol": null, "bag": null, "books": null, "butcher": null, "clothes": null, "computer": null, "craft": null, "furniture": null, "gas": null, "hairdresser": null, "kitchen": null, "massage": null, "medical_supply": null, "motorcycle": null, "organic": null, "outdoor": null, "pet": null, "religion": null, "second_hand": null, "shoes": null, "shop": null, "swimming_pool": null, "trade": null, "wholesale": null, "attraction": null, "camp_site": null, "guest_house": null, "hostel": null, "information": null, "museum": null, "tourism": null, "viewpoint": null, "zoo": null, "osm_type": "way", "spa": null, "fireplace": null, "fishing": null, "security": null, "water": null }, "geometry": { "type": "Point", "coordinates": [ 72.591793839678658, 23.015554641551091 ] } },
{ "type": "Feature", "properties": { "lat": null, "visible": "False", "version": 2, "tags": { "bus": "yes", "public_transport": "station" }, "id": 314450134, "lon": null, "changeset": null, "timestamp": 1688975740, "addr:city": null, "addr:country": null, "addr:full": null, "addr:housenumber": null, "addr:housename": null, "addr:postcode": null, "addr:place": null, "addr:street": null, "email": null, "name": "Gujarat State Road Transport Corporation | Bus Station | Gita Mandir", "opening_hours": null, "operator": "Gujarat State Road Transport Corporation", "phone": null, "ref": null, "url": null, "website": "http://www.gsrtc.in/site/", "amenity": "bus_station", "atm": null, "bank": null, "bicycle_parking": null, "bicycle_rental": null, "bar": null, "biergarten": null, "building": null, "building:levels": null, "cafe": null, "drinking_water": null, "fast_food": null, "fountain": null, "fuel": null, "internet_access": null, "landuse": null, "office": null, "parking": null, "police": null, "post_office": null, "restaurant": null, "school": null, "social_facility": null, "source": null, "start_date": null, "taxi": null, "wikipedia": null, "agrarian": null, "alcohol": null, "bag": null, "books": null, "butcher": null, "clothes": null, "computer": null, "craft": null, "furniture": null, "gas": null, "hairdresser": null, "kitchen": null, "massage": null, "medical_supply": null, "motorcycle": null, "organic": null, "outdoor": null, "pet": null, "religion": null, "second_hand": null, "shoes": null, "shop": null, "swimming_pool": null, "trade": null, "wholesale": null, "attraction": null, "camp_site": null, "guest_house": null, "hostel": null, "information": null, "museum": null, "tourism": null, "viewpoint": null, "zoo": null, "osm_type": "way", "spa": null, "fireplace": null, "fishing": null, "security": null, "water": null }, "geometry": { "type": "Point", "coordinates": [ 72.59259127123201, 23.014036544903604 ] } },
{ "type": "Feature", "properties": { "lat": null, "visible": "False", "version": 2, "tags": null, "id": 323895527, "lon": null, "changeset": null, "timestamp": 1712915121, "addr:city": null, "addr:country": null, "addr:full": null, "addr:housenumber": null, "addr:housename": null, "addr:postcode": null, "addr:place": null, "addr:street": null, "email": null, "name": "Nava vadej bus stop", "opening_hours": null, "operator": null, "phone": null, "ref": null, "url": null, "website": null, "amenity": "bus_station", "atm": null, "bank": null, "bicycle_parking": null, "bicycle_rental": null, "bar": null, "biergarten": null, "building": null, "building:levels": null, "cafe": null, "drinking_water": null, "fast_food": null, "fountain": null, "fuel": null, "internet_access": null, "landuse": null, "office": null, "parking": null, "police": null, "post_office": null, "restaurant": null, "school": null, "social_facility": null, "source": null, "start_date": null, "taxi": null, "wikipedia": null, "agrarian": null, "alcohol": null, "bag": null, "books": null, "butcher": null, "clothes": null, "computer": null, "craft": null, "furniture": null, "gas": null, "hairdresser": null, "kitchen": null, "massage": null, "medical_supply": null, "motorcycle": null, "organic": null, "outdoor": null, "pet": null, "religion": null, "second_hand": null, "shoes": null, "shop": null, "swimming_pool": null, "trade": null, "wholesale": null, "attraction": null, "camp_site": null, "guest_house": null, "hostel": null, "information": null, "museum": null, "tourism": null, "viewpoint": null, "zoo": null, "osm_type": "way", "spa": null, "fireplace": null, "fishing": null, "security": null, "water": null }, "geometry": { "type": "Point", "coordinates": [ 72.571153560323239, 23.055145345974729 ] } },
{ "type": "Feature", "properties": { "lat": null, "visible": "False", "version": 3, "tags": { "bus": "yes", "public_transport": "station" }, "id": 328553143, "lon": null, "changeset": null, "timestamp": 1716378776, "addr:city": null, "addr:country": null, "addr:full": null, "addr:housenumber": null, "addr:housename": null, "addr:postcode": null, "addr:place": null, "addr:street": null, "email": null, "name": "Helmet Cross Roads Bus Station", "opening_hours": null, "operator": null, "phone": null, "ref": null, "url": null, "website": null, "amenity": "bus_station", "atm": null, "bank": null, "bicycle_parking": null, "bicycle_rental": null, "bar": null, "biergarten": null, "building": null, "building:levels": null, "cafe": null, "drinking_water": null, "fast_food": null, "fountain": null, "fuel": null, "internet_access": null, "landuse": null, "office": null, "parking": null, "police": null, "post_office": null, "restaurant": null, "school": null, "social_facility": null, "source": null, "start_date": null, "taxi": null, "wikipedia": null, "agrarian": null, "alcohol": null, "bag": null, "books": null, "butcher": null, "clothes": null, "computer": null, "craft": null, "furniture": null, "gas": null, "hairdresser": null, "kitchen": null, "massage": null, "medical_supply": null, "motorcycle": null, "organic": null, "outdoor": null, "pet": null, "religion": null, "second_hand": null, "shoes": null, "shop": null, "swimming_pool": null, "trade": null, "wholesale": null, "attraction": null, "camp_site": null, "guest_house": null, "hostel": null, "information": null, "museum": null, "tourism": null, "viewpoint": null, "zoo": null, "osm_type": "way", "spa": null, "fireplace": null, "fishing": null, "security": null, "water": null }, "geometry": { "type": "Point", "coordinates": [ 72.542328567259403, 23.04442165551502 ] } },
{ "type": "Feature", "properties": { "lat": null, "visible": "False", "version": 3, "tags": null, "id": 328733432, "lon": null, "changeset": null, "timestamp": 1705018889, "addr:city": null, "addr:country": null, "addr:full": null, "addr:housenumber": null, "addr:housename": null, "addr:postcode": null, "addr:place": null, "addr:street": null, "email": null, "name": "Vasna Bus Station", "opening_hours": null, "operator": null, "phone": null, "ref": null, "url": null, "website": null, "amenity": "bus_station", "atm": null, "bank": null, "bicycle_parking": null, "bicycle_rental": null, "bar": null, "biergarten": null, "building": null, "building:levels": null, "cafe": null, "drinking_water": null, "fast_food": null, "fountain": null, "fuel": null, "internet_access": "no", "landuse": null, "office": null, "parking": null, "police": null, "post_office": null, "restaurant": null, "school": null, "social_facility": null, "source": null, "start_date": null, "taxi": null, "wikipedia": null, "agrarian": null, "alcohol": null, "bag": null, "books": null, "butcher": null, "clothes": null, "computer": null, "craft": null, "furniture": null, "gas": null, "hairdresser": null, "kitchen": null, "massage": null, "medical_supply": null, "motorcycle": null, "organic": null, "outdoor": null, "pet": null, "religion": null, "second_hand": null, "shoes": null, "shop": null, "swimming_pool": null, "trade": null, "wholesale": null, "attraction": null, "camp_site": null, "guest_house": null, "hostel": null, "information": null, "museum": null, "tourism": null, "viewpoint": null, "zoo": null, "osm_type": "way", "spa": null, "fireplace": null, "fishing": null, "security": null, "water": null }, "geometry": { "type": "Point", "coordinates": [ 72.547677621723807, 23.002218732479982 ] } },
{ "type": "Feature", "properties": { "lat": null, "visible": "False", "version": 3, "tags": { "bus": "yes", "public_transport": "station" }, "id": 328753119, "lon": null, "changeset": null, "timestamp": 1709298464, "addr:city": null, "addr:country": null, "addr:full": null, "addr:housenumber": null, "addr:housename": null, "addr:postcode": null, "addr:place": null, "addr:street": null, "email": null, "name": "Lal Darwaja AMTS Bus Stop", "opening_hours": null, "operator": null, "phone": null, "ref": null, "url": null, "website": null, "amenity": "bus_station", "atm": null, "bank": null, "bicycle_parking": null, "bicycle_rental": null, "bar": null, "biergarten": null, "building": null, "building:levels": null, "cafe": null, "drinking_water": null, "fast_food": null, "fountain": null, "fuel": null, "internet_access": null, "landuse": null, "office": null, "parking": null, "police": null, "post_office": null, "restaurant": null, "school": null, "social_facility": null, "source": null, "start_date": null, "taxi": null, "wikipedia": null, "agrarian": null, "alcohol": null, "bag": null, "books": null, "butcher": null, "clothes": null, "computer": null, "craft": null, "furniture": null, "gas": null, "hairdresser": null, "kitchen": null, "massage": null, "medical_supply": null, "motorcycle": null, "organic": null, "outdoor": null, "pet": null, "religion": null, "second_hand": null, "shoes": null, "shop": null, "swimming_pool": null, "trade": null, "wholesale": null, "attraction": null, "camp_site": null, "guest_house": null, "hostel": null, "information": null, "museum": null, "tourism": null, "viewpoint": null, "zoo": null, "osm_type": "way", "spa": null, "fireplace": null, "fishing": null, "security": null, "water": null }, "geometry": { "type": "Point", "coordinates": [ 72.578432043741429, 23.024576999067659 ] } },
{ "type": "Feature", "properties": { "lat": null, "visible": "False", "version": 2, "tags": { "bus": "yes", "layer": "1", "public_transport": "station" }, "id": 378473414, "lon": null, "changeset": null, "timestamp": 1716378776, "addr:city": null, "addr:country": null, "addr:full": null, "addr:housenumber": null, "addr:housename": null, "addr:postcode": null, "addr:place": null, "addr:street": null, "email": null, "name": "Parasnagar BRTS stand", "opening_hours": null, "operator": null, "phone": null, "ref": null, "url": null, "website": null, "amenity": "bus_station", "atm": null, "bank": null, "bicycle_parking": null, "bicycle_rental": null, "bar": null, "biergarten": null, "building": "yes", "building:levels": null, "cafe": null, "drinking_water": null, "fast_food": null, "fountain": null, "fuel": null, "internet_access": null, "landuse": null, "office": null, "parking": null, "police": null, "post_office": null, "restaurant": null, "school": null, "social_facility": null, "source": null, "start_date": null, "taxi": null, "wikipedia": null, "agrarian": null, "alcohol": null, "bag": null, "books": null, "butcher": null, "clothes": null, "computer": null, "craft": null, "furniture": null, "gas": null, "hairdresser": null, "kitchen": null, "massage": null, "medical_supply": null, "motorcycle": null, "organic": null, "outdoor": null, "pet": null, "religion": null, "second_hand": null, "shoes": null, "shop": null, "swimming_pool": null, "trade": null, "wholesale": null, "attraction": null, "camp_site": null, "guest_house": null, "hostel": null, "information": null, "museum": null, "tourism": null, "viewpoint": null, "zoo": null, "osm_type": "way", "spa": null, "fireplace": null, "fishing": null, "security": null, "water": null }, "geometry": { "type": "Point", "coordinates": [ 72.543232434151804, 23.055545258670758 ] } },
{ "type": "Feature", "properties": { "lat": null, "visible": "False", "version": 4, "tags": { "bus": "yes", "public_transport": "station" }, "id": 378473566, "lon": null, "changeset": null, "timestamp": 1716378776, "addr:city": null, "addr:country": null, "addr:full": null, "addr:housenumber": null, "addr:housename": null, "addr:postcode": null, "addr:place": null, "addr:street": null, "email": null, "name": "Sola cross road BRTS stand", "opening_hours": null, "operator": null, "phone": null, "ref": null, "url": null, "website": null, "amenity": "bus_station", "atm": null, "bank": null, "bicycle_parking": null, "bicycle_rental": null, "bar": null, "biergarten": null, "building": "yes", "building:levels": null, "cafe": null, "drinking_water": null, "fast_food": null, "fountain": null, "fuel": null, "internet_access": null, "landuse": null, "office": null, "parking": null, "police": null, "post_office": null, "restaurant": null, "school": null, "social_facility": null, "source": null, "start_date": null, "taxi": null, "wikipedia": null, "agrarian": null, "alcohol": null, "bag": null, "books": null, "butcher": null, "clothes": null, "computer": null, "craft": null, "furniture": null, "gas": null, "hairdresser": null, "kitchen": null, "massage": null, "medical_supply": null, "motorcycle": null, "organic": null, "outdoor": null, "pet": null, "religion": null, "second_hand": null, "shoes": null, "shop": null, "swimming_pool": null, "trade": null, "wholesale": null, "attraction": null, "camp_site": null, "guest_house": null, "hostel": null, "information": null, "museum": null, "tourism": null, "viewpoint": null, "zoo": null, "osm_type": "way", "spa": null, "fireplace": null, "fishing": null, "security": null, "water": null }, "geometry": { "type": "Point", "coordinates": [ 72.546803486149543, 23.052729512079615 ] } },
{ "type": "Feature", "properties": { "lat": null, "visible": "False", "version": 5, "tags": { "building:colour": "lightgrey", "building:material": "plaster", "roof:colour": "lightgrey", "roof:material": "tar_paper", "roof:shape": "flat" }, "id": 451501638, "lon": null, "changeset": null, "timestamp": 1731468780, "addr:city": null, "addr:country": null, "addr:full": null, "addr:housenumber": null, "addr:housename": null, "addr:postcode": null, "addr:place": null, "addr:street": null, "email": null, "name": "Ranip GSRTC", "opening_hours": null, "operator": null, "phone": null, "ref": null, "url": null, "website": null, "amenity": "bus_station", "atm": null, "bank": null, "bicycle_parking": null, "bicycle_rental": null, "bar": null, "biergarten": null, "building": "commercial", "building:levels": "11", "cafe": null, "drinking_water": null, "fast_food": null, "fountain": null, "fuel": null, "internet_access": null, "landuse": null, "office": null, "parking": null, "police": null, "post_office": null, "restaurant": null, "school": null, "social_facility": null, "source": null, "start_date": null, "taxi": null, "wikipedia": null, "agrarian": null, "alcohol": null, "bag": null, "books": null, "butcher": null, "clothes": null, "computer": null, "craft": null, "furniture": null, "gas": null, "hairdresser": null, "kitchen": null, "massage": null, "medical_supply": null, "motorcycle": null, "organic": null, "outdoor": null, "pet": null, "religion": null, "second_hand": null, "shoes": null, "shop": null, "swimming_pool": null, "trade": null, "wholesale": null, "attraction": null, "camp_site": null, "guest_house": null, "hostel": null, "information": null, "museum": null, "tourism": null, "viewpoint": null, "zoo": null, "osm_type": "way", "spa": null, "fireplace": null, "fishing": null, "security": null, "water": null }, "geometry": { "type": "Point", "coordinates": [ 72.57572047510844, 23.068358071991021 ] } },
{ "type": "Feature", "properties": { "lat": null, "visible": "False", "version": 2, "tags": null, "id": 551617841, "lon": null, "changeset": null, "timestamp": 1731700189, "addr:city": null, "addr:country": null, "addr:full": null, "addr:housenumber": null, "addr:housename": null, "addr:postcode": null, "addr:place": null, "addr:street": null, "email": null, "name": "Shivranjani", "opening_hours": null, "operator": null, "phone": null, "ref": null, "url": null, "website": null, "amenity": "bus_station", "atm": null, "bank": null, "bicycle_parking": null, "bicycle_rental": null, "bar": null, "biergarten": null, "building": "yes", "building:levels": null, "cafe": null, "drinking_water": null, "fast_food": null, "fountain": null, "fuel": null, "internet_access": null, "landuse": null, "office": null, "parking": null, "police": null, "post_office": null, "restaurant": null, "school": null, "social_facility": null, "source": null, "start_date": null, "taxi": null, "wikipedia": null, "agrarian": null, "alcohol": null, "bag": null, "books": null, "butcher": null, "clothes": null, "computer": null, "craft": null, "furniture": null, "gas": null, "hairdresser": null, "kitchen": null, "massage": null, "medical_supply": null, "motorcycle": null, "organic": null, "outdoor": null, "pet": null, "religion": null, "second_hand": null, "shoes": null, "shop": null, "swimming_pool": null, "trade": null, "wholesale": null, "attraction": null, "camp_site": null, "guest_house": null, "hostel": null, "information": null, "museum": null, "tourism": null, "viewpoint": null, "zoo": null, "osm_type": "way", "spa": null, "fireplace": null, "fishing": null, "security": null, "water": null }, "geometry": { "type": "Point", "coordinates": [ 72.53129381792553, 23.024303794945439 ] } },
{ "type": "Feature", "properties": { "lat": null, "visible": "False", "version": 2, "tags": { "bench": "yes", "bus": "yes", "network": "BRTS", "public_transport": "station", "shelter": "yes", "wheelchair": "yes" }, "id": 972959138, "lon": null, "changeset": null, "timestamp": 1638037106, "addr:city": null, "addr:country": null, "addr:full": null, "addr:housenumber": null, "addr:housename": null, "addr:postcode": null, "addr:place": null, "addr:street": null, "email": null, "name": "Iskcon Cross Road BRTS", "opening_hours": null, "operator": "Ahmedabad Janmarg Ltd.", "phone": null, "ref": null, "url": null, "website": null, "amenity": "bus_station", "atm": null, "bank": null, "bicycle_parking": null, "bicycle_rental": null, "bar": null, "biergarten": null, "building": "yes", "building:levels": null, "cafe": null, "drinking_water": null, "fast_food": null, "fountain": null, "fuel": null, "internet_access": null, "landuse": null, "office": null, "parking": null, "police": null, "post_office": null, "restaurant": null, "school": null, "social_facility": null, "source": null, "start_date": null, "taxi": null, "wikipedia": null, "agrarian": null, "alcohol": null, "bag": null, "books": null, "butcher": null, "clothes": null, "computer": null, "craft": null, "furniture": null, "gas": null, "hairdresser": null, "kitchen": null, "massage": null, "medical_supply": null, "motorcycle": null, "organic": null, "outdoor": null, "pet": null, "religion": null, "second_hand": null, "shoes": null, "shop": null, "swimming_pool": null, "trade": null, "wholesale": null, "attraction": null, "camp_site": null, "guest_house": null, "hostel": null, "information": null, "museum": null, "tourism": null, "viewpoint": null, "zoo": null, "osm_type": "way", "spa": null, "fireplace": null, "fishing": null, "security": null, "water": null }, "geometry": { "type": "Point", "coordinates": [ 72.508526124951288, 23.027152561570617 ] } },
{ "type": "Feature", "properties": { "lat": null, "visible": "False", "version": 1, "tags": { "bus": "yes", "network": "BRTS", "public_transport": "station" }, "id": 972959139, "lon": null, "changeset": null, "timestamp": 1628887781, "addr:city": null, "addr:country": null, "addr:full": null, "addr:housenumber": null, "addr:housename": null, "addr:postcode": null, "addr:place": null, "addr:street": null, "email": null, "name": "Ashok Vatika BRTS", "opening_hours": null, "operator": "Ahmedabad Janmarg Ltd.", "phone": null, "ref": null, "url": null, "website": null, "amenity": "bus_station", "atm": null, "bank": null, "bicycle_parking": null, "bicycle_rental": null, "bar": null, "biergarten": null, "building": "yes", "building:levels": null, "cafe": null, "drinking_water": null, "fast_food": null, "fountain": null, "fuel": null, "internet_access": null, "landuse": null, "office": null, "parking": null, "police": null, "post_office": null, "restaurant": null, "school": null, "social_facility": null, "source": null, "start_date": null, "taxi": null, "wikipedia": null, "agrarian": null, "alcohol": null, "bag": null, "books": null, "butcher": null, "clothes": null, "computer": null, "craft": null, "furniture": null, "gas": null, "hairdresser": null, "kitchen": null, "massage": null, "medical_supply": null, "motorcycle": null, "organic": null, "outdoor": null, "pet": null, "religion": null, "second_hand": null, "shoes": null, "shop": null, "swimming_pool": null, "trade": null, "wholesale": null, "attraction": null, "camp_site": null, "guest_house": null, "hostel": null, "information": null, "museum": null, "tourism": null, "viewpoint": null, "zoo": null, "osm_type": "way", "spa": null, "fireplace": null, "fishing": null, "security": null, "water": null }, "geometry": { "type": "Point", "coordinates": [ 72.495702086179207, 23.027937598232224 ] } },
{ "type": "Feature", "properties": { "lat": null, "visible": "False", "version": 1, "tags": { "bus": "yes", "network": "BRTS", "public_transport": "station" }, "id": 972959140, "lon": null, "changeset": null, "timestamp": 1628887781, "addr:city": null, "addr:country": null, "addr:full": null, "addr:housenumber": null, "addr:housename": null, "addr:postcode": null, "addr:place": null, "addr:street": null, "email": null, "name": "Jaintilal Park BRTS", "opening_hours": null, "operator": "Ahmedabad Janmarg Ltd.", "phone": null, "ref": null, "url": null, "website": null, "amenity": "bus_station", "atm": null, "bank": null, "bicycle_parking": null, "bicycle_rental": null, "bar": null, "biergarten": null, "building": "yes", "building:levels": null, "cafe": null, "drinking_water": null, "fast_food": null, "fountain": null, "fuel": null, "internet_access": null, "landuse": null, "office": null, "parking": null, "police": null, "post_office": null, "restaurant": null, "school": null, "social_facility": null, "source": null, "start_date": null, "taxi": null, "wikipedia": null, "agrarian": null, "alcohol": null, "bag": null, "books": null, "butcher": null, "clothes": null, "computer": null, "craft": null, "furniture": null, "gas": null, "hairdresser": null, "kitchen": null, "massage": null, "medical_supply": null, "motorcycle": null, "organic": null, "outdoor": null, "pet": null, "religion": null, "second_hand": null, "shoes": null, "shop": null, "swimming_pool": null, "trade": null, "wholesale": null, "attraction": null, "camp_site": null, "guest_house": null, "hostel": null, "information": null, "museum": null, "tourism": null, "viewpoint": null, "zoo": null, "osm_type": "way", "spa": null, "fireplace": null, "fishing": null, "security": null, "water": null }, "geometry": { "type": "Point", "coordinates": [ 72.49100874027819, 23.028424712200906 ] } },
{ "type": "Feature", "properties": { "lat": null, "visible": "False", "version": 1, "tags": { "bus": "yes", "network": "BRTS", "public_transport": "station" }, "id": 972959141, "lon": null, "changeset": null, "timestamp": 1628887781, "addr:city": null, "addr:country": null, "addr:full": null, "addr:housenumber": null, "addr:housename": null, "addr:postcode": null, "addr:place": null, "addr:street": null, "email": null, "name": "Swagat Bunglows BRTS", "opening_hours": null, "operator": "Ahmedabad Janmarg Ltd.", "phone": null, "ref": null, "url": null, "website": null, "amenity": "bus_station", "atm": null, "bank": null, "bicycle_parking": null, "bicycle_rental": null, "bar": null, "biergarten": null, "building": "yes", "building:levels": null, "cafe": null, "drinking_water": null, "fast_food": null, "fountain": null, "fuel": null, "internet_access": null, "landuse": null, "office": null, "parking": null, "police": null, "post_office": null, "restaurant": null, "school": null, "social_facility": null, "source": null, "start_date": null, "taxi": null, "wikipedia": null, "agrarian": null, "alcohol": null, "bag": null, "books": null, "butcher": null, "clothes": null, "computer": null, "craft": null, "furniture": null, "gas": null, "hairdresser": null, "kitchen": null, "massage": null, "medical_supply": null, "motorcycle": null, "organic": null, "outdoor": null, "pet": null, "religion": null, "second_hand": null, "shoes": null, "shop": null, "swimming_pool": null, "trade": null, "wholesale": null, "attraction": null, "camp_site": null, "guest_house": null, "hostel": null, "information": null, "museum": null, "tourism": null, "viewpoint": null, "zoo": null, "osm_type": "way", "spa": null, "fireplace": null, "fishing": null, "security": null, "water": null }, "geometry": { "type": "Point", "coordinates": [ 72.485881133969826, 23.027879782750407 ] } },
{ "type": "Feature", "properties": { "lat": null, "visible": "False", "version": 1, "tags": { "bus": "yes", "network": "BRTS", "public_transport": "station" }, "id": 972959142, "lon": null, "changeset": null, "timestamp": 1628887781, "addr:city": null, "addr:country": null, "addr:full": null, "addr:housenumber": null, "addr:housename": null, "addr:postcode": null, "addr:place": null, "addr:street": null, "email": null, "name": "Ambli Gam BRTS", "opening_hours": null, "operator": "Ahmedabad Janmarg Ltd.", "phone": null, "ref": null, "url": null, "website": null, "amenity": "bus_station", "atm": null, "bank": null, "bicycle_parking": null, "bicycle_rental": null, "bar": null, "biergarten": null, "building": "yes", "building:levels": null, "cafe": null, "drinking_water": null, "fast_food": null, "fountain": null, "fuel": null, "internet_access": null, "landuse": null, "office": null, "parking": null, "police": null, "post_office": null, "restaurant": null, "school": null, "social_facility": null, "source": null, "start_date": null, "taxi": null, "wikipedia": null, "agrarian": null, "alcohol": null, "bag": null, "books": null, "butcher": null, "clothes": null, "computer": null, "craft": null, "furniture": null, "gas": null, "hairdresser": null, "kitchen": null, "massage": null, "medical_supply": null, "motorcycle": null, "organic": null, "outdoor": null, "pet": null, "religion": null, "second_hand": null, "shoes": null, "shop": null, "swimming_pool": null, "trade": null, "wholesale": null, "attraction": null, "camp_site": null, "guest_house": null, "hostel": null, "information": null, "museum": null, "tourism": null, "viewpoint": null, "zoo": null, "osm_type": "way", "spa": null, "fireplace": null, "fishing": null, "security": null, "water": null }, "geometry": { "type": "Point", "coordinates": [ 72.482190207432197, 23.026456825436746 ] } },
{ "type": "Feature", "properties": { "lat": null, "visible": "False", "version": 1, "tags": { "bench": "yes", "bus": "yes", "network": "BRTS", "public_transport": "station", "shelter": "yes" }, "id": 972959143, "lon": null, "changeset": null, "timestamp": 1628887781, "addr:city": null, "addr:country": null, "addr:full": null, "addr:housenumber": null, "addr:housename": null, "addr:postcode": null, "addr:place": null, "addr:street": null, "email": null, "name": "Bopal Appoach BRTS", "opening_hours": null, "operator": "Ahmedabad Janmarg Ltd.", "phone": null, "ref": null, "url": null, "website": null, "amenity": "bus_station", "atm": null, "bank": null, "bicycle_parking": null, "bicycle_rental": null, "bar": null, "biergarten": null, "building": "yes", "building:levels": null, "cafe": null, "drinking_water": null, "fast_food": null, "fountain": null, "fuel": null, "internet_access": null, "landuse": null, "office": null, "parking": null, "police": null, "post_office": null, "restaurant": null, "school": null, "social_facility": null, "source": null, "start_date": null, "taxi": null, "wikipedia": null, "agrarian": null, "alcohol": null, "bag": null, "books": null, "butcher": null, "clothes": null, "computer": null, "craft": null, "furniture": null, "gas": null, "hairdresser": null, "kitchen": null, "massage": null, "medical_supply": null, "motorcycle": null, "organic": null, "outdoor": null, "pet": null, "religion": null, "second_hand": null, "shoes": null, "shop": null, "swimming_pool": null, "trade": null, "wholesale": null, "attraction": null, "camp_site": null, "guest_house": null, "hostel": null, "information": null, "museum": null, "tourism": null, "viewpoint": null, "zoo": null, "osm_type": "way", "spa": null, "fireplace": null, "fishing": null, "security": null, "water": null }, "geometry": { "type": "Point", "coordinates": [ 72.477908609977533, 23.025847336373118 ] } },
{ "type": "Feature", "properties": { "lat": null, "visible": "False", "version": 1, "tags": { "bus": "yes", "public_transport": "station" }, "id": 1015046805, "lon": null, "changeset": null, "timestamp": 1640348378, "addr:city": null, "addr:country": null, "addr:full": null, "addr:housenumber": null, "addr:housename": null, "addr:postcode": null, "addr:place": null, "addr:street": null, "email": null, "name": "Naroda Gam", "opening_hours": null, "operator": null, "phone": null, "ref": null, "url": null, "website": null, "amenity": "bus_station", "atm": null, "bank": null, "bicycle_parking": null, "bicycle_rental": null, "bar": null, "biergarten": null, "building": "yes", "building:levels": null, "cafe": null, "drinking_water": null, "fast_food": null, "fountain": null, "fuel": null, "internet_access": null, "landuse": null, "office": null, "parking": null, "police": null, "post_office": null, "restaurant": null, "school": null, "social_facility": null, "source": null, "start_date": null, "taxi": null, "wikipedia": null, "agrarian": null, "alcohol": null, "bag": null, "books": null, "butcher": null, "clothes": null, "computer": null, "craft": null, "furniture": null, "gas": null, "hairdresser": null, "kitchen": null, "massage": null, "medical_supply": null, "motorcycle": null, "organic": null, "outdoor": null, "pet": null, "religion": null, "second_hand": null, "shoes": null, "shop": null, "swimming_pool": null, "trade": null, "wholesale": null, "attraction": null, "camp_site": null, "guest_house": null, "hostel": null, "information": null, "museum": null, "tourism": null, "viewpoint": null, "zoo": null, "osm_type": "way", "spa": null, "fireplace": null, "fishing": null, "security": null, "water": null }, "geometry": { "type": "Point", "coordinates": [ 72.655787155873341, 23.077104158702152 ] } }
]
}
