{
"type": "FeatureCollection",
"name": "pharmacies",
"crs": { "type": "name", "properties": { "name": "urn:ogc:def:crs:OGC:1.3:CRS84" } },
"features": [
{ "type": "Feature", "properties": { "lat": 23.0172124, "visible": "False", "version": 4, "tags": { "healthcare": "pharmacy" }, "id": 761310675, "lon": 72.5303877, "changeset": 0.0, "timestamp": 1628800876, "addr:city": null, "addr:country": null, "addr:full": null, "addr:housenumber": null, "addr:housename": null, "addr:postcode": null, "addr:place": null, "addr:street": null, "email": null, "name": "Medilink Medical Store", "opening_hours": null, "operator": null, "phone": null, "ref": null, "url": null, "website": null, "amenity": "pharmacy", "atm": null, "bank": null, "bicycle_parking": null, "bicycle_rental": null, "bar": null, "biergarten": null, "building": null, "building:levels": null, "cafe": null, "drinking_water": null, "fast_food": null, "fountain": null, "fuel": null, "internet_access": null, "landuse": null, "office": null, "parking": null, "police": null, "post_office": null, "restaurant": null, "school": null, "social_facility": null, "source": null, "start_date": null, "taxi": null, "wikipedia": null, "agrarian": null, "alcohol": null, "bag": null, "books": null, "butcher": null, "clothes": null, "computer": null, "craft": null, "furniture": null, "gas": null, "hairdresser": null, "kitchen": null, "massage": null, "medical_supply": null, "motorcycle": null, "organic": null, "outdoor": null, "pet": null, "religion": null, "second_hand": null, "shoes": null, "shop": null, "swimming_pool": null, "trade": null, "wholesale": null, "attraction": null, "camp_site": null, "guest_house": null, "hostel": null, "information": null, "museum": null, "tourism": null, "viewpoint": null, "zoo": null, "osm_type": "node", "spa": null, "fireplace": null, "fishing": null, "security": null, "water": null }, "geometry": { "type": "Point", "coordinates": [ 72.5303877, 23.0172124 ] } },
{ "type": "Feature", "properties": { "lat": 23.0456657, "visible": "False", "version": 1, "tags": null, "id": 1779119065, "lon": 72.5522734, "changeset": 0.0, "timestamp": 1339070091, "addr:city": null, "addr:country": null, "addr:full": null, "addr:housenumber": null, "addr:housename": null, "addr:postcode": null, "addr:place": null, "addr:street": null, "email": null, "name": "Apollo Pharmacy", "opening_hours": null, "operator": null, "phone": null, "ref": null, "url": null, "website": null, "amenity": "pharmacy", "atm": null, "bank": null, "bicycle_parking": null, "bicycle_rental": null, "bar": null, "biergarten": null, "building": null, "building:levels": null, "cafe": null, "drinking_water": null, "fast_food": null, "fountain": null, "fuel": null, "internet_access": null, "landuse": null, "office": null, "parking": null, "police": null, "post_office": null, "restaurant": null, "school": null, "social_facility": null, "source": null, "start_date": null, "taxi": null, "wikipedia": null, "agrarian": null, "alcohol": null, "bag": null, "books": null, "butcher": null, "clothes": null, "computer": null, "craft": null, "furniture": null, "gas": null, "hairdresser": null, "kitchen": null, "massage": null, "medical_supply": null, "motorcycle": null, "organic": null, "outdoor": null, "pet": null, "religion": null, "second_hand": null, "shoes": null, "shop": null, "swimming_pool": null, "trade": null, "wholesale": null, "attraction": null, "camp_site": null, "guest_house": null, "hostel": null, "information": null, "museum": null, "tourism": null, "viewpoint": null, "zoo": null, "osm_type": "node", "spa": null, "fireplace": null, "fishing": null, "security": null, "water": null }, "geometry": { "type": "Point", "coordinates": [ 72.5522734, 23.0456657 ] } },
{ "type": "Feature", "properties": { "lat": 23.0855329, "visible": "False", "version": 1, "tags": { "dispensing": "yes" }, "id": 2211706795, "lon": 72.5643816, "changeset": 0.0, "timestamp": 1363805978, "addr:city": null, "addr:country": null, "addr:full": null, "addr:housenumber": null, "addr:housename": null, "addr:postcode": null, "addr:place": null, "addr:street": "GST Crossing, New Ranip", "email": null, "name": "Kesharbhavani Medical Store", "opening_hours": null, "operator": null, "phone": null, "ref": null, "url": null, "website": null, "amenity": "pharmacy", "atm": null, "bank": null, "bicycle_parking": null, "bicycle_rental": null, "bar": null, "biergarten": null, "building": null, "building:levels": null, "cafe": null, "drinking_water": null, "fast_food": null, "fountain": null, "fuel": null, "internet_access": null, "landuse": null, "office": null, "parking": null, "police": null, "post_office": null, "restaurant": null, "school": null, "social_facility": null, "source": null, "start_date": null, "taxi": null, "wikipedia": null, "agrarian": null, "alcohol": null, "bag": null, "books": null, "butcher": null, "clothes": null, "computer": null, "craft": null, "furniture": null, "gas": null, "hairdresser": null, "kitchen": null, "massage": null, "medical_supply": null, "motorcycle": null, "organic": null, "outdoor": null, "pet": null, "religion": null, "second_hand": null, "shoes": null, "shop": null, "swimming_pool": null, "trade": null, "wholesale": null, "attraction": null, "camp_site": null, "guest_house": null, "hostel": null, "information": null, "museum": null, "tourism": null, "viewpoint": null, "zoo": null, "osm_type": "node", "spa": null, "fireplace": null, "fishing": null, "security": null, "water": null }, "geometry": { "type": "Point", "coordinates": [ 72.5643816, 23.0855329 ] } },
{ "type": "Feature", "properties": { "lat": 23.047818, "visible": "False", "version": 3, "tags": { "healthcare": "pharmacy" }, "id": 4341555092, "lon": 72.6371657, "changeset": 0.0, "timestamp": 1686198616, "addr:city": null, "addr:country": null, "addr:full": null, "addr:housenumber": null, "addr:housename": null, "addr:postcode": "382345", "addr:place": null, "addr:street": "Hirawadi road", "email": null, "name": "shilpa medical store", "opening_hours": null, "operator": null, "phone": null, "ref": null, "url": null, "website": null, "amenity": "pharmacy", "atm": null, "bank": null, "bicycle_parking": null, "bicycle_rental": null, "bar": null, "biergarten": null, "building": null, "building:levels": null, "cafe": null, "drinking_water": null, "fast_food": null, "fountain": null, "fuel": null, "internet_access": null, "landuse": null, "office": null, "parking": null, "police": null, "post_office": null, "restaurant": null, "school": null, "social_facility": null, "source": null, "start_date": null, "taxi": null, "wikipedia": null, "agrarian": null, "alcohol": null, "bag": null, "books": null, "butcher": null, "clothes": null, "computer": null, "craft": null, "furniture": null, "gas": null, "hairdresser": null, "kitchen": null, "massage": null, "medical_supply": null, "motorcycle": null, "organic": null, "outdoor": null, "pet": null, "religion": null, "second_hand": null, "shoes": null, "shop": null, "swimming_pool": null, "trade": null, "wholesale": null, "attraction": null, "camp_site": null, "guest_house": null, "hostel": null, "information": null, "museum": null, "tourism": null, "viewpoint": null, "zoo": null, "osm_type": "node", "spa": null, "fireplace": null, "fishing": null, "security": null, "water": null }, "geometry": { "type": "Point", "coordinates": [ 72.6371657, 23.047818 ] } },
{ "type": "Feature", "properties": { "lat": 23.0882437, "visible": "False", "version": 1, "tags": { "name:en": "Aryan's Villa💞", "name:hi": "Aryan's Villa💞" }, "id": 4423349191, "lon": 72.584299, "changeset": 0.0, "timestamp": 1475140360, "addr:city": null, "addr:country": null, "addr:full": null, "addr:housenumber": null, "addr:housename": null, "addr:postcode": null, "addr:place": null, "addr:street": null, "email": null, "name": "Aryan's Villa💞", "opening_hours": null, "operator": null, "phone": null, "ref": null, "url": null, "website": null, "amenity": "pharmacy", "atm": null, "bank": null, "bicycle_parking": null, "bicycle_rental": null, "bar": null, "biergarten": null, "building": null, "building:levels": null, "cafe": null, "drinking_water": null, "fast_food": null, "fountain": null, "fuel": null, "internet_access": null, "landuse": null, "office": null, "parking": null, "police": null, "post_office": null, "restaurant": null, "school": null, "social_facility": null, "source": null, "start_date": null, "taxi": null, "wikipedia": null, "agrarian": null, "alcohol": null, "bag": null, "books": null, "butcher": null, "clothes": null, "computer": null, "craft": null, "furniture": null, "gas": null, "hairdresser": null, "kitchen": null, "massage": null, "medical_supply": null, "motorcycle": null, "organic": null, "outdoor": null, "pet": null, "religion": null, "second_hand": null, "shoes": null, "shop": null, "swimming_pool": null, "trade": null, "wholesale": null, "attraction": null, "camp_site": null, "guest_house": null, "hostel": null, "information": null, "museum": null, "tourism": null, "viewpoint": null, "zoo": null, "osm_type": "node", "spa": null, "fireplace": null, "fishing": null, "security": null, "water": null }, "geometry": { "type": "Point", "coordinates": [ 72.584299, 23.0882437 ] } },
{ "type": "Feature", "properties": { "lat": 23.087526, "visible": "False", "version": 1, "tags": { "name:en": "West Cost pharma" }, "id": 4518445195, "lon": 72.536757, "changeset": 0.0, "timestamp": 1479965199, "addr:city": null, "addr:country": null, "addr:full": null, "addr:housenumber": "0 meldi estate", "addr:housename": null, "addr:postcode": "382481", "addr:place": null, "addr:street": "Gota Road", "email": null, "name": "West Cost pharma", "opening_hours": null, "operator": null, "phone": "9909005694", "ref": null, "url": null, "website": null, "amenity": "pharmacy", "atm": null, "bank": null, "bicycle_parking": null, "bicycle_rental": null, "bar": null, "biergarten": null, "building": null, "building:levels": null, "cafe": null, "drinking_water": null, "fast_food": null, "fountain": null, "fuel": null, "internet_access": null, "landuse": null, "office": null, "parking": null, "police": null, "post_office": null, "restaurant": null, "school": null, "social_facility": null, "source": null, "start_date": null, "taxi": null, "wikipedia": null, "agrarian": null, "alcohol": null, "bag": null, "books": null, "butcher": null, "clothes": null, "computer": null, "craft": null, "furniture": null, "gas": null, "hairdresser": null, "kitchen": null, "massage": null, "medical_supply": null, "motorcycle": null, "organic": null, "outdoor": null, "pet": null, "religion": null, "second_hand": null, "shoes": null, "shop": null, "swimming_pool": null, "trade": null, "wholesale": null, "attraction": null, "camp_site": null, "guest_house": null, "hostel": null, "information": null, "museum": null, "tourism": null, "viewpoint": null, "zoo": null, "osm_type": "node", "spa": null, "fireplace": null, "fishing": null, "security": null, "water": null }, "geometry": { "type": "Point", "coordinates": [ 72.536757, 23.087526 ] } },
{ "type": "Feature", "properties": { "lat": 23.0795537, "visible": "False", "version": 1, "tags": null, "id": 5671259321, "lon": 72.5744221, "changeset": 0.0, "timestamp": 1528349974, "addr:city": null, "addr:country": null, "addr:full": null, "addr:housenumber": null, "addr:housename": null, "addr:postcode": null, "addr:place": null, "addr:street": null, "email": null, "name": "Gita Medical Stores", "opening_hours": null, "operator": null, "phone": null, "ref": null, "url": null, "website": null, "amenity": "pharmacy", "atm": null, "bank": null, "bicycle_parking": null, "bicycle_rental": null, "bar": null, "biergarten": null, "building": null, "building:levels": null, "cafe": null, "drinking_water": null, "fast_food": null, "fountain": null, "fuel": null, "internet_access": null, "landuse": null, "office": null, "parking": null, "police": null, "post_office": null, "restaurant": null, "school": null, "social_facility": null, "source": null, "start_date": null, "taxi": null, "wikipedia": null, "agrarian": null, "alcohol": null, "bag": null, "books": null, "butcher": null, "clothes": null, "computer": null, "craft": null, "furniture": null, "gas": null, "hairdresser": null, "kitchen": null, "massage": null, "medical_supply": null, "motorcycle": null, "organic": null, "outdoor": null, "pet": null, "religion": null, "second_hand": null, "shoes": null, "shop": null, "swimming_pool": null, "trade": null, "wholesale": null, "attraction": null, "camp_site": null, "guest_house": null, "hostel": null, "information": null, "museum": null, "tourism": null, "viewpoint": null, "zoo": null, "osm_type": "node", "spa": null, "fireplace": null, "fishing": null, "security": null, "water": null }, "geometry": { "type": "Point", "coordinates": [ 72.5744221, 23.0795537 ] } },
{ "type": "Feature", "properties": { "lat": 23.0168114, "visible": "False", "version": 1, "tags": { "brand": "Apollo Pharmacy", "brand:wikidata": "Q62562612", "dispensing": "yes", "healthcare": "pharmacy" }, "id": 6989202573, "lon": 72.4702312, "changeset": 0.0, "timestamp": 1574153046, "addr:city": null, "addr:country": null, "addr:full": null, "addr:housenumber": null, "addr:housename": null, "addr:postcode": null, "addr:place": null, "addr:street": null, "email": null, "name": "Apollo Pharmacy", "opening_hours": null, "operator": "Apollo", "phone": null, "ref": null, "url": null, "website": null, "amenity": "pharmacy", "atm": null, "bank": null, "bicycle_parking": null, "bicycle_rental": null, "bar": null, "biergarten": null, "building": null, "building:levels": null, "cafe": null, "drinking_water": null, "fast_food": null, "fountain": null, "fuel": null, "internet_access": null, "landuse": null, "office": null, "parking": null, "police": null, "post_office": null, "restaurant": null, "school": null, "social_facility": null, "source": null, "start_date": null, "taxi": null, "wikipedia": null, "agrarian": null, "alcohol": null, "bag": null, "books": null, "butcher": null, "clothes": null, "computer": null, "craft": null, "furniture": null, "gas": null, "hairdresser": null, "kitchen": null, "massage": null, "medical_supply": null, "motorcycle": null, "organic": null, "outdoor": null, "pet": null, "religion": null, "second_hand": null, "shoes": null, "shop": null, "swimming_pool": null, "trade": null, "wholesale": null, "attraction": null, "camp_site": null, "guest_house": null, "hostel": null, "information": null, "museum": null, "tourism": null, "viewpoint": null, "zoo": null, "osm_type": "node", "spa": null, "fireplace": null, "fishing": null, "security": null, "water": null }, "geometry": { "type": "Point", "coordinates": [ 72.4702312, 23.0168114 ] } },
{ "type": "Feature", "properties": { "lat": 23.1763677, "visible": "False", "version": 1, "tags": { "dispensing": "yes", "healthcare": "pharmacy" }, "id": 9316233976, "lon": 72.5752779, "changeset": 0.0, "timestamp": 1638819537, "addr:city": null, "addr:country": null, "addr:full": null, "addr:housenumber": null, "addr:housename": null, "addr:postcode": null, "addr:place": null, "addr:street": null, "email": null, "name": null, "opening_hours": null, "operator": null, "phone": null, "ref": null, "url": null, "website": null, "amenity": "pharmacy", "atm": null, "bank": null, "bicycle_parking": null, "bicycle_rental": null, "bar": null, "biergarten": null, "building": null, "building:levels": null, "cafe": null, "drinking_water": null, "fast_food": null, "fountain": null, "fuel": null, "internet_access": null, "landuse": null, "office": null, "parking": null, "police": null, "post_office": null, "restaurant": null, "school": null, "social_facility": null, "source": null, "start_date": null, "taxi": null, "wikipedia": null, "agrarian": null, "alcohol": null, "bag": null, "books": null, "butcher": null, "clothes": null, "computer": null, "craft": null, "furniture": null, "gas": null, "hairdresser": null, "kitchen": null, "massage": null, "medical_supply": null, "motorcycle": null, "organic": null, "outdoor": null, "pet": null, "religion": null, "second_hand": null, "shoes": null, "shop": null, "swimming_pool": null, "trade": null, "wholesale": null, "attraction": null, "camp_site": null, "guest_house": null, "hostel": null, "information": null, "museum": null, "tourism": null, "viewpoint": null, "zoo": null, "osm_type": "node", "spa": null, "fireplace": null, "fishing": null, "security": null, "water": null }, "geometry": { "type": "Point", "coordinates": [ 72.5752779, 23.1763677 ] } }
]
}
