{
"type": "FeatureCollection",
"name": "railways_linestring",
"crs": { "type": "name", "properties": { "name": "urn:ogc:def:crs:OGC:1.3:CRS84" } },
"features": [
{ "type": "Feature", "properties": { "construction": null, "disused": null, "light_rail": null, "monorail": null, "railway": "rail", "station": null, "subway": null, "id": 29340509, "timestamp": 1738577702, "version": 15, "tags": { "visible": false, "bridge": "yes", "electrified": "contact_line", "frequency": "50", "gauge": "1676", "historic:gauge": "1000", "layer": "1", "passenger_lines": "1", "usage": "main", "voltage": "25000" }, "osm_type": "way" }, "geometry": { "type": "LineString", "coordinates": [ [ 72.6875161, 23.112775 ], [ 72.6877564, 23.1129882 ] ] } },
{ "type": "Feature", "properties": { "construction": null, "disused": null, "light_rail": null, "monorail": null, "railway": "rail", "station": null, "subway": null, "id": 29340510, "timestamp": 1738577702, "version": 14, "tags": { "visible": false, "electrified": "contact_line", "frequency": "50", "gauge": "1676", "historic:gauge": "1000", "passenger_lines": "1", "usage": "main", "voltage": "25000" }, "osm_type": "way" }, "geometry": { "type": "LineString", "coordinates": [ [ 72.6877564, 23.1129882 ], [ 72.6915813, 23.1165725 ] ] } },
{ "type": "Feature", "properties": { "construction": null, "disused": null, "light_rail": null, "monorail": null, "railway": "rail", "station": null, "subway": null, "id": 29340511, "timestamp": 1738577702, "version": 15, "tags": { "visible": false, "bridge": "yes", "electrified": "contact_line", "frequency": "50", "gauge": "1676", "historic:gauge": "1000", "layer": "1", "passenger_lines": "1", "usage": "main", "voltage": "25000" }, "osm_type": "way" }, "geometry": { "type": "LineString", "coordinates": [ [ 72.6918696, 23.1168649 ], [ 72.6927861, 23.1176298 ] ] } },
{ "type": "Feature", "properties": { "construction": null, "disused": null, "light_rail": null, "monorail": null, "railway": "rail", "station": null, "subway": null, "id": 29352245, "timestamp": 1678728663, "version": 10, "tags": { "visible": false, "bridge": "yes", "electrified": "contact_line", "frequency": "50", "gauge": "1676", "layer": "2", "passenger_lines": "2", "usage": "main", "voltage": "25000" }, "osm_type": "way" }, "geometry": { "type": "LineString", "coordinates": [ [ 72.6171553, 22.9861447 ], [ 72.6170573, 22.9863598 ] ] } },
{ "type": "Feature", "properties": { "construction": null, "disused": null, "light_rail": null, "monorail": null, "railway": "rail", "station": null, "subway": null, "id": 29362765, "timestamp": 1662018372, "version": 8, "tags": { "visible": false, "bridge": "yes", "electrified": "contact_line", "frequency": "50", "gauge": "1676", "layer": "1", "passenger_lines": "2", "usage": "main", "voltage": "25000" }, "osm_type": "way" }, "geometry": { "type": "LineString", "coordinates": [ [ 72.5894948, 23.0613342 ], [ 72.5888768, 23.065171 ] ] } },
{ "type": "Feature", "properties": { "construction": null, "disused": null, "light_rail": null, "monorail": null, "railway": "rail", "station": null, "subway": null, "id": 29362783, "timestamp": 1722421900, "version": 8, "tags": { "visible": false, "bridge": "yes", "gauge": "1676", "layer": "1", "name": "Deen Dayal Bridge", "passenger_lines": "1", "usage": "branch" }, "osm_type": "way" }, "geometry": { "type": "LineString", "coordinates": [ [ 72.5559812, 23.0809184 ], [ 72.5562274, 23.0799817 ] ] } },
{ "type": "Feature", "properties": { "construction": null, "disused": null, "light_rail": null, "monorail": null, "railway": "rail", "station": null, "subway": null, "id": 29362910, "timestamp": 1620934297, "version": 6, "tags": { "visible": false, "bridge": "yes", "electrified": "contact_line", "frequency": "50", "gauge": "1676", "passenger_lines": "2", "usage": "main", "voltage": "25000" }, "osm_type": "way" }, "geometry": { "type": "LineString", "coordinates": [ [ 72.536987, 23.1771466 ], [ 72.5375178, 23.1761567 ] ] } },
{ "type": "Feature", "properties": { "construction": null, "disused": null, "light_rail": null, "monorail": null, "railway": "rail", "station": null, "subway": null, "id": 29373675, "timestamp": 1722420788, "version": 5, "tags": { "visible": false, "bridge": "yes", "electrified": "contact_line", "frequency": "50", "gauge": "1676", "layer": "1", "passenger_lines": "1", "usage": "main", "voltage": "25000" }, "osm_type": "way" }, "geometry": { "type": "LineString", "coordinates": [ [ 72.5569428, 23.130926 ], [ 72.5566415, 23.130512 ] ] } },
{ "type": "Feature", "properties": { "construction": null, "disused": null, "light_rail": null, "monorail": null, "railway": "rail", "station": null, "subway": null, "id": 29493002, "timestamp": 1722420788, "version": 6, "tags": { "visible": false, "bridge": "yes", "electrified": "contact_line", "frequency": "50", "gauge": "1676", "layer": "1", "passenger_lines": "1", "usage": "main", "voltage": "25000" }, "osm_type": "way" }, "geometry": { "type": "LineString", "coordinates": [ [ 72.5552928, 23.128467 ], [ 72.5551368, 23.1282223 ] ] } },
{ "type": "Feature", "properties": { "construction": null, "disused": null, "light_rail": null, "monorail": null, "railway": "rail", "station": null, "subway": null, "id": 62333026, "timestamp": 1722421900, "version": 6, "tags": { "visible": false, "bridge": "yes", "gauge": "1676", "layer": "1", "passenger_lines": "1", "usage": "branch" }, "osm_type": "way" }, "geometry": { "type": "LineString", "coordinates": [ [ 72.4658439, 22.9592026 ], [ 72.4653763, 22.9586799 ] ] } },
{ "type": "Feature", "properties": { "construction": null, "disused": null, "light_rail": null, "monorail": null, "railway": "rail", "station": null, "subway": null, "id": 62518531, "timestamp": 1722420788, "version": 4, "tags": { "visible": false, "bridge": "yes", "electrified": "contact_line", "frequency": "50", "gauge": "1676", "layer": "1", "operator": "Indian Railways", "passenger_lines": "1", "usage": "main", "voltage": "25000" }, "osm_type": "way" }, "geometry": { "type": "LineString", "coordinates": [ [ 72.5651475, 23.1829514 ], [ 72.5644293, 23.1824972 ] ] } },
{ "type": "Feature", "properties": { "construction": null, "disused": null, "light_rail": null, "monorail": null, "railway": "rail", "station": null, "subway": null, "id": 178823755, "timestamp": 1738577702, "version": 8, "tags": { "visible": false, "bridge": "yes", "electrified": "contact_line", "frequency": "50", "gauge": "1676", "historic:gauge": "1000", "layer": "1", "passenger_lines": "1", "usage": "main", "voltage": "25000" }, "osm_type": "way" }, "geometry": { "type": "LineString", "coordinates": [ [ 72.638225, 23.0674254 ], [ 72.6383601, 23.0675481 ] ] } },
{ "type": "Feature", "properties": { "construction": null, "disused": null, "light_rail": null, "monorail": null, "railway": "rail", "station": null, "subway": null, "id": 178823756, "timestamp": 1722421900, "version": 5, "tags": { "visible": false, "bridge": "yes", "gauge": "1676", "layer": "1", "passenger_lines": "1", "usage": "branch" }, "osm_type": "way" }, "geometry": { "type": "LineString", "coordinates": [ [ 72.5683622, 23.0221035 ], [ 72.5682888, 23.0219371 ] ] } },
{ "type": "Feature", "properties": { "construction": null, "disused": null, "light_rail": null, "monorail": null, "railway": "rail", "station": null, "subway": null, "id": 227383049, "timestamp": 1609621523, "version": 7, "tags": { "visible": false, "bridge": "yes", "electrified": "contact_line", "frequency": "50", "gauge": "1676", "layer": "2", "passenger_lines": "2", "usage": "main", "voltage": "25000" }, "osm_type": "way" }, "geometry": { "type": "LineString", "coordinates": [ [ 72.6171135, 22.9863704 ], [ 72.6172076, 22.9861624 ] ] } },
{ "type": "Feature", "properties": { "construction": null, "disused": null, "light_rail": null, "monorail": null, "railway": "rail", "station": null, "subway": null, "id": 227383050, "timestamp": 1620934297, "version": 7, "tags": { "visible": false, "bridge": "yes", "electrified": "contact_line", "frequency": "50", "gauge": "1676", "layer": "1", "passenger_lines": "2", "usage": "main", "voltage": "25000" }, "osm_type": "way" }, "geometry": { "type": "LineString", "coordinates": [ [ 72.5374692, 23.1761496 ], [ 72.5369491, 23.1771312 ] ] } },
{ "type": "Feature", "properties": { "construction": null, "disused": null, "light_rail": null, "monorail": null, "railway": "rail", "station": null, "subway": null, "id": 227385815, "timestamp": 1662018372, "version": 4, "tags": { "visible": false, "bridge": "yes", "electrified": "contact_line", "frequency": "50", "gauge": "1676", "layer": "1", "passenger_lines": "2", "usage": "main", "voltage": "25000" }, "osm_type": "way" }, "geometry": { "type": "LineString", "coordinates": [ [ 72.5889268, 23.0651784 ], [ 72.5895489, 23.0613438 ] ] } },
{ "type": "Feature", "properties": { "construction": null, "disused": null, "light_rail": null, "monorail": null, "railway": "rail", "station": null, "subway": null, "id": 326854335, "timestamp": 1770018551, "version": 3, "tags": { "visible": false, "electrified": "contact_line", "frequency": "50", "gauge": "1676", "name": "Western Railway Line", "note": "The Operator of the railway line is Indian Railways", "usage": "main", "voltage": "25000" }, "osm_type": "way" }, "geometry": { "type": "LineString", "coordinates": [ [ 72.5907668, 23.0542449 ], [ 72.5907043, 23.0544707 ] ] } },
{ "type": "Feature", "properties": { "construction": null, "disused": null, "light_rail": null, "monorail": null, "railway": "rail", "station": null, "subway": null, "id": 326854336, "timestamp": 1770018551, "version": 4, "tags": { "visible": false, "electrified": "contact_line", "frequency": "50", "gauge": "1676", "name": "Western Railway Line", "passenger_lines": "2", "usage": "main", "voltage": "25000" }, "osm_type": "way" }, "geometry": { "type": "LineString", "coordinates": [ [ 72.5906181, 23.0544579 ], [ 72.5906829, 23.0542203 ] ] } },
{ "type": "Feature", "properties": { "construction": null, "disused": null, "light_rail": null, "monorail": null, "railway": "rail", "station": null, "subway": null, "id": 326854364, "timestamp": 1770018551, "version": 4, "tags": { "visible": false, "electrified": "contact_line", "frequency": "50", "gauge": "1676", "passenger_lines": "2", "usage": "main", "voltage": "25000" }, "osm_type": "way" }, "geometry": { "type": "LineString", "coordinates": [ [ 72.5906585, 23.0544656 ], [ 72.5907238, 23.0542339 ] ] } },
{ "type": "Feature", "properties": { "construction": null, "disused": null, "light_rail": null, "monorail": null, "railway": "rail", "station": null, "subway": null, "id": 331667208, "timestamp": 1722421900, "version": 4, "tags": { "visible": false, "bridge": "yes", "gauge": "1676", "name": "Western Railway Line", "passenger_lines": "1", "usage": "branch" }, "osm_type": "way" }, "geometry": { "type": "LineString", "coordinates": [ [ 72.5685522, 23.0310885 ], [ 72.5685925, 23.0309163 ] ] } },
{ "type": "Feature", "properties": { "construction": null, "disused": null, "light_rail": null, "monorail": null, "railway": "rail", "station": null, "subway": null, "id": 424053801, "timestamp": 1722420788, "version": 3, "tags": { "visible": false, "bridge": "yes", "electrified": "contact_line", "frequency": "50", "gauge": "1676", "layer": "1", "passenger_lines": "1", "usage": "main", "voltage": "25000" }, "osm_type": "way" }, "geometry": { "type": "LineString", "coordinates": [ [ 72.539956, 23.083269 ], [ 72.5399795, 23.0831797 ] ] } },
{ "type": "Feature", "properties": { "construction": null, "disused": null, "light_rail": null, "monorail": null, "railway": "rail", "station": null, "subway": null, "id": 519839565, "timestamp": 1627766176, "version": 2, "tags": { "visible": false, "electrified": "contact_line", "frequency": "50", "gauge": "1676", "service": "siding", "voltage": "25000" }, "osm_type": "way" }, "geometry": { "type": "LineString", "coordinates": [ [ 72.6318128, 22.9535253 ], [ 72.6320221, 22.9529672 ] ] } },
{ "type": "Feature", "properties": { "construction": null, "disused": null, "light_rail": null, "monorail": null, "railway": "rail", "station": null, "subway": null, "id": 519839568, "timestamp": 1627766176, "version": 2, "tags": { "visible": false, "gauge": "1676", "service": "yard" }, "osm_type": "way" }, "geometry": { "type": "LineString", "coordinates": [ [ 72.6322755, 22.9526535 ], [ 72.6351763, 22.9461823 ] ] } },
{ "type": "Feature", "properties": { "construction": null, "disused": null, "light_rail": null, "monorail": null, "railway": "rail", "station": null, "subway": null, "id": 519839594, "timestamp": 1627766176, "version": 2, "tags": { "visible": false, "electrified": "contact_line", "frequency": "50", "gauge": "1676", "service": "siding", "voltage": "25000" }, "osm_type": "way" }, "geometry": { "type": "LineString", "coordinates": [ [ 72.6303529, 22.9572406 ], [ 72.6309178, 22.9555074 ] ] } },
{ "type": "Feature", "properties": { "construction": null, "disused": null, "light_rail": null, "monorail": null, "railway": "disused", "station": null, "subway": null, "id": 519869098, "timestamp": 1745849234, "version": 2, "tags": { "visible": false, "gauge": "1676", "service": "siding" }, "osm_type": "way" }, "geometry": { "type": "LineString", "coordinates": [ [ 72.6023421, 23.0236641 ], [ 72.6023515, 23.0213473 ] ] } },
{ "type": "Feature", "properties": { "construction": null, "disused": null, "light_rail": null, "monorail": null, "railway": "rail", "station": null, "subway": null, "id": 519926331, "timestamp": 1745849234, "version": 3, "tags": { "visible": false, "gauge": "1676", "service": "siding" }, "osm_type": "way" }, "geometry": { "type": "LineString", "coordinates": [ [ 72.6016983, 23.0227026 ], [ 72.6016631, 23.0249762 ] ] } },
{ "type": "Feature", "properties": { "construction": null, "disused": null, "light_rail": null, "monorail": null, "railway": "rail", "station": null, "subway": null, "id": 520037332, "timestamp": 1745849234, "version": 3, "tags": { "visible": false, "gauge": "1676", "service": "yard" }, "osm_type": "way" }, "geometry": { "type": "LineString", "coordinates": [ [ 72.6020417, 23.0317126 ], [ 72.6018705, 23.0325456 ] ] } },
{ "type": "Feature", "properties": { "construction": null, "disused": null, "light_rail": null, "monorail": null, "railway": "platform", "station": null, "subway": null, "id": 520116814, "timestamp": 1504123629, "version": 1, "tags": { "visible": false }, "osm_type": "way" }, "geometry": { "type": "LineString", "coordinates": [ [ 72.6128188, 22.9960542 ], [ 72.6106784, 23.0008021 ] ] } },
{ "type": "Feature", "properties": { "construction": null, "disused": null, "light_rail": null, "monorail": null, "railway": "platform", "station": null, "subway": null, "id": 520116817, "timestamp": 1504123629, "version": 1, "tags": { "visible": false }, "osm_type": "way" }, "geometry": { "type": "LineString", "coordinates": [ [ 72.6130494, 22.9951505 ], [ 72.6109171, 22.9999034 ] ] } },
{ "type": "Feature", "properties": { "construction": null, "disused": null, "light_rail": null, "monorail": null, "railway": "rail", "station": null, "subway": null, "id": 602995028, "timestamp": 1662018372, "version": 7, "tags": { "visible": false, "electrified": "contact_line", "frequency": "50", "gauge": "1676", "passenger_lines": "2", "usage": "main", "voltage": "25000" }, "osm_type": "way" }, "geometry": { "type": "LineString", "coordinates": [ [ 72.5559654, 23.0804015 ], [ 72.5562062, 23.0805031 ] ] } },
{ "type": "Feature", "properties": { "construction": null, "disused": null, "light_rail": null, "monorail": null, "railway": "rail", "station": null, "subway": null, "id": 602995029, "timestamp": 1662018372, "version": 7, "tags": { "visible": false, "electrified": "contact_line", "frequency": "50", "gauge": "1676", "layer": "-1", "passenger_lines": "2", "usage": "main", "voltage": "25000" }, "osm_type": "way" }, "geometry": { "type": "LineString", "coordinates": [ [ 72.5562021, 23.0804454 ], [ 72.5559878, 23.0803557 ] ] } },
{ "type": "Feature", "properties": { "construction": null, "disused": null, "light_rail": null, "monorail": null, "railway": "rail", "station": null, "subway": null, "id": 602995030, "timestamp": 1615711503, "version": 2, "tags": { "visible": false }, "osm_type": "way" }, "geometry": { "type": "LineString", "coordinates": [ [ 72.5377103, 23.0726087 ], [ 72.5381288, 23.072835 ] ] } },
{ "type": "Feature", "properties": { "construction": null, "disused": null, "light_rail": null, "monorail": null, "railway": "rail", "station": null, "subway": null, "id": 602995031, "timestamp": 1615711503, "version": 3, "tags": { "visible": false }, "osm_type": "way" }, "geometry": { "type": "LineString", "coordinates": [ [ 72.5490428, 23.0774431 ], [ 72.5495311, 23.0775978 ] ] } },
{ "type": "Feature", "properties": { "construction": null, "disused": null, "light_rail": null, "monorail": null, "railway": "rail", "station": null, "subway": null, "id": 602995035, "timestamp": 1734449797, "version": 4, "tags": { "visible": false, "service": "crossover" }, "osm_type": "way" }, "geometry": { "type": "LineString", "coordinates": [ [ 72.4893111, 23.0520489 ], [ 72.4886206, 23.0518143 ] ] } },
{ "type": "Feature", "properties": { "construction": null, "disused": null, "light_rail": null, "monorail": null, "railway": "rail", "station": null, "subway": null, "id": 609570639, "timestamp": 1745849234, "version": 3, "tags": { "visible": false, "gauge": "1676", "service": "yard" }, "osm_type": "way" }, "geometry": { "type": "LineString", "coordinates": [ [ 72.6061159, 23.0115207 ], [ 72.6062841, 23.0109793 ] ] } },
{ "type": "Feature", "properties": { "construction": null, "disused": null, "light_rail": null, "monorail": null, "railway": "rail", "station": null, "subway": null, "id": 609570677, "timestamp": 1745849234, "version": 7, "tags": { "visible": false, "gauge": "1676", "service": "yard" }, "osm_type": "way" }, "geometry": { "type": "LineString", "coordinates": [ [ 72.6255133, 22.967906 ], [ 72.6259007, 22.9670575 ] ] } },
{ "type": "Feature", "properties": { "construction": null, "disused": null, "light_rail": null, "monorail": null, "railway": "rail", "station": null, "subway": null, "id": 609570681, "timestamp": 1745849234, "version": 4, "tags": { "visible": false, "gauge": "1676", "service": "yard" }, "osm_type": "way" }, "geometry": { "type": "LineString", "coordinates": [ [ 72.5883785, 23.0709212 ], [ 72.5885716, 23.0715541 ] ] } },
{ "type": "Feature", "properties": { "construction": null, "disused": null, "light_rail": null, "monorail": null, "railway": "rail", "station": null, "subway": null, "id": 628489946, "timestamp": 1588890569, "version": 2, "tags": { "visible": false, "gauge": "1676", "service": "crossover" }, "osm_type": "way" }, "geometry": { "type": "LineString", "coordinates": [ [ 72.5720235, 23.0860997 ], [ 72.5726682, 23.0861655 ] ] } },
{ "type": "Feature", "properties": { "construction": null, "disused": null, "light_rail": null, "monorail": null, "railway": "rail", "station": null, "subway": null, "id": 628548045, "timestamp": 1745849234, "version": 4, "tags": { "visible": false, "gauge": "1676", "service": "yard" }, "osm_type": "way" }, "geometry": { "type": "LineString", "coordinates": [ [ 72.5876715, 23.072667 ], [ 72.5870982, 23.0763291 ] ] } },
{ "type": "Feature", "properties": { "construction": null, "disused": null, "light_rail": null, "monorail": null, "railway": "rail", "station": null, "subway": null, "id": 685087773, "timestamp": 1555860837, "version": 1, "tags": { "visible": false, "service": "spur" }, "osm_type": "way" }, "geometry": { "type": "LineString", "coordinates": [ [ 72.5530669, 23.1674902 ], [ 72.553725, 23.1677999 ] ] } },
{ "type": "Feature", "properties": { "construction": null, "disused": null, "light_rail": null, "monorail": null, "railway": "rail", "station": null, "subway": null, "id": 760592275, "timestamp": 1578076210, "version": 1, "tags": { "visible": false, "electrified": "contact_line", "frequency": "50", "gauge": "1676", "name": "Western Railway Line", "note": "The Operator of the railway line is Indian Railways", "usage": "main", "voltage": "25000" }, "osm_type": "way" }, "geometry": { "type": "LineString", "coordinates": [ [ 72.6022717, 23.0200007 ], [ 72.6022282, 23.0201969 ] ] } },
{ "type": "Feature", "properties": { "construction": null, "disused": null, "light_rail": null, "monorail": null, "railway": "rail", "station": null, "subway": null, "id": 760592276, "timestamp": 1588891057, "version": 2, "tags": { "visible": false, "electrified": "contact_line", "frequency": "50", "gauge": "1676", "name": "Western Railway Line", "note": "The Operator of the railway line is Indian Railways", "service": "crossover", "voltage": "25000" }, "osm_type": "way" }, "geometry": { "type": "LineString", "coordinates": [ [ 72.6023874, 23.0196017 ], [ 72.6022717, 23.0200007 ] ] } },
{ "type": "Feature", "properties": { "construction": null, "disused": null, "light_rail": null, "monorail": null, "railway": "rail", "station": null, "subway": null, "id": 801418249, "timestamp": 1588890569, "version": 1, "tags": { "visible": false, "electrified": "contact_line", "frequency": "50", "gauge": "1676", "name": "Western Railway Line", "passenger_lines": "2", "usage": "main", "voltage": "25000" }, "osm_type": "way" }, "geometry": { "type": "LineString", "coordinates": [ [ 72.6017144, 23.0319594 ], [ 72.6016983, 23.0322902 ] ] } },
{ "type": "Feature", "properties": { "construction": null, "disused": null, "light_rail": null, "monorail": null, "railway": "rail", "station": null, "subway": null, "id": 825392104, "timestamp": 1635966417, "version": 3, "tags": { "visible": false, "bridge": "yes", "electrified": "contact_line", "frequency": "50", "gauge": "1676", "layer": "1", "passenger_lines": "2", "usage": "main", "voltage": "25000" }, "osm_type": "way" }, "geometry": { "type": "LineString", "coordinates": [ [ 72.5817097, 23.0883071 ], [ 72.5817187, 23.0881563 ] ] } },
{ "type": "Feature", "properties": { "construction": null, "disused": null, "light_rail": null, "monorail": null, "railway": "rail", "station": null, "subway": null, "id": 825392105, "timestamp": 1620934297, "version": 2, "tags": { "visible": false, "bridge": "yes", "electrified": "contact_line", "frequency": "50", "gauge": "1676", "layer": "1", "passenger_lines": "2", "usage": "main", "voltage": "25000" }, "osm_type": "way" }, "geometry": { "type": "LineString", "coordinates": [ [ 72.5816161, 23.0881632 ], [ 72.5816099, 23.0883076 ] ] } },
{ "type": "Feature", "properties": { "construction": null, "disused": null, "light_rail": null, "monorail": null, "railway": "rail", "station": null, "subway": null, "id": 825404098, "timestamp": 1745849234, "version": 2, "tags": { "visible": false, "gauge": "1676", "service": "crossover" }, "osm_type": "way" }, "geometry": { "type": "LineString", "coordinates": [ [ 72.5839025, 23.0836902 ], [ 72.5834705, 23.0843436 ] ] } },
{ "type": "Feature", "properties": { "construction": null, "disused": null, "light_rail": null, "monorail": null, "railway": "rail", "station": null, "subway": null, "id": 825404103, "timestamp": 1745849234, "version": 2, "tags": { "visible": false, "gauge": "1676", "service": "yard" }, "osm_type": "way" }, "geometry": { "type": "LineString", "coordinates": [ [ 72.5848447, 23.08271 ], [ 72.5842279, 23.0832963 ] ] } },
{ "type": "Feature", "properties": { "construction": null, "disused": null, "light_rail": null, "monorail": null, "railway": "subway", "station": null, "subway": null, "id": 847089552, "timestamp": 1733047023, "version": 4, "tags": { "visible": false, "bridge": "yes", "electrified": "rail", "gauge": "1435", "layer": "1", "name": "Blue Line, Ahmedabad Metro", "service": "yard", "start_date": "2019-03-04", "voltage": "750" }, "osm_type": "way" }, "geometry": { "type": "LineString", "coordinates": [ [ 72.6658267, 22.997778 ], [ 72.6662601, 22.9976027 ] ] } },
{ "type": "Feature", "properties": { "construction": null, "disused": null, "light_rail": null, "monorail": null, "railway": "subway", "station": null, "subway": null, "id": 847089553, "timestamp": 1733047023, "version": 4, "tags": { "visible": false, "bridge": "yes", "electrified": "rail", "gauge": "1435", "layer": "1", "name": "Blue Line, Ahmedabad Metro", "service": "yard", "start_date": "2019-03-04", "voltage": "750" }, "osm_type": "way" }, "geometry": { "type": "LineString", "coordinates": [ [ 72.6686546, 22.9964981 ], [ 72.6692365, 22.9962668 ] ] } },
{ "type": "Feature", "properties": { "construction": null, "disused": null, "light_rail": null, "monorail": null, "railway": "subway", "station": null, "subway": null, "id": 847089557, "timestamp": 1733047023, "version": 4, "tags": { "visible": false, "bridge": "yes", "electrified": "rail", "gauge": "1435", "layer": "1", "name": "Blue Line, Ahmedabad Metro", "service": "yard", "start_date": "2019-03-04", "voltage": "750" }, "osm_type": "way" }, "geometry": { "type": "LineString", "coordinates": [ [ 72.6162414, 23.0106624 ], [ 72.6167791, 23.0107052 ] ] } },
{ "type": "Feature", "properties": { "construction": null, "disused": null, "light_rail": null, "monorail": null, "railway": "subway", "station": null, "subway": null, "id": 847089565, "timestamp": 1734449797, "version": 4, "tags": { "visible": false, "electrified": "rail", "gauge": "1435", "service": "yard", "tunnel": "building_passage" }, "osm_type": "way" }, "geometry": { "type": "LineString", "coordinates": [ [ 72.6101005, 23.0118853 ], [ 72.610806, 23.0118808 ] ] } },
{ "type": "Feature", "properties": { "construction": null, "disused": null, "light_rail": null, "monorail": null, "railway": "subway", "station": null, "subway": null, "id": 847089566, "timestamp": 1734449797, "version": 4, "tags": { "visible": false, "electrified": "rail", "gauge": "1435", "service": "yard", "tunnel": "building_passage" }, "osm_type": "way" }, "geometry": { "type": "LineString", "coordinates": [ [ 72.6093505, 23.0116524 ], [ 72.6108503, 23.0116386 ] ] } },
{ "type": "Feature", "properties": { "construction": null, "disused": null, "light_rail": null, "monorail": null, "railway": "subway", "station": null, "subway": null, "id": 847089567, "timestamp": 1734449797, "version": 4, "tags": { "visible": false, "electrified": "rail", "gauge": "1435", "service": "yard", "tunnel": "building_passage" }, "osm_type": "way" }, "geometry": { "type": "LineString", "coordinates": [ [ 72.6093499, 23.0115998 ], [ 72.6108486, 23.0115853 ] ] } },
{ "type": "Feature", "properties": { "construction": null, "disused": null, "light_rail": null, "monorail": null, "railway": "subway", "station": null, "subway": null, "id": 847089568, "timestamp": 1734449797, "version": 4, "tags": { "visible": false, "electrified": "rail", "gauge": "1435", "service": "yard", "tunnel": "building_passage" }, "osm_type": "way" }, "geometry": { "type": "LineString", "coordinates": [ [ 72.6093492, 23.0115348 ], [ 72.6108489, 23.0115232 ] ] } },
{ "type": "Feature", "properties": { "construction": null, "disused": null, "light_rail": null, "monorail": null, "railway": "subway", "station": null, "subway": null, "id": 847089569, "timestamp": 1734449797, "version": 4, "tags": { "visible": false, "electrified": "rail", "gauge": "1435", "service": "yard", "tunnel": "building_passage" }, "osm_type": "way" }, "geometry": { "type": "LineString", "coordinates": [ [ 72.60956, 23.0114384 ], [ 72.611051, 23.0114251 ] ] } },
{ "type": "Feature", "properties": { "construction": null, "disused": null, "light_rail": null, "monorail": null, "railway": "subway", "station": null, "subway": null, "id": 847089570, "timestamp": 1734449797, "version": 4, "tags": { "visible": false, "electrified": "rail", "gauge": "1435", "service": "yard", "tunnel": "building_passage" }, "osm_type": "way" }, "geometry": { "type": "LineString", "coordinates": [ [ 72.6095595, 23.0113946 ], [ 72.6110507, 23.0113813 ] ] } },
{ "type": "Feature", "properties": { "construction": null, "disused": null, "light_rail": null, "monorail": null, "railway": "subway", "station": null, "subway": null, "id": 847089571, "timestamp": 1734449797, "version": 4, "tags": { "visible": false, "electrified": "rail", "gauge": "1435", "service": "yard", "tunnel": "building_passage" }, "osm_type": "way" }, "geometry": { "type": "LineString", "coordinates": [ [ 72.609559, 23.0113518 ], [ 72.6110403, 23.0113427 ] ] } },
{ "type": "Feature", "properties": { "construction": null, "disused": null, "light_rail": null, "monorail": null, "railway": "subway", "station": null, "subway": null, "id": 847089572, "timestamp": 1734449797, "version": 4, "tags": { "visible": false, "electrified": "rail", "gauge": "1435", "service": "yard", "tunnel": "building_passage" }, "osm_type": "way" }, "geometry": { "type": "LineString", "coordinates": [ [ 72.6095586, 23.0113142 ], [ 72.6110387, 23.0112965 ] ] } },
{ "type": "Feature", "properties": { "construction": null, "disused": null, "light_rail": null, "monorail": null, "railway": "subway", "station": null, "subway": null, "id": 847089573, "timestamp": 1734449797, "version": 4, "tags": { "visible": false, "electrified": "rail", "gauge": "1435", "service": "yard", "tunnel": "building_passage" }, "osm_type": "way" }, "geometry": { "type": "LineString", "coordinates": [ [ 72.609558, 23.0112661 ], [ 72.6110336, 23.0112552 ] ] } },
{ "type": "Feature", "properties": { "construction": null, "disused": null, "light_rail": null, "monorail": null, "railway": "subway", "station": null, "subway": null, "id": 847089574, "timestamp": 1734449797, "version": 4, "tags": { "visible": false, "electrified": "rail", "gauge": "1435", "service": "yard", "tunnel": "building_passage" }, "osm_type": "way" }, "geometry": { "type": "LineString", "coordinates": [ [ 72.6095575, 23.0112199 ], [ 72.6110337, 23.0112084 ] ] } },
{ "type": "Feature", "properties": { "construction": null, "disused": null, "light_rail": null, "monorail": null, "railway": "subway", "station": null, "subway": null, "id": 847089575, "timestamp": 1734449797, "version": 4, "tags": { "visible": false, "electrified": "rail", "gauge": "1435", "service": "yard", "tunnel": "building_passage" }, "osm_type": "way" }, "geometry": { "type": "LineString", "coordinates": [ [ 72.6096672, 23.0111642 ], [ 72.6111875, 23.0111518 ] ] } },
{ "type": "Feature", "properties": { "construction": null, "disused": null, "light_rail": null, "monorail": null, "railway": "subway", "station": null, "subway": null, "id": 847089577, "timestamp": 1734449797, "version": 4, "tags": { "visible": false, "electrified": "rail", "gauge": "1435", "service": "yard", "tunnel": "building_passage" }, "osm_type": "way" }, "geometry": { "type": "LineString", "coordinates": [ [ 72.6096755, 23.0110883 ], [ 72.6112461, 23.0110792 ] ] } },
{ "type": "Feature", "properties": { "construction": null, "disused": null, "light_rail": null, "monorail": null, "railway": "subway", "station": null, "subway": null, "id": 847089578, "timestamp": 1734449797, "version": 4, "tags": { "visible": false, "electrified": "rail", "gauge": "1435", "service": "yard", "tunnel": "building_passage" }, "osm_type": "way" }, "geometry": { "type": "LineString", "coordinates": [ [ 72.6096751, 23.0110583 ], [ 72.6112458, 23.0110395 ] ] } },
{ "type": "Feature", "properties": { "construction": null, "disused": null, "light_rail": null, "monorail": null, "railway": "subway", "station": null, "subway": null, "id": 847089579, "timestamp": 1734449797, "version": 4, "tags": { "visible": false, "electrified": "rail", "gauge": "1435", "service": "yard", "tunnel": "building_passage" }, "osm_type": "way" }, "geometry": { "type": "LineString", "coordinates": [ [ 72.6096745, 23.0110137 ], [ 72.6112455, 23.0110048 ] ] } },
{ "type": "Feature", "properties": { "construction": null, "disused": null, "light_rail": null, "monorail": null, "railway": "subway", "station": null, "subway": null, "id": 847089580, "timestamp": 1734449797, "version": 4, "tags": { "visible": false, "electrified": "rail", "gauge": "1435", "service": "yard", "tunnel": "building_passage" }, "osm_type": "way" }, "geometry": { "type": "LineString", "coordinates": [ [ 72.6096741, 23.0109805 ], [ 72.6112452, 23.0109616 ] ] } },
{ "type": "Feature", "properties": { "construction": null, "disused": null, "light_rail": null, "monorail": null, "railway": "subway", "station": null, "subway": null, "id": 847089581, "timestamp": 1734449797, "version": 4, "tags": { "visible": false, "electrified": "rail", "gauge": "1435", "service": "yard", "tunnel": "building_passage" }, "osm_type": "way" }, "geometry": { "type": "LineString", "coordinates": [ [ 72.6096734, 23.0109263 ], [ 72.6112455, 23.0109179 ] ] } },
{ "type": "Feature", "properties": { "construction": null, "disused": null, "light_rail": null, "monorail": null, "railway": "subway", "station": null, "subway": null, "id": 847089582, "timestamp": 1734449797, "version": 4, "tags": { "visible": false, "electrified": "rail", "gauge": "1435", "service": "yard", "tunnel": "building_passage" }, "osm_type": "way" }, "geometry": { "type": "LineString", "coordinates": [ [ 72.609673, 23.0108974 ], [ 72.6112439, 23.0108748 ] ] } },
{ "type": "Feature", "properties": { "construction": null, "disused": null, "light_rail": null, "monorail": null, "railway": "subway", "station": null, "subway": null, "id": 847089583, "timestamp": 1734449797, "version": 4, "tags": { "visible": false, "electrified": "rail", "gauge": "1435", "service": "yard", "tunnel": "building_passage" }, "osm_type": "way" }, "geometry": { "type": "LineString", "coordinates": [ [ 72.6096723, 23.0108459 ], [ 72.6112442, 23.0108413 ] ] } },
{ "type": "Feature", "properties": { "construction": null, "disused": null, "light_rail": null, "monorail": null, "railway": "subway", "station": null, "subway": null, "id": 847089584, "timestamp": 1734449797, "version": 4, "tags": { "visible": false, "electrified": "rail", "gauge": "1435", "service": "yard", "tunnel": "building_passage" }, "osm_type": "way" }, "geometry": { "type": "LineString", "coordinates": [ [ 72.6096719, 23.0108166 ], [ 72.611244, 23.0107978 ] ] } },
{ "type": "Feature", "properties": { "construction": null, "disused": null, "light_rail": null, "monorail": null, "railway": "subway", "station": null, "subway": null, "id": 847089585, "timestamp": 1734449797, "version": 4, "tags": { "visible": false, "electrified": "rail", "gauge": "1435", "service": "yard", "tunnel": "building_passage" }, "osm_type": "way" }, "geometry": { "type": "LineString", "coordinates": [ [ 72.6096712, 23.010762 ], [ 72.6112436, 23.0107586 ] ] } },
{ "type": "Feature", "properties": { "construction": null, "disused": null, "light_rail": null, "monorail": null, "railway": "subway", "station": null, "subway": null, "id": 847089586, "timestamp": 1734449797, "version": 4, "tags": { "visible": false, "electrified": "rail", "gauge": "1435", "service": "yard", "tunnel": "building_passage" }, "osm_type": "way" }, "geometry": { "type": "LineString", "coordinates": [ [ 72.6096708, 23.0107323 ], [ 72.6112433, 23.0107134 ] ] } },
{ "type": "Feature", "properties": { "construction": null, "disused": null, "light_rail": null, "monorail": null, "railway": "subway", "station": null, "subway": null, "id": 847089587, "timestamp": 1734449797, "version": 4, "tags": { "visible": false, "electrified": "rail", "gauge": "1435", "service": "yard", "tunnel": "building_passage" }, "osm_type": "way" }, "geometry": { "type": "LineString", "coordinates": [ [ 72.6096702, 23.0106824 ], [ 72.611241, 23.0106772 ] ] } },
{ "type": "Feature", "properties": { "construction": null, "disused": null, "light_rail": null, "monorail": null, "railway": "subway", "station": null, "subway": null, "id": 847089588, "timestamp": 1734449797, "version": 4, "tags": { "visible": false, "electrified": "rail", "gauge": "1435", "service": "yard", "tunnel": "building_passage" }, "osm_type": "way" }, "geometry": { "type": "LineString", "coordinates": [ [ 72.6096698, 23.0106567 ], [ 72.6112428, 23.0106379 ] ] } },
{ "type": "Feature", "properties": { "construction": null, "disused": null, "light_rail": null, "monorail": null, "railway": "rail", "station": null, "subway": null, "id": 901460998, "timestamp": 1738577702, "version": 4, "tags": { "visible": false, "bridge": "yes", "electrified": "contact_line", "frequency": "50", "gauge": "1676", "historic:gauge": "1000", "layer": "1", "passenger_lines": "1", "usage": "main", "voltage": "25000" }, "osm_type": "way" }, "geometry": { "type": "LineString", "coordinates": [ [ 72.7308096, 23.1526205 ], [ 72.7308649, 23.1526693 ] ] } },
{ "type": "Feature", "properties": { "construction": null, "disused": null, "light_rail": null, "monorail": null, "railway": "rail", "station": null, "subway": null, "id": 901897468, "timestamp": 1611999732, "version": 1, "tags": { "visible": false, "bridge": "yes", "gauge": "1676", "layer": "1", "service": "spur" }, "osm_type": "way" }, "geometry": { "type": "LineString", "coordinates": [ [ 72.5370338, 23.1771602 ], [ 72.5375582, 23.1761717 ] ] } },
{ "type": "Feature", "properties": { "construction": null, "disused": null, "light_rail": null, "monorail": null, "railway": "rail", "station": null, "subway": null, "id": 903021321, "timestamp": 1738577702, "version": 4, "tags": { "visible": false, "bridge": "yes", "electrified": "contact_line", "frequency": "50", "gauge": "1676", "historic:gauge": "1000", "layer": "1", "passenger_lines": "1", "usage": "main", "voltage": "25000" }, "osm_type": "way" }, "geometry": { "type": "LineString", "coordinates": [ [ 72.7131104, 23.1363208 ], [ 72.7131578, 23.1363644 ] ] } },
{ "type": "Feature", "properties": { "construction": null, "disused": null, "light_rail": null, "monorail": null, "railway": "rail", "station": null, "subway": null, "id": 903024659, "timestamp": 1738577702, "version": 4, "tags": { "visible": false, "bridge": "yes", "electrified": "contact_line", "frequency": "50", "gauge": "1676", "historic:gauge": "1000", "layer": "1", "passenger_lines": "1", "usage": "main", "voltage": "25000" }, "osm_type": "way" }, "geometry": { "type": "LineString", "coordinates": [ [ 72.7006469, 23.1248605 ], [ 72.7006941, 23.1249039 ] ] } },
{ "type": "Feature", "properties": { "construction": null, "disused": null, "light_rail": null, "monorail": null, "railway": "rail", "station": null, "subway": null, "id": 903753378, "timestamp": 1738577702, "version": 4, "tags": { "visible": false, "electrified": "contact_line", "frequency": "50", "gauge": "1676", "historic:gauge": "1000", "passenger_lines": "1", "usage": "main", "voltage": "25000" }, "osm_type": "way" }, "geometry": { "type": "LineString", "coordinates": [ [ 72.6916387, 23.1166331 ], [ 72.6918696, 23.1168649 ] ] } },
{ "type": "Feature", "properties": { "construction": null, "disused": null, "light_rail": null, "monorail": null, "railway": "rail", "station": null, "subway": null, "id": 903753379, "timestamp": 1738577702, "version": 3, "tags": { "visible": false, "electrified": "contact_line", "frequency": "50", "gauge": "1676", "historic:gauge": "1000", "passenger_lines": "1", "usage": "main", "voltage": "25000" }, "osm_type": "way" }, "geometry": { "type": "LineString", "coordinates": [ [ 72.6915813, 23.1165725 ], [ 72.6916387, 23.1166331 ] ] } },
{ "type": "Feature", "properties": { "construction": null, "disused": null, "light_rail": null, "monorail": null, "railway": "rail", "station": null, "subway": null, "id": 916907673, "timestamp": 1615711503, "version": 1, "tags": { "visible": false }, "osm_type": "way" }, "geometry": { "type": "LineString", "coordinates": [ [ 72.5403821, 23.0738307 ], [ 72.5389467, 23.073213 ] ] } },
{ "type": "Feature", "properties": { "construction": null, "disused": null, "light_rail": null, "monorail": null, "railway": "subway", "station": null, "subway": null, "id": 917835845, "timestamp": 1734449797, "version": 2, "tags": { "visible": false, "electrified": "rail", "gauge": "1435", "service": "yard" }, "osm_type": "way" }, "geometry": { "type": "LineString", "coordinates": [ [ 72.6135721, 23.0109358 ], [ 72.6143315, 23.0109263 ] ] } },
{ "type": "Feature", "properties": { "construction": null, "disused": null, "light_rail": null, "monorail": null, "railway": "rail", "station": null, "subway": null, "id": 969310795, "timestamp": 1627766176, "version": 1, "tags": { "visible": false, "electrified": "contact_line", "frequency": "50", "gauge": "1676", "service": "siding", "voltage": "25000" }, "osm_type": "way" }, "geometry": { "type": "LineString", "coordinates": [ [ 72.6272571, 22.9637118 ], [ 72.6269302, 22.9643269 ] ] } },
{ "type": "Feature", "properties": { "construction": null, "disused": null, "light_rail": null, "monorail": null, "railway": "rail", "station": null, "subway": null, "id": 969310801, "timestamp": 1627766176, "version": 1, "tags": { "visible": false, "gauge": "1676", "service": "yard" }, "osm_type": "way" }, "geometry": { "type": "LineString", "coordinates": [ [ 72.6275891, 22.9627187 ], [ 72.6272599, 22.9634285 ] ] } },
{ "type": "Feature", "properties": { "construction": null, "disused": null, "light_rail": null, "monorail": null, "railway": "rail", "station": null, "subway": null, "id": 969310822, "timestamp": 1627766176, "version": 1, "tags": { "visible": false, "electrified": "contact_line", "frequency": "50", "gauge": "1676", "service": "siding", "voltage": "25000" }, "osm_type": "way" }, "geometry": { "type": "LineString", "coordinates": [ [ 72.6315169, 22.9540768 ], [ 72.6312518, 22.9547853 ] ] } },
{ "type": "Feature", "properties": { "construction": null, "disused": null, "light_rail": null, "monorail": null, "railway": "rail", "station": null, "subway": null, "id": 1006803625, "timestamp": 1711964819, "version": 2, "tags": { "visible": false, "gauge": "1676", "service": "yard" }, "osm_type": "way" }, "geometry": { "type": "LineString", "coordinates": [ [ 72.6103427, 23.0413426 ], [ 72.6046954, 23.0391662 ] ] } },
{ "type": "Feature", "properties": { "construction": null, "disused": null, "light_rail": null, "monorail": null, "railway": "subway", "station": null, "subway": null, "id": 1101058048, "timestamp": 1664971236, "version": 1, "tags": { "visible": false, "bridge": "viaduct", "electrified": "rail", "gauge": "1435", "layer": "3", "service": "crossover" }, "osm_type": "way" }, "geometry": { "type": "LineString", "coordinates": [ [ 72.5501213, 23.0139544 ], [ 72.5506139, 23.0140873 ] ] } },
{ "type": "Feature", "properties": { "construction": null, "disused": null, "light_rail": null, "monorail": null, "railway": "subway", "station": null, "subway": null, "id": 1101058049, "timestamp": 1664971236, "version": 1, "tags": { "visible": false, "bridge": "viaduct", "electrified": "rail", "gauge": "1435", "layer": "3", "service": "crossover" }, "osm_type": "way" }, "geometry": { "type": "LineString", "coordinates": [ [ 72.5508996, 23.0142044 ], [ 72.5514092, 23.0144436 ] ] } },
{ "type": "Feature", "properties": { "construction": null, "disused": null, "light_rail": null, "monorail": null, "railway": "rail", "station": null, "subway": null, "id": 1107167559, "timestamp": 1722421900, "version": 2, "tags": { "visible": false, "bridge": "yes", "gauge": "1676", "layer": "1", "passenger_lines": "1", "usage": "branch" }, "osm_type": "way" }, "geometry": { "type": "LineString", "coordinates": [ [ 72.5561862, 23.0988356 ], [ 72.5561447, 23.0987419 ] ] } },
{ "type": "Feature", "properties": { "construction": null, "disused": null, "light_rail": null, "monorail": null, "railway": "rail", "station": null, "subway": null, "id": 1107167561, "timestamp": 1722421900, "version": 2, "tags": { "visible": false, "bridge": "yes", "gauge": "1676", "layer": "1", "passenger_lines": "1", "usage": "branch" }, "osm_type": "way" }, "geometry": { "type": "LineString", "coordinates": [ [ 72.5549327, 23.0852436 ], [ 72.555018, 23.0848775 ] ] } },
{ "type": "Feature", "properties": { "construction": null, "disused": null, "light_rail": null, "monorail": null, "railway": "rail", "station": null, "subway": null, "id": 1107167569, "timestamp": 1722421900, "version": 2, "tags": { "visible": false, "bridge": "yes", "gauge": "1676", "layer": "1", "name": "Western Railway Line", "passenger_lines": "1", "usage": "branch" }, "osm_type": "way" }, "geometry": { "type": "LineString", "coordinates": [ [ 72.5580575, 23.0727074 ], [ 72.5581748, 23.0723039 ] ] } },
{ "type": "Feature", "properties": { "construction": null, "disused": null, "light_rail": null, "monorail": null, "railway": "rail", "station": null, "subway": null, "id": 1107167585, "timestamp": 1723456495, "version": 2, "tags": { "visible": false, "electrified": "contact_line", "frequency": "50", "gauge": "1676", "name": "Western Railway Line", "passenger_lines": "2", "usage": "main", "voltage": "25000" }, "osm_type": "way" }, "geometry": { "type": "LineString", "coordinates": [ [ 72.5785831, 23.0850371 ], [ 72.5781785, 23.0851582 ] ] } },
{ "type": "Feature", "properties": { "construction": null, "disused": null, "light_rail": null, "monorail": null, "railway": "rail", "station": null, "subway": null, "id": 1107167586, "timestamp": 1723456495, "version": 2, "tags": { "visible": false, "electrified": "contact_line", "frequency": "50", "gauge": "1676", "name": "Western Railway Line", "passenger_lines": "2", "usage": "main", "voltage": "25000" }, "osm_type": "way" }, "geometry": { "type": "LineString", "coordinates": [ [ 72.5781893, 23.0852016 ], [ 72.5785935, 23.0850836 ] ] } },
{ "type": "Feature", "properties": { "construction": null, "disused": null, "light_rail": null, "monorail": null, "railway": "rail", "station": null, "subway": null, "id": 1173176529, "timestamp": 1745538834, "version": 3, "tags": { "visible": false, "bridge": "yes", "electrified": "contact_line", "frequency": "50", "gauge": "1676", "layer": "1", "passenger_lines": "2", "usage": "main", "voltage": "25000" }, "osm_type": "way" }, "geometry": { "type": "LineString", "coordinates": [ [ 72.5522116, 23.1475343 ], [ 72.552403, 23.1471676 ] ] } },
{ "type": "Feature", "properties": { "construction": null, "disused": null, "light_rail": null, "monorail": null, "railway": "rail", "station": null, "subway": null, "id": 1173176530, "timestamp": 1745538834, "version": 3, "tags": { "visible": false, "bridge": "yes", "electrified": "contact_line", "frequency": "50", "gauge": "1676", "layer": "1", "passenger_lines": "2", "usage": "main", "voltage": "25000" }, "osm_type": "way" }, "geometry": { "type": "LineString", "coordinates": [ [ 72.5523574, 23.1471417 ], [ 72.552163, 23.1475097 ] ] } },
{ "type": "Feature", "properties": { "construction": null, "disused": null, "light_rail": null, "monorail": null, "railway": "rail", "station": null, "subway": null, "id": 1173176534, "timestamp": 1722420788, "version": 2, "tags": { "visible": false, "bridge": "yes", "electrified": "contact_line", "frequency": "50", "gauge": "1676", "layer": "1", "passenger_lines": "1", "usage": "main", "voltage": "25000" }, "osm_type": "way" }, "geometry": { "type": "LineString", "coordinates": [ [ 72.5523969, 23.1475321 ], [ 72.5525491, 23.1472362 ] ] } },
{ "type": "Feature", "properties": { "construction": null, "disused": null, "light_rail": null, "monorail": null, "railway": "rail", "station": null, "subway": null, "id": 1173176535, "timestamp": 1684192602, "version": 1, "tags": { "visible": false, "electrified": "contact_line", "frequency": "50", "gauge": "1676", "service": "crossover", "voltage": "25000" }, "osm_type": "way" }, "geometry": { "type": "LineString", "coordinates": [ [ 72.5502245, 23.1515967 ], [ 72.5505579, 23.1508243 ] ] } },
{ "type": "Feature", "properties": { "construction": null, "disused": null, "light_rail": null, "monorail": null, "railway": "rail", "station": null, "subway": null, "id": 1173176536, "timestamp": 1684192602, "version": 1, "tags": { "visible": false, "electrified": "contact_line", "frequency": "50", "gauge": "1676", "service": "crossover", "voltage": "25000" }, "osm_type": "way" }, "geometry": { "type": "LineString", "coordinates": [ [ 72.5507683, 23.1504206 ], [ 72.5501116, 23.1514547 ] ] } },
{ "type": "Feature", "properties": { "construction": null, "disused": null, "light_rail": null, "monorail": null, "railway": "rail", "station": null, "subway": null, "id": 1173176537, "timestamp": 1684192602, "version": 1, "tags": { "visible": false, "electrified": "contact_line", "frequency": "50", "gauge": "1676", "service": "crossover", "voltage": "25000" }, "osm_type": "way" }, "geometry": { "type": "LineString", "coordinates": [ [ 72.5514297, 23.1493399 ], [ 72.5508049, 23.1503503 ] ] } },
{ "type": "Feature", "properties": { "construction": null, "disused": null, "light_rail": null, "monorail": null, "railway": "rail", "station": null, "subway": null, "id": 1173176539, "timestamp": 1684192602, "version": 1, "tags": { "visible": false, "electrified": "contact_line", "frequency": "50", "gauge": "1676", "service": "crossover", "voltage": "25000" }, "osm_type": "way" }, "geometry": { "type": "LineString", "coordinates": [ [ 72.5514564, 23.1489592 ], [ 72.551124, 23.1497349 ] ] } },
{ "type": "Feature", "properties": { "construction": null, "disused": null, "light_rail": null, "monorail": null, "railway": "rail", "station": null, "subway": null, "id": 1173176543, "timestamp": 1684192602, "version": 1, "tags": { "visible": false, "electrified": "contact_line", "frequency": "50", "gauge": "1676", "service": "crossover", "voltage": "25000" }, "osm_type": "way" }, "geometry": { "type": "LineString", "coordinates": [ [ 72.542104, 23.1670335 ], [ 72.5423503, 23.1664186 ] ] } },
{ "type": "Feature", "properties": { "construction": null, "disused": null, "light_rail": null, "monorail": null, "railway": "rail", "station": null, "subway": null, "id": 1173176544, "timestamp": 1684192602, "version": 1, "tags": { "visible": false, "electrified": "contact_line", "frequency": "50", "gauge": "1676", "service": "yard", "voltage": "25000" }, "osm_type": "way" }, "geometry": { "type": "LineString", "coordinates": [ [ 72.5429655, 23.1651078 ], [ 72.5424618, 23.1660797 ] ] } },
{ "type": "Feature", "properties": { "construction": null, "disused": null, "light_rail": null, "monorail": null, "railway": "rail", "station": null, "subway": null, "id": 1173176545, "timestamp": 1684192602, "version": 1, "tags": { "visible": false, "electrified": "contact_line", "frequency": "50", "gauge": "1676", "service": "siding", "voltage": "25000" }, "osm_type": "way" }, "geometry": { "type": "LineString", "coordinates": [ [ 72.5477403, 23.1556253 ], [ 72.5473967, 23.1563016 ] ] } },
{ "type": "Feature", "properties": { "construction": null, "disused": null, "light_rail": null, "monorail": null, "railway": "rail", "station": null, "subway": null, "id": 1173176547, "timestamp": 1684192602, "version": 1, "tags": { "visible": false, "electrified": "contact_line", "frequency": "50", "gauge": "1676", "service": "siding", "voltage": "25000" }, "osm_type": "way" }, "geometry": { "type": "LineString", "coordinates": [ [ 72.5429593, 23.164975 ], [ 72.5434555, 23.163996 ] ] } },
{ "type": "Feature", "properties": { "construction": null, "disused": null, "light_rail": null, "monorail": null, "railway": "rail", "station": null, "subway": null, "id": 1173176549, "timestamp": 1684192602, "version": 1, "tags": { "visible": false, "electrified": "contact_line", "frequency": "50", "gauge": "1676", "service": "siding", "voltage": "25000" }, "osm_type": "way" }, "geometry": { "type": "LineString", "coordinates": [ [ 72.5456214, 23.1604773 ], [ 72.5451453, 23.1614042 ] ] } },
{ "type": "Feature", "properties": { "construction": null, "disused": null, "light_rail": null, "monorail": null, "railway": "rail", "station": null, "subway": null, "id": 1173176550, "timestamp": 1684192602, "version": 1, "tags": { "visible": false, "electrified": "contact_line", "frequency": "50", "gauge": "1676", "service": "crossover", "voltage": "25000" }, "osm_type": "way" }, "geometry": { "type": "LineString", "coordinates": [ [ 72.5452943, 23.1612132 ], [ 72.544991, 23.1619069 ] ] } },
{ "type": "Feature", "properties": { "construction": null, "disused": null, "light_rail": null, "monorail": null, "railway": "rail", "station": null, "subway": null, "id": 1173176553, "timestamp": 1684192602, "version": 1, "tags": { "visible": false, "gauge": "1676", "service": "yard" }, "osm_type": "way" }, "geometry": { "type": "LineString", "coordinates": [ [ 72.5498768, 23.1523696 ], [ 72.5503287, 23.1514818 ] ] } },
{ "type": "Feature", "properties": { "construction": null, "disused": null, "light_rail": null, "monorail": null, "railway": "rail", "station": null, "subway": null, "id": 1173176554, "timestamp": 1684192602, "version": 1, "tags": { "visible": false, "electrified": "contact_line", "frequency": "50", "gauge": "1676", "service": "crossover", "voltage": "25000" }, "osm_type": "way" }, "geometry": { "type": "LineString", "coordinates": [ [ 72.5456002, 23.1606213 ], [ 72.5460023, 23.1599419 ] ] } },
{ "type": "Feature", "properties": { "construction": null, "disused": null, "light_rail": null, "monorail": null, "railway": "rail", "station": null, "subway": null, "id": 1194712614, "timestamp": 1745849234, "version": 2, "tags": { "visible": false, "bridge": "yes", "gauge": "1676", "layer": "1", "service": "yard" }, "osm_type": "way" }, "geometry": { "type": "LineString", "coordinates": [ [ 72.5812895, 23.0882716 ], [ 72.5812961, 23.0881535 ] ] } },
{ "type": "Feature", "properties": { "construction": null, "disused": null, "light_rail": null, "monorail": null, "railway": "rail", "station": null, "subway": null, "id": 1232640352, "timestamp": 1722420788, "version": 2, "tags": { "visible": false, "electrified": "contact_line", "frequency": "50", "gauge": "1676", "operator": "Indian Railways", "passenger_lines": "1", "usage": "main", "voltage": "25000" }, "osm_type": "way" }, "geometry": { "type": "LineString", "coordinates": [ [ 72.5516359, 23.1746719 ], [ 72.5515909, 23.1746476 ] ] } },
{ "type": "Feature", "properties": { "construction": null, "disused": null, "light_rail": null, "monorail": null, "railway": "rail", "station": null, "subway": null, "id": 1268112303, "timestamp": 1711964819, "version": 1, "tags": { "visible": false, "gauge": "1676", "service": "yard" }, "osm_type": "way" }, "geometry": { "type": "LineString", "coordinates": [ [ 72.6184393, 23.0492901 ], [ 72.6193137, 23.0501009 ] ] } },
{ "type": "Feature", "properties": { "construction": null, "disused": null, "light_rail": null, "monorail": null, "railway": "rail", "station": null, "subway": null, "id": 1268112304, "timestamp": 1711964819, "version": 1, "tags": { "visible": false, "gauge": "1676", "service": "yard" }, "osm_type": "way" }, "geometry": { "type": "LineString", "coordinates": [ [ 72.6182368, 23.0489052 ], [ 72.6191206, 23.0497134 ] ] } },
{ "type": "Feature", "properties": { "construction": null, "disused": null, "light_rail": null, "monorail": null, "railway": "rail", "station": null, "subway": null, "id": 1268112305, "timestamp": 1711964819, "version": 1, "tags": { "visible": false, "gauge": "1676", "service": "yard" }, "osm_type": "way" }, "geometry": { "type": "LineString", "coordinates": [ [ 72.6177859, 23.0486262 ], [ 72.6186633, 23.0494259 ] ] } },
{ "type": "Feature", "properties": { "construction": null, "disused": null, "light_rail": null, "monorail": null, "railway": "rail", "station": null, "subway": null, "id": 1268112307, "timestamp": 1711964819, "version": 1, "tags": { "visible": false, "gauge": "1676", "service": "yard" }, "osm_type": "way" }, "geometry": { "type": "LineString", "coordinates": [ [ 72.6045998, 23.0394508 ], [ 72.6056841, 23.0399019 ] ] } },
{ "type": "Feature", "properties": { "construction": null, "disused": null, "light_rail": null, "monorail": null, "railway": "rail", "station": null, "subway": null, "id": 1268112308, "timestamp": 1711964819, "version": 1, "tags": { "visible": false, "gauge": "1676", "service": "yard" }, "osm_type": "way" }, "geometry": { "type": "LineString", "coordinates": [ [ 72.605559, 23.0396957 ], [ 72.6045502, 23.039283 ] ] } },
{ "type": "Feature", "properties": { "construction": null, "disused": null, "light_rail": null, "monorail": null, "railway": "subway", "station": null, "subway": null, "id": 1317809672, "timestamp": 1733640363, "version": 3, "tags": { "visible": false, "bridge": "viaduct", "layer": "1", "name": "Red Line, Ahmedabad Metro", "start_date": "2024-09-17" }, "osm_type": "way" }, "geometry": { "type": "LineString", "coordinates": [ [ 72.6474811, 23.1544678 ], [ 72.6463737, 23.1519355 ] ] } },
{ "type": "Feature", "properties": { "construction": null, "disused": null, "light_rail": null, "monorail": null, "railway": "subway", "station": null, "subway": null, "id": 1317809673, "timestamp": 1733640363, "version": 3, "tags": { "visible": false, "bridge": "viaduct", "layer": "1", "name": "Red Line, Ahmedabad Metro", "start_date": "2024-09-17" }, "osm_type": "way" }, "geometry": { "type": "LineString", "coordinates": [ [ 72.6463473, 23.1519472 ], [ 72.6474537, 23.1544774 ] ] } },
{ "type": "Feature", "properties": { "construction": null, "disused": null, "light_rail": null, "monorail": null, "railway": "subway", "station": null, "subway": null, "id": 1339195306, "timestamp": 1734449797, "version": 2, "tags": { "visible": false, "electrified": "rail", "gauge": "1435", "service": "yard", "tunnel": "building_passage" }, "osm_type": "way" }, "geometry": { "type": "LineString", "coordinates": [ [ 72.5265913, 22.9854948 ], [ 72.5260217, 22.9853633 ] ] } },
{ "type": "Feature", "properties": { "construction": null, "disused": null, "light_rail": null, "monorail": null, "railway": "subway", "station": null, "subway": null, "id": 1339195307, "timestamp": 1734449797, "version": 2, "tags": { "visible": false, "electrified": "rail", "gauge": "1435", "service": "yard", "tunnel": "building_passage" }, "osm_type": "way" }, "geometry": { "type": "LineString", "coordinates": [ [ 72.5266058, 22.9854427 ], [ 72.5260354, 22.985311 ] ] } },
{ "type": "Feature", "properties": { "construction": null, "disused": null, "light_rail": null, "monorail": null, "railway": "subway", "station": null, "subway": null, "id": 1339195308, "timestamp": 1734449797, "version": 2, "tags": { "visible": false, "electrified": "rail", "gauge": "1435", "service": "yard", "tunnel": "building_passage" }, "osm_type": "way" }, "geometry": { "type": "LineString", "coordinates": [ [ 72.527419, 22.9855379 ], [ 72.5260556, 22.9852221 ] ] } },
{ "type": "Feature", "properties": { "construction": null, "disused": null, "light_rail": null, "monorail": null, "railway": "subway", "station": null, "subway": null, "id": 1339195309, "timestamp": 1734449797, "version": 2, "tags": { "visible": false, "electrified": "rail", "gauge": "1435", "service": "yard", "tunnel": "building_passage" }, "osm_type": "way" }, "geometry": { "type": "LineString", "coordinates": [ [ 72.5274492, 22.9854255 ], [ 72.526086, 22.9851096 ] ] } },
{ "type": "Feature", "properties": { "construction": null, "disused": null, "light_rail": null, "monorail": null, "railway": "subway", "station": null, "subway": null, "id": 1339195310, "timestamp": 1734449797, "version": 2, "tags": { "visible": false, "electrified": "rail", "gauge": "1435", "service": "yard", "tunnel": "building_passage" }, "osm_type": "way" }, "geometry": { "type": "LineString", "coordinates": [ [ 72.5274683, 22.9853548 ], [ 72.5261052, 22.9850389 ] ] } },
{ "type": "Feature", "properties": { "construction": null, "disused": null, "light_rail": null, "monorail": null, "railway": "subway", "station": null, "subway": null, "id": 1339195311, "timestamp": 1734449797, "version": 2, "tags": { "visible": false, "electrified": "rail", "gauge": "1435", "service": "yard", "tunnel": "building_passage" }, "osm_type": "way" }, "geometry": { "type": "LineString", "coordinates": [ [ 72.5275001, 22.9852364 ], [ 72.5261372, 22.9849207 ] ] } },
{ "type": "Feature", "properties": { "construction": null, "disused": null, "light_rail": null, "monorail": null, "railway": "subway", "station": null, "subway": null, "id": 1339195312, "timestamp": 1734449797, "version": 2, "tags": { "visible": false, "electrified": "rail", "gauge": "1435", "service": "yard", "tunnel": "building_passage" }, "osm_type": "way" }, "geometry": { "type": "LineString", "coordinates": [ [ 72.5275195, 22.9851643 ], [ 72.5261567, 22.9848486 ] ] } },
{ "type": "Feature", "properties": { "construction": null, "disused": null, "light_rail": null, "monorail": null, "railway": "subway", "station": null, "subway": null, "id": 1339195313, "timestamp": 1734449797, "version": 2, "tags": { "visible": false, "electrified": "rail", "gauge": "1435", "service": "yard", "tunnel": "building_passage" }, "osm_type": "way" }, "geometry": { "type": "LineString", "coordinates": [ [ 72.5275962, 22.9848791 ], [ 72.5262339, 22.9845634 ] ] } },
{ "type": "Feature", "properties": { "construction": null, "disused": null, "light_rail": null, "monorail": null, "railway": "subway", "station": null, "subway": null, "id": 1339195314, "timestamp": 1734449797, "version": 2, "tags": { "visible": false, "electrified": "rail", "gauge": "1435", "service": "yard", "tunnel": "building_passage" }, "osm_type": "way" }, "geometry": { "type": "LineString", "coordinates": [ [ 72.5276108, 22.984825 ], [ 72.5262487, 22.9845094 ] ] } },
{ "type": "Feature", "properties": { "construction": null, "disused": null, "light_rail": null, "monorail": null, "railway": "subway", "station": null, "subway": null, "id": 1339195315, "timestamp": 1734449797, "version": 2, "tags": { "visible": false, "electrified": "rail", "gauge": "1435", "service": "yard", "tunnel": "building_passage" }, "osm_type": "way" }, "geometry": { "type": "LineString", "coordinates": [ [ 72.5276273, 22.9847636 ], [ 72.5262669, 22.9844428 ] ] } },
{ "type": "Feature", "properties": { "construction": null, "disused": null, "light_rail": null, "monorail": null, "railway": "subway", "station": null, "subway": null, "id": 1339195316, "timestamp": 1734449797, "version": 2, "tags": { "visible": false, "electrified": "rail", "gauge": "1435", "service": "yard", "tunnel": "building_passage" }, "osm_type": "way" }, "geometry": { "type": "LineString", "coordinates": [ [ 72.5276541, 22.9846224 ], [ 72.5263038, 22.984308 ] ] } },
{ "type": "Feature", "properties": { "construction": null, "disused": null, "light_rail": null, "monorail": null, "railway": "subway", "station": null, "subway": null, "id": 1339195317, "timestamp": 1734449797, "version": 2, "tags": { "visible": false, "electrified": "rail", "gauge": "1435", "service": "yard", "tunnel": "building_passage" }, "osm_type": "way" }, "geometry": { "type": "LineString", "coordinates": [ [ 72.5277334, 22.9845833 ], [ 72.5263184, 22.9842549 ] ] } },
{ "type": "Feature", "properties": { "construction": null, "disused": null, "light_rail": null, "monorail": null, "railway": "subway", "station": null, "subway": null, "id": 1339195318, "timestamp": 1734449797, "version": 2, "tags": { "visible": false, "electrified": "rail", "gauge": "1435", "service": "yard", "tunnel": "building_passage" }, "osm_type": "way" }, "geometry": { "type": "LineString", "coordinates": [ [ 72.5277449, 22.9845409 ], [ 72.52633, 22.9842125 ] ] } },
{ "type": "Feature", "properties": { "construction": null, "disused": null, "light_rail": null, "monorail": null, "railway": "subway", "station": null, "subway": null, "id": 1339195319, "timestamp": 1734449800, "version": 2, "tags": { "visible": false, "electrified": "rail", "gauge": "1435", "service": "yard", "tunnel": "building_passage" }, "osm_type": "way" }, "geometry": { "type": "LineString", "coordinates": [ [ 72.5277546, 22.9845052 ], [ 72.5263397, 22.9841769 ] ] } },
{ "type": "Feature", "properties": { "construction": null, "disused": null, "light_rail": null, "monorail": null, "railway": "subway", "station": null, "subway": null, "id": 1339195320, "timestamp": 1734449800, "version": 2, "tags": { "visible": false, "electrified": "rail", "gauge": "1435", "service": "yard", "tunnel": "building_passage" }, "osm_type": "way" }, "geometry": { "type": "LineString", "coordinates": [ [ 72.5277665, 22.9844617 ], [ 72.5263532, 22.9841275 ] ] } },
{ "type": "Feature", "properties": { "construction": null, "disused": null, "light_rail": null, "monorail": null, "railway": "subway", "station": null, "subway": null, "id": 1339195321, "timestamp": 1734449800, "version": 2, "tags": { "visible": false, "electrified": "rail", "gauge": "1435", "service": "yard", "tunnel": "building_passage" }, "osm_type": "way" }, "geometry": { "type": "LineString", "coordinates": [ [ 72.5277787, 22.9844169 ], [ 72.5263626, 22.9840933 ] ] } },
{ "type": "Feature", "properties": { "construction": null, "disused": null, "light_rail": null, "monorail": null, "railway": "subway", "station": null, "subway": null, "id": 1339195322, "timestamp": 1734449800, "version": 2, "tags": { "visible": false, "electrified": "rail", "gauge": "1435", "service": "yard", "tunnel": "building_passage" }, "osm_type": "way" }, "geometry": { "type": "LineString", "coordinates": [ [ 72.527789, 22.9843787 ], [ 72.5263744, 22.9840504 ] ] } },
{ "type": "Feature", "properties": { "construction": null, "disused": null, "light_rail": null, "monorail": null, "railway": "subway", "station": null, "subway": null, "id": 1339195323, "timestamp": 1734449800, "version": 2, "tags": { "visible": false, "electrified": "rail", "gauge": "1435", "service": "yard", "tunnel": "building_passage" }, "osm_type": "way" }, "geometry": { "type": "LineString", "coordinates": [ [ 72.5278002, 22.9843378 ], [ 72.5263856, 22.9840095 ] ] } },
{ "type": "Feature", "properties": { "construction": null, "disused": null, "light_rail": null, "monorail": null, "railway": "subway", "station": null, "subway": null, "id": 1339195324, "timestamp": 1734449800, "version": 2, "tags": { "visible": false, "electrified": "rail", "gauge": "1435", "service": "yard", "tunnel": "building_passage" }, "osm_type": "way" }, "geometry": { "type": "LineString", "coordinates": [ [ 72.5278123, 22.9842933 ], [ 72.5263978, 22.983965 ] ] } },
{ "type": "Feature", "properties": { "construction": null, "disused": null, "light_rail": null, "monorail": null, "railway": "subway", "station": null, "subway": null, "id": 1339195325, "timestamp": 1734449800, "version": 2, "tags": { "visible": false, "electrified": "rail", "gauge": "1435", "service": "yard", "tunnel": "building_passage" }, "osm_type": "way" }, "geometry": { "type": "LineString", "coordinates": [ [ 72.527824, 22.984253 ], [ 72.5264095, 22.9839221 ] ] } },
{ "type": "Feature", "properties": { "construction": null, "disused": null, "light_rail": null, "monorail": null, "railway": "subway", "station": null, "subway": null, "id": 1339195326, "timestamp": 1734449800, "version": 2, "tags": { "visible": false, "electrified": "rail", "gauge": "1435", "service": "yard", "tunnel": "building_passage" }, "osm_type": "way" }, "geometry": { "type": "LineString", "coordinates": [ [ 72.5278348, 22.9842106 ], [ 72.5264204, 22.9838824 ] ] } },
{ "type": "Feature", "properties": { "construction": null, "disused": null, "light_rail": null, "monorail": null, "railway": "subway", "station": null, "subway": null, "id": 1339195327, "timestamp": 1734449800, "version": 2, "tags": { "visible": false, "electrified": "rail", "gauge": "1435", "service": "yard", "tunnel": "building_passage" }, "osm_type": "way" }, "geometry": { "type": "LineString", "coordinates": [ [ 72.5278453, 22.9841719 ], [ 72.526431, 22.9838437 ] ] } },
{ "type": "Feature", "properties": { "construction": null, "disused": null, "light_rail": null, "monorail": null, "railway": "subway", "station": null, "subway": null, "id": 1339195328, "timestamp": 1734449800, "version": 2, "tags": { "visible": false, "electrified": "rail", "gauge": "1435", "service": "yard", "tunnel": "building_passage" }, "osm_type": "way" }, "geometry": { "type": "LineString", "coordinates": [ [ 72.5278561, 22.9841321 ], [ 72.5264419, 22.9838039 ] ] } },
{ "type": "Feature", "properties": { "construction": null, "disused": null, "light_rail": null, "monorail": null, "railway": "subway", "station": null, "subway": null, "id": 1339195329, "timestamp": 1734449800, "version": 2, "tags": { "visible": false, "electrified": "rail", "gauge": "1435", "service": "yard", "tunnel": "building_passage" }, "osm_type": "way" }, "geometry": { "type": "LineString", "coordinates": [ [ 72.5278675, 22.9840905 ], [ 72.5264533, 22.9837623 ] ] } },
{ "type": "Feature", "properties": { "construction": null, "disused": null, "light_rail": null, "monorail": null, "railway": "subway", "station": null, "subway": null, "id": 1339195330, "timestamp": 1734449800, "version": 2, "tags": { "visible": false, "electrified": "rail", "gauge": "1435", "service": "yard", "tunnel": "building_passage" }, "osm_type": "way" }, "geometry": { "type": "LineString", "coordinates": [ [ 72.5278782, 22.9840511 ], [ 72.5264641, 22.9837229 ] ] } },
{ "type": "Feature", "properties": { "construction": null, "disused": null, "light_rail": null, "monorail": null, "railway": "subway", "station": null, "subway": null, "id": 1339195331, "timestamp": 1734449800, "version": 2, "tags": { "visible": false, "electrified": "rail", "gauge": "1435", "service": "yard", "tunnel": "building_passage" }, "osm_type": "way" }, "geometry": { "type": "LineString", "coordinates": [ [ 72.5278898, 22.9840083 ], [ 72.5264758, 22.9836801 ] ] } },
{ "type": "Feature", "properties": { "construction": null, "disused": null, "light_rail": null, "monorail": null, "railway": "subway", "station": null, "subway": null, "id": 1339195332, "timestamp": 1734449800, "version": 2, "tags": { "visible": false, "electrified": "rail", "gauge": "1435", "service": "yard", "tunnel": "building_passage" }, "osm_type": "way" }, "geometry": { "type": "LineString", "coordinates": [ [ 72.5279012, 22.9839663 ], [ 72.5264873, 22.9836382 ] ] } },
{ "type": "Feature", "properties": { "construction": null, "disused": null, "light_rail": null, "monorail": null, "railway": "subway", "station": null, "subway": null, "id": 1340959905, "timestamp": 1749312959, "version": 2, "tags": { "visible": false, "bridge": "viaduct", "layer": "1", "name": "Red Line, Ahmedabad Metro", "start_date": "2024-09-17" }, "osm_type": "way" }, "geometry": { "type": "LineString", "coordinates": [ [ 72.6481224, 23.1560413 ], [ 72.6474811, 23.1544678 ] ] } },
{ "type": "Feature", "properties": { "construction": null, "disused": null, "light_rail": null, "monorail": null, "railway": "rail", "station": null, "subway": null, "id": 1342955746, "timestamp": 1734449789, "version": 1, "tags": { "visible": false, "service": "siding" }, "osm_type": "way" }, "geometry": { "type": "LineString", "coordinates": [ [ 72.4968919, 23.0553892 ], [ 72.4975023, 23.0556632 ] ] } },
{ "type": "Feature", "properties": { "construction": null, "disused": null, "light_rail": null, "monorail": null, "railway": "rail", "station": null, "subway": null, "id": 1342955749, "timestamp": 1734449789, "version": 1, "tags": { "visible": false, "service": "siding" }, "osm_type": "way" }, "geometry": { "type": "LineString", "coordinates": [ [ 72.4968927, 23.0552227 ], [ 72.4983512, 23.0558544 ] ] } },
{ "type": "Feature", "properties": { "construction": null, "disused": null, "light_rail": null, "monorail": null, "railway": "rail", "station": null, "subway": null, "id": 1342955752, "timestamp": 1734449789, "version": 1, "tags": { "visible": false, "service": "siding" }, "osm_type": "way" }, "geometry": { "type": "LineString", "coordinates": [ [ 72.4903381, 23.0524404 ], [ 72.4900136, 23.0522842 ] ] } },
{ "type": "Feature", "properties": { "construction": null, "disused": null, "light_rail": null, "monorail": null, "railway": "subway", "station": null, "subway": null, "id": 1342955758, "timestamp": 1734449789, "version": 1, "tags": { "visible": false, "electrified": "rail", "gauge": "1435", "service": "yard" }, "osm_type": "way" }, "geometry": { "type": "LineString", "coordinates": [ [ 72.6169396, 23.0115014 ], [ 72.6159776, 23.0113976 ] ] } },
{ "type": "Feature", "properties": { "construction": null, "disused": null, "light_rail": null, "monorail": null, "railway": "subway", "station": null, "subway": null, "id": 1342955762, "timestamp": 1734449789, "version": 1, "tags": { "visible": false, "electrified": "rail", "gauge": "1435", "service": "yard", "tunnel": "building_passage" }, "osm_type": "way" }, "geometry": { "type": "LineString", "coordinates": [ [ 72.6159776, 23.0113976 ], [ 72.615568, 23.0113575 ] ] } },
{ "type": "Feature", "properties": { "construction": null, "disused": null, "light_rail": null, "monorail": null, "railway": "subway", "station": null, "subway": null, "id": 1342955764, "timestamp": 1734449789, "version": 1, "tags": { "visible": false, "electrified": "rail", "gauge": "1435", "service": "yard", "tunnel": "building_passage" }, "osm_type": "way" }, "geometry": { "type": "LineString", "coordinates": [ [ 72.610804, 23.0118325 ], [ 72.6101042, 23.0118313 ] ] } },
{ "type": "Feature", "properties": { "construction": null, "disused": null, "light_rail": null, "monorail": null, "railway": "subway", "station": null, "subway": null, "id": 1347775214, "timestamp": 1735743111, "version": 1, "tags": { "visible": false, "electrified": "rail", "gauge": "1435", "service": "yard" }, "osm_type": "way" }, "geometry": { "type": "LineString", "coordinates": [ [ 72.614229, 23.0110026 ], [ 72.6138458, 23.0109563 ] ] } },
{ "type": "Feature", "properties": { "construction": null, "disused": null, "light_rail": null, "monorail": null, "railway": "subway", "station": null, "subway": null, "id": 1393067638, "timestamp": 1749312959, "version": 1, "tags": { "visible": false, "bridge": "yes", "electrified": "rail", "gauge": "1435", "layer": "1", "name": "Blue Line, Ahmedabad Metro", "start_date": "2022-09-30", "usage": "main", "voltage": "750" }, "osm_type": "way" }, "geometry": { "type": "LineString", "coordinates": [ [ 72.5088474, 23.0504616 ], [ 72.5092172, 23.0504155 ] ] } },
{ "type": "Feature", "properties": { "construction": null, "disused": null, "light_rail": null, "monorail": null, "railway": "subway", "station": null, "subway": null, "id": 1393067639, "timestamp": 1749312959, "version": 1, "tags": { "visible": false, "bridge": "yes", "electrified": "rail", "gauge": "1435", "layer": "1", "name": "Blue Line, Ahmedabad Metro", "start_date": "2022-09-30", "usage": "main", "voltage": "750" }, "osm_type": "way" }, "geometry": { "type": "LineString", "coordinates": [ [ 72.5048449, 23.0499705 ], [ 72.5044949, 23.0499616 ] ] } },
{ "type": "Feature", "properties": { "construction": null, "disused": null, "light_rail": null, "monorail": null, "railway": "rail", "station": null, "subway": null, "id": 1394136387, "timestamp": 1749635003, "version": 1, "tags": { "visible": false, "bridge": "yes", "gauge": "1676", "layer": "1", "service": "yard" }, "osm_type": "way" }, "geometry": { "type": "LineString", "coordinates": [ [ 72.5807494, 23.087916 ], [ 72.5807011, 23.0879838 ] ] } },
{ "type": "Feature", "properties": { "construction": null, "disused": null, "light_rail": null, "monorail": null, "railway": "rail", "station": null, "subway": null, "id": 1463638295, "timestamp": 1767338251, "version": 1, "tags": { "visible": false, "bridge": "yes", "gauge": "1676", "layer": "1", "name": "Western Railway Line", "passenger_lines": "1", "usage": "branch" }, "osm_type": "way" }, "geometry": { "type": "LineString", "coordinates": [ [ 72.5601842, 23.0642487 ], [ 72.5602064, 23.0641663 ] ] } }
]
}
