{
"type": "FeatureCollection",
"name": "railways_polygon",
"crs": { "type": "name", "properties": { "name": "urn:ogc:def:crs:OGC:1.3:CRS84" } },
"features": [
{ "type": "Feature", "properties": { "construction": null, "disused": null, "light_rail": null, "monorail": null, "railway": "platform", "station": null, "subway": null, "id": 456784607, "timestamp": 1746946550, "version": 4, "tags": { "visible": false, "area": "yes", "name": "Platform 8-9", "public_transport": "platform", "ref": "8;9" }, "osm_type": "way" }, "geometry": { "type": "Polygon", "coordinates": [ [ [ 72.6022087, 23.0234728 ], [ 72.6022945, 23.0234703 ], [ 72.6022328, 23.0291972 ], [ 72.6022006, 23.0291947 ], [ 72.6022033, 23.0287702 ], [ 72.6021577, 23.0287628 ], [ 72.6022087, 23.0234728 ] ] ] } },
{ "type": "Feature", "properties": { "construction": null, "disused": null, "light_rail": null, "monorail": null, "railway": "platform", "station": null, "subway": null, "id": 456784615, "timestamp": 1746946550, "version": 4, "tags": { "visible": false, "area": "yes", "name": "Platform 1", "public_transport": "platform", "ref": "1" }, "osm_type": "way" }, "geometry": { "type": "Polygon", "coordinates": [ [ [ 72.601005, 23.0238208 ], [ 72.6012685, 23.0275878 ], [ 72.6011425, 23.0275927 ], [ 72.6008924, 23.0238307 ], [ 72.601005, 23.0238208 ] ] ] } },
{ "type": "Feature", "properties": { "construction": null, "disused": null, "light_rail": null, "monorail": null, "railway": "platform", "station": null, "subway": null, "id": 456784617, "timestamp": 1746946550, "version": 5, "tags": { "visible": false, "area": "yes", "name": "Platform 2-2A-3", "public_transport": "platform", "ref": "2;2A;3" }, "osm_type": "way" }, "geometry": { "type": "Polygon", "coordinates": [ [ [ 72.6013376, 23.0231148 ], [ 72.601296, 23.0233148 ], [ 72.6013282, 23.0233271 ], [ 72.6013376, 23.0232654 ], [ 72.6013698, 23.0232679 ], [ 72.6013417, 23.0235221 ], [ 72.6013175, 23.0237937 ], [ 72.6013068, 23.0240935 ], [ 72.6013188, 23.0243565 ], [ 72.6017144, 23.0300254 ], [ 72.6016313, 23.030029 ], [ 72.6012142, 23.0242676 ], [ 72.6011901, 23.0239467 ], [ 72.6012102, 23.0235011 ], [ 72.601241, 23.0235036 ], [ 72.6012544, 23.0233049 ], [ 72.6012866, 23.0230988 ], [ 72.601343, 23.0228223 ], [ 72.6014476, 23.0224519 ], [ 72.6015066, 23.0224692 ], [ 72.6013979, 23.0228433 ], [ 72.6013376, 23.0231148 ] ] ] } },
{ "type": "Feature", "properties": { "construction": null, "disused": null, "light_rail": null, "monorail": null, "railway": "platform", "station": null, "subway": null, "id": 456784624, "timestamp": 1746946550, "version": 5, "tags": { "visible": false, "area": "yes", "name": "Platform 12", "public_transport": "platform", "ref": "12" }, "osm_type": "way" }, "geometry": { "type": "Polygon", "coordinates": [ [ [ 72.6026478, 23.0227211 ], [ 72.6027525, 23.0227211 ], [ 72.6026934, 23.0265621 ], [ 72.6026505, 23.026646 ], [ 72.6025647, 23.0266442 ], [ 72.6026022, 23.0262752 ], [ 72.6026081, 23.0261827 ], [ 72.6026478, 23.0227211 ] ] ] } },
{ "type": "Feature", "properties": { "construction": null, "disused": null, "light_rail": null, "monorail": null, "railway": "platform", "station": null, "subway": null, "id": 456784626, "timestamp": 1746946550, "version": 4, "tags": { "visible": false, "area": "yes", "name": "Platform 10-11", "public_transport": "platform", "ref": "10;11" }, "osm_type": "way" }, "geometry": { "type": "Polygon", "coordinates": [ [ [ 72.6024252, 23.0227075 ], [ 72.6025165, 23.0227087 ], [ 72.6024749, 23.0268386 ], [ 72.6024762, 23.0272447 ], [ 72.6024467, 23.0283406 ], [ 72.6023716, 23.0283406 ], [ 72.6024252, 23.0227075 ] ] ] } },
{ "type": "Feature", "properties": { "construction": null, "disused": null, "light_rail": null, "monorail": null, "railway": "platform", "station": null, "subway": null, "id": 456784629, "timestamp": 1746946550, "version": 4, "tags": { "visible": false, "area": "yes", "name": "Platform 6-7", "public_transport": "platform", "ref": "6;7" }, "osm_type": "way" }, "geometry": { "type": "Polygon", "coordinates": [ [ [ 72.6019692, 23.026398 ], [ 72.601988, 23.022473 ], [ 72.6020819, 23.022473 ], [ 72.6020524, 23.0266818 ], [ 72.6020658, 23.0277013 ], [ 72.602039, 23.0277013 ], [ 72.6019773, 23.0267682 ], [ 72.6019692, 23.026398 ] ] ] } },
{ "type": "Feature", "properties": { "construction": null, "disused": null, "light_rail": null, "monorail": null, "railway": "platform", "station": null, "subway": null, "id": 456784631, "timestamp": 1746946550, "version": 6, "tags": { "visible": false, "area": "yes", "name": "Platform 4-5", "public_transport": "platform", "ref": "4;5" }, "osm_type": "way" }, "geometry": { "type": "Polygon", "coordinates": [ [ [ 72.6018768, 23.0227519 ], [ 72.6018526, 23.0256722 ], [ 72.601858, 23.026161 ], [ 72.6018875, 23.0268867 ], [ 72.6019224, 23.0274026 ], [ 72.6020404, 23.0290688 ], [ 72.6020055, 23.0290738 ], [ 72.6020699, 23.0300685 ], [ 72.6020135, 23.0300698 ], [ 72.6017587, 23.0261709 ], [ 72.6017359, 23.0257932 ], [ 72.6017266, 23.0255315 ], [ 72.6017802, 23.0227532 ], [ 72.6018037, 23.022753 ], [ 72.6018768, 23.0227519 ] ] ] } },
{ "type": "Feature", "properties": { "construction": null, "disused": null, "light_rail": null, "monorail": null, "railway": "platform", "station": null, "subway": null, "id": 487641400, "timestamp": 1746946550, "version": 4, "tags": { "visible": false, "area": "yes", "name": "Platform 1", "public_transport": "platform", "ref": "1" }, "osm_type": "way" }, "geometry": { "type": "Polygon", "coordinates": [ [ [ 72.5894842, 23.0755035 ], [ 72.5895379, 23.0755146 ], [ 72.5895151, 23.0756307 ], [ 72.5895673, 23.0756615 ], [ 72.5894393, 23.0761279 ], [ 72.5893487, 23.0763549 ], [ 72.5890437, 23.0769706 ], [ 72.5886655, 23.0777824 ], [ 72.5885173, 23.0781168 ], [ 72.5884643, 23.0780933 ], [ 72.5878962, 23.0792473 ], [ 72.5878628, 23.0792303 ], [ 72.5892186, 23.0763623 ], [ 72.5893072, 23.0761489 ], [ 72.5893843, 23.0759021 ], [ 72.5894372, 23.075701 ], [ 72.5894842, 23.0755035 ] ] ] } },
{ "type": "Feature", "properties": { "construction": null, "disused": null, "light_rail": null, "monorail": null, "railway": "platform", "station": null, "subway": null, "id": 487641402, "timestamp": 1746946550, "version": 4, "tags": { "visible": false, "area": "yes", "name": "Platform 2-3", "public_transport": "platform", "ref": "2;3" }, "osm_type": "way" }, "geometry": { "type": "Polygon", "coordinates": [ [ [ 72.5893448, 23.0751458 ], [ 72.5893756, 23.0751507 ], [ 72.5893353, 23.0754172 ], [ 72.5892844, 23.0756676 ], [ 72.5892167, 23.0758984 ], [ 72.5891402, 23.076097 ], [ 72.5890497, 23.0763253 ], [ 72.5877502, 23.0790643 ], [ 72.5876147, 23.0792987 ], [ 72.587488, 23.0794973 ], [ 72.5873673, 23.0796701 ], [ 72.587199, 23.0798835 ], [ 72.5870655, 23.0800464 ], [ 72.5869307, 23.0802055 ], [ 72.5868959, 23.0801722 ], [ 72.5870353, 23.080013 ], [ 72.5871648, 23.0798514 ], [ 72.5873271, 23.0796392 ], [ 72.5874846, 23.0794135 ], [ 72.5874417, 23.0793962 ], [ 72.5875591, 23.0791864 ], [ 72.587663, 23.0789853 ], [ 72.5890175, 23.0761082 ], [ 72.5891188, 23.0758836 ], [ 72.589212, 23.0756306 ], [ 72.589275, 23.0754209 ], [ 72.5893448, 23.0751458 ] ] ] } },
{ "type": "Feature", "properties": { "construction": null, "disused": null, "light_rail": null, "monorail": null, "railway": "platform", "station": null, "subway": null, "id": 487641405, "timestamp": 1746946550, "version": 5, "tags": { "visible": false, "area": "yes", "name": "Platform 4-5", "public_transport": "platform", "ref": "4;5" }, "osm_type": "way" }, "geometry": { "type": "Polygon", "coordinates": [ [ [ 72.5887789, 23.0762673 ], [ 72.5876938, 23.0785634 ], [ 72.5874947, 23.0789521 ], [ 72.5873385, 23.0792235 ], [ 72.5871285, 23.0795664 ], [ 72.5869267, 23.0798588 ], [ 72.5867296, 23.0801303 ], [ 72.5866706, 23.0800846 ], [ 72.5868677, 23.0798181 ], [ 72.5870642, 23.0795306 ], [ 72.5872633, 23.0791938 ], [ 72.5874102, 23.0789273 ], [ 72.5875879, 23.0785547 ], [ 72.5886809, 23.0762279 ], [ 72.5888103, 23.0759206 ], [ 72.5888968, 23.0756801 ], [ 72.5889431, 23.0755319 ], [ 72.5889948, 23.0753641 ], [ 72.5890618, 23.0750829 ], [ 72.5891516, 23.0750904 ], [ 72.5890913, 23.075379 ], [ 72.5890417, 23.0755616 ], [ 72.5889887, 23.0757207 ], [ 72.5889029, 23.0759589 ], [ 72.5887789, 23.0762673 ] ] ] } },
{ "type": "Feature", "properties": { "construction": null, "disused": null, "light_rail": null, "monorail": null, "railway": "platform", "station": null, "subway": null, "id": 487641406, "timestamp": 1746946550, "version": 3, "tags": { "visible": false, "area": "yes", "name": "Platform 2-3", "ref": "2:3" }, "osm_type": "way" }, "geometry": { "type": "Polygon", "coordinates": [ [ [ 72.5875302, 23.0708077 ], [ 72.5875988, 23.0708215 ], [ 72.5868479, 23.073512 ], [ 72.5867906, 23.073701 ], [ 72.5866199, 23.0742182 ], [ 72.5865861, 23.0742118 ], [ 72.5875302, 23.0708077 ] ] ] } },
{ "type": "Feature", "properties": { "construction": null, "disused": null, "light_rail": null, "monorail": null, "railway": "platform", "station": null, "subway": null, "id": 487641407, "timestamp": 1746945432, "version": 4, "tags": { "visible": false, "area": "yes", "name": "Platform 1", "ref": "1" }, "osm_type": "way" }, "geometry": { "type": "Polygon", "coordinates": [ [ [ 72.5877609, 23.069216 ], [ 72.5878139, 23.0692308 ], [ 72.5864848, 23.0740748 ], [ 72.5864495, 23.0740654 ], [ 72.5867266, 23.0730221 ], [ 72.5867899, 23.0726313 ], [ 72.5870287, 23.0717174 ], [ 72.5871997, 23.0710628 ], [ 72.5872915, 23.0707114 ], [ 72.5873344, 23.0707213 ], [ 72.5877609, 23.069216 ] ] ] } },
{ "type": "Feature", "properties": { "construction": null, "disused": null, "light_rail": null, "monorail": null, "railway": "platform", "station": null, "subway": null, "id": 519839569, "timestamp": 1627766176, "version": 2, "tags": { "visible": false, "area": "yes", "public_transport": "platform" }, "osm_type": "way" }, "geometry": { "type": "Polygon", "coordinates": [ [ [ 72.630114, 22.9573512 ], [ 72.6302528, 22.9574029 ], [ 72.629517, 22.9590343 ], [ 72.6283195, 22.9616891 ], [ 72.6282089, 22.9616435 ], [ 72.6293879, 22.9589872 ], [ 72.630114, 22.9573512 ] ] ] } },
{ "type": "Feature", "properties": { "construction": null, "disused": null, "light_rail": null, "monorail": null, "railway": "platform", "station": null, "subway": null, "id": 519839570, "timestamp": 1627766176, "version": 2, "tags": { "visible": false, "area": "yes", "public_transport": "platform" }, "osm_type": "way" }, "geometry": { "type": "Polygon", "coordinates": [ [ [ 72.630107, 22.9569621 ], [ 72.6301861, 22.956988 ], [ 72.6293058, 22.9589573 ], [ 72.6286157, 22.9605012 ], [ 72.6285727, 22.9604852 ], [ 72.6287994, 22.9598826 ], [ 72.6289388, 22.9595689 ], [ 72.6292156, 22.9589247 ], [ 72.6299835, 22.9572189 ], [ 72.630107, 22.9569621 ] ] ] } },
{ "type": "Feature", "properties": { "construction": null, "disused": null, "light_rail": null, "monorail": null, "railway": "platform", "station": null, "subway": null, "id": 559508821, "timestamp": 1684192602, "version": 2, "tags": { "visible": false, "area": "yes", "public_transport": "platform" }, "osm_type": "way" }, "geometry": { "type": "Polygon", "coordinates": [ [ [ 72.5467839, 23.1585432 ], [ 72.5489819, 23.1542074 ], [ 72.5490277, 23.1542271 ], [ 72.5487548, 23.1547655 ], [ 72.5487959, 23.1547831 ], [ 72.5485252, 23.1553171 ], [ 72.5486244, 23.1553596 ], [ 72.5484549, 23.155694 ], [ 72.5483977, 23.1556695 ], [ 72.5481761, 23.1561067 ], [ 72.5480835, 23.1560671 ], [ 72.5474629, 23.1572913 ], [ 72.5474988, 23.1573066 ], [ 72.5468562, 23.1585742 ], [ 72.5467839, 23.1585432 ] ] ] } },
{ "type": "Feature", "properties": { "construction": null, "disused": null, "light_rail": null, "monorail": null, "railway": "platform", "station": null, "subway": null, "id": 559508822, "timestamp": 1684192602, "version": 2, "tags": { "visible": false, "area": "yes", "public_transport": "platform" }, "osm_type": "way" }, "geometry": { "type": "Polygon", "coordinates": [ [ [ 72.548439, 23.1545716 ], [ 72.5485206, 23.1546126 ], [ 72.5461954, 23.1592085 ], [ 72.5461686, 23.1591947 ], [ 72.5456724, 23.1601786 ], [ 72.5456163, 23.1601502 ], [ 72.548439, 23.1545716 ] ] ] } },
{ "type": "Feature", "properties": { "construction": null, "disused": null, "light_rail": null, "monorail": null, "railway": "depot", "station": null, "subway": null, "id": 588764972, "timestamp": 1735746303, "version": 5, "tags": { "visible": false, "landuse": "railway", "name": "Gyaspur Depot" }, "osm_type": "way" }, "geometry": { "type": "Polygon", "coordinates": [ [ [ 72.5343569, 22.985499 ], [ 72.5342212, 22.9865494 ], [ 72.5338941, 22.9864658 ], [ 72.5338622, 22.9865395 ], [ 72.5293401, 22.9851405 ], [ 72.5286432, 22.9871944 ], [ 72.5267831, 22.986967 ], [ 72.5269561, 22.9860579 ], [ 72.5249298, 22.9857658 ], [ 72.5249578, 22.9855337 ], [ 72.5249205, 22.984992 ], [ 72.5249578, 22.9840633 ], [ 72.5249485, 22.9837538 ], [ 72.5249465, 22.9827985 ], [ 72.5249805, 22.9827089 ], [ 72.525215, 22.9827482 ], [ 72.5276909, 22.9834564 ], [ 72.5343569, 22.985499 ] ] ] } },
{ "type": "Feature", "properties": { "construction": null, "disused": null, "light_rail": null, "monorail": null, "railway": "platform", "station": null, "subway": null, "id": 602995032, "timestamp": 1530188253, "version": 1, "tags": { "visible": false, "bench": "yes", "public_transport": "platform", "shelter": "yes", "train": "yes" }, "osm_type": "way" }, "geometry": { "type": "Polygon", "coordinates": [ [ [ 72.4909976, 23.0528475 ], [ 72.4963999, 23.0551504 ], [ 72.4963821, 23.0551988 ], [ 72.4954409, 23.05483 ], [ 72.4951563, 23.0547221 ], [ 72.4915073, 23.0531707 ], [ 72.4909736, 23.0528998 ], [ 72.4909976, 23.0528475 ] ] ] } },
{ "type": "Feature", "properties": { "construction": null, "disused": null, "light_rail": null, "monorail": null, "railway": "platform", "station": null, "subway": null, "id": 602995033, "timestamp": 1530188253, "version": 1, "tags": { "visible": false, "bench": "yes", "public_transport": "platform", "shelter": "yes", "train": "yes" }, "osm_type": "way" }, "geometry": { "type": "Polygon", "coordinates": [ [ [ 72.4954463, 23.0546168 ], [ 72.4909424, 23.0526751 ], [ 72.4909454, 23.0526627 ], [ 72.4909739, 23.0525868 ], [ 72.4915298, 23.052828 ], [ 72.4954785, 23.0545637 ], [ 72.4954463, 23.0546168 ] ] ] } },
{ "type": "Feature", "properties": { "construction": null, "disused": null, "light_rail": null, "monorail": null, "railway": "platform", "station": null, "subway": null, "id": 1006803615, "timestamp": 1711964819, "version": 3, "tags": { "visible": false, "area": "yes", "public_transport": "platform" }, "osm_type": "way" }, "geometry": { "type": "Polygon", "coordinates": [ [ [ 72.6168756, 23.0478032 ], [ 72.6168381, 23.047834 ], [ 72.6164196, 23.0474792 ], [ 72.6161246, 23.0472305 ], [ 72.6125861, 23.0439905 ], [ 72.6126585, 23.0439275 ], [ 72.6168756, 23.0478032 ] ] ] } },
{ "type": "Feature", "properties": { "construction": null, "disused": null, "light_rail": null, "monorail": null, "railway": "platform", "station": null, "subway": null, "id": 1006803616, "timestamp": 1711964819, "version": 3, "tags": { "visible": false, "area": "yes", "public_transport": "platform" }, "osm_type": "way" }, "geometry": { "type": "Polygon", "coordinates": [ [ [ 72.6167835, 23.0475424 ], [ 72.6126659, 23.0437556 ], [ 72.6127111, 23.0437105 ], [ 72.6168234, 23.0475047 ], [ 72.6167835, 23.0475424 ] ] ] } },
{ "type": "Feature", "properties": { "construction": null, "disused": null, "light_rail": null, "monorail": null, "railway": "station", "station": "subway", "subway": "yes", "id": 1101028012, "timestamp": 1692050890, "version": 2, "tags": { "visible": false, "building": "train_station", "layer": "3", "name": "APMC", "name:gu": "એ પી એમ સી", "operator": "Gujarat Metro Rail Corporation Limited", "operator:wikidata": "Q113158873", "operator:wikipedia": "en:Gujarat Metro Rail Corporation Limited", "public_transport": "station", "wikipedia": "en:List of Ahmedabad Metro stations" }, "osm_type": "way" }, "geometry": { "type": "Polygon", "coordinates": [ [ [ 72.5375021, 22.9972061 ], [ 72.5369325, 22.9983623 ], [ 72.5367422, 22.9982829 ], [ 72.5373119, 22.9971267 ], [ 72.5375021, 22.9972061 ] ] ] } },
{ "type": "Feature", "properties": { "construction": null, "disused": null, "light_rail": null, "monorail": null, "railway": "station", "station": "subway", "subway": "yes", "id": 1101058047, "timestamp": 1692050890, "version": 3, "tags": { "visible": false, "building": "train_station", "layer": "3", "name": "Ranip", "name:gu": "રાણીપ", "network": "Ahmedabad Metro", "operator": "Gujarat Metro Rail Corporation Limited", "operator:wikidata": "Q113158873", "operator:wikipedia": "en:Gujarat Metro Rail Corporation Limited", "public_transport": "station", "wikipedia": "en:List of Ahmedabad Metro stations" }, "osm_type": "way" }, "geometry": { "type": "Polygon", "coordinates": [ [ [ 72.5733936, 23.0677604 ], [ 72.5734, 23.0675519 ], [ 72.574774, 23.0675877 ], [ 72.5747675, 23.0677962 ], [ 72.5733936, 23.0677604 ] ] ] } },
{ "type": "Feature", "properties": { "construction": null, "disused": null, "light_rail": null, "monorail": null, "railway": "station", "station": "subway", "subway": "yes", "id": 1101058050, "timestamp": 1692050890, "version": 3, "tags": { "visible": false, "building": "train_station", "layer": "3", "name": "Shreyas", "name:gu": "શ્રેયસ", "network": "Ahmedabad Metro", "operator": "Gujarat Metro Rail Corporation Limited", "operator:wikidata": "Q113158873", "operator:wikipedia": "en:Gujarat Metro Rail Corporation Limited", "public_transport": "station", "wikipedia": "en:List of Ahmedabad Metro stations" }, "osm_type": "way" }, "geometry": { "type": "Polygon", "coordinates": [ [ [ 72.5486276, 23.0132703 ], [ 72.5498979, 23.0137404 ], [ 72.5498173, 23.013925 ], [ 72.548547, 23.0134549 ], [ 72.5486276, 23.0132703 ] ] ] } },
{ "type": "Feature", "properties": { "construction": null, "disused": null, "light_rail": null, "monorail": null, "railway": "station", "station": "subway", "subway": "yes", "id": 1101058051, "timestamp": 1692050890, "version": 4, "tags": { "visible": false, "building": "train_station", "layer": "3", "name": "Rajiv Nagar", "name:gu": "રાજીવ નગર", "network": "Ahmedabad Metro", "operator": "Gujarat Metro Rail Corporation Limited", "operator:wikidata": "Q113158873", "operator:wikipedia": "en:Gujarat Metro Rail Corporation Limited", "public_transport": "station", "wikipedia": "en:List of Ahmedabad Metro stations" }, "osm_type": "way" }, "geometry": { "type": "Polygon", "coordinates": [ [ [ 72.5360887, 23.009561 ], [ 72.5374381, 23.0096947 ], [ 72.5374159, 23.0098848 ], [ 72.5360665, 23.0097512 ], [ 72.5360887, 23.009561 ] ] ] } },
{ "type": "Feature", "properties": { "construction": null, "disused": null, "light_rail": null, "monorail": null, "railway": "station", "station": "subway", "subway": "yes", "id": 1101058052, "timestamp": 1692050890, "version": 3, "tags": { "visible": false, "building": "train_station", "layer": "3", "name": "Jivraj Park", "name:gu": "જીવરાજ પાર્ક", "network": "Ahmedabad Metro", "operator": "Gujarat Metro Rail Corporation Limited", "operator:wikidata": "Q113158873", "operator:wikipedia": "en:Gujarat Metro Rail Corporation Limited", "public_transport": "station", "wikipedia": "en:List of Ahmedabad Metro stations" }, "osm_type": "way" }, "geometry": { "type": "Polygon", "coordinates": [ [ [ 72.533691, 23.0048853 ], [ 72.5338829, 23.004969 ], [ 72.5332947, 23.0061124 ], [ 72.5331027, 23.0060287 ], [ 72.533691, 23.0048853 ] ] ] } },
{ "type": "Feature", "properties": { "construction": null, "disused": null, "light_rail": null, "monorail": null, "railway": "station", "station": "subway", "subway": "yes", "id": 1107146505, "timestamp": 1692050890, "version": 3, "tags": { "visible": false, "addr:city": "Ahmedabad", "addr:postcode": "380006", "building": "train_station", "information": "yes", "internet_access": "no", "layer": "3", "name": "Gandhigram", "name:gu": "ગાંધીગ્રામ", "network": "Ahmedabad Metro", "operator": "Gujarat Metro Rail Corporation Limited", "operator:wikidata": "Q113158873", "operator:wikipedia": "en:Gujarat Metro Rail Corporation Limited", "public_transport": "station", "ref": "GG", "tourism": "information", "train": "yes", "wheelchair": "limited", "wikipedia": "en:List of Ahmedabad Metro stations" }, "osm_type": "way" }, "geometry": { "type": "Polygon", "coordinates": [ [ [ 72.5687769, 23.0264671 ], [ 72.5689736, 23.026466 ], [ 72.5689752, 23.0267287 ], [ 72.5691659, 23.0267277 ], [ 72.5691643, 23.0264699 ], [ 72.5692688, 23.0264693 ], [ 72.5692707, 23.026784 ], [ 72.5689756, 23.0267855 ], [ 72.5689762, 23.0268916 ], [ 72.5690608, 23.0268912 ], [ 72.5690632, 23.0272911 ], [ 72.5689786, 23.0272915 ], [ 72.5689924, 23.027725 ], [ 72.5687903, 23.0277211 ], [ 72.5687769, 23.0264671 ] ] ] } },
{ "type": "Feature", "properties": { "construction": null, "disused": null, "light_rail": null, "monorail": null, "railway": "station", "station": "subway", "subway": "yes", "id": 1198134736, "timestamp": 1692050890, "version": 2, "tags": { "visible": false, "building": "train_station", "layer": "1", "name": "Stadium", "name:gu": "સ્ટેડિયમ", "network": "Ahmedabad Metro", "operator": "Gujarat Metro Rail Corporation Limited", "operator:wikidata": "Q113158873", "operator:wikipedia": "en:Gujarat Metro Rail Corporation Limited", "public_transport": "station", "wikipedia": "en:List of Ahmedabad Metro stations" }, "osm_type": "way" }, "geometry": { "type": "Polygon", "coordinates": [ [ [ 72.5609867, 23.0398033 ], [ 72.5623495, 23.0396952 ], [ 72.5623668, 23.0398794 ], [ 72.561004, 23.0399876 ], [ 72.5609867, 23.0398033 ] ] ] } },
{ "type": "Feature", "properties": { "construction": null, "disused": null, "light_rail": null, "monorail": null, "railway": "station", "station": "subway", "subway": "yes", "id": 1198134737, "timestamp": 1716378776, "version": 3, "tags": { "visible": false, "building": "train_station", "layer": "1", "name": "Commerce Sixth Road", "name:gu": "કોમર્સ છ રસ્તા", "network": "Ahmedabad Metro", "network:wikidata": "Q1895288", "operator": "Gujarat Metro Rail Corporation Limited", "operator:wikidata": "Q113158873", "operator:wikipedia": "en:Gujarat Metro Rail Corporation Limited", "public_transport": "station", "wikipedia": "en:List of Ahmedabad Metro stations" }, "osm_type": "way" }, "geometry": { "type": "Polygon", "coordinates": [ [ [ 72.5523362, 23.0409555 ], [ 72.553486, 23.040271 ], [ 72.5536098, 23.040447 ], [ 72.55246, 23.0411316 ], [ 72.5523362, 23.0409555 ] ] ] } },
{ "type": "Feature", "properties": { "construction": null, "disused": null, "light_rail": null, "monorail": null, "railway": "station", "station": "subway", "subway": "yes", "id": 1198134738, "timestamp": 1716378776, "version": 3, "tags": { "visible": false, "building": "train_station", "layer": "1", "name": "Gurukul Road", "name:gu": "ગુરુકુલ રોડ", "network": "Ahmedabad Metro", "network:wikidata": "Q1895288", "operator": "Gujarat Metro Rail Corporation Limited", "operator:wikidata": "Q113158873", "operator:wikipedia": "en:Gujarat Metro Rail Corporation Limited", "public_transport": "station", "wikipedia": "en:List of Ahmedabad Metro stations" }, "osm_type": "way" }, "geometry": { "type": "Polygon", "coordinates": [ [ [ 72.5341796, 23.0459778 ], [ 72.5341813, 23.0457779 ], [ 72.5355673, 23.045788 ], [ 72.5355656, 23.0459879 ], [ 72.5341796, 23.0459778 ] ] ] } },
{ "type": "Feature", "properties": { "construction": null, "disused": null, "light_rail": null, "monorail": null, "railway": "station", "station": "subway", "subway": "yes", "id": 1198134739, "timestamp": 1692050890, "version": 2, "tags": { "visible": false, "building": "train_station", "layer": "1", "name": "Doordarshan Kendra", "name:gu": "દૂરદર્શન કેન્દ્ર", "network": "Ahmedabad Metro", "operator": "Gujarat Metro Rail Corporation Limited", "operator:wikidata": "Q113158873", "operator:wikipedia": "en:Gujarat Metro Rail Corporation Limited", "public_transport": "station", "wikipedia": "en:List of Ahmedabad Metro stations" }, "osm_type": "way" }, "geometry": { "type": "Polygon", "coordinates": [ [ [ 72.5237275, 23.0482054 ], [ 72.5250693, 23.0479487 ], [ 72.5251142, 23.0481474 ], [ 72.5237724, 23.0484041 ], [ 72.5237275, 23.0482054 ] ] ] } },
{ "type": "Feature", "properties": { "construction": null, "disused": null, "light_rail": null, "monorail": null, "railway": "station", "station": "subway", "subway": "yes", "id": 1198134744, "timestamp": 1692050890, "version": 2, "tags": { "visible": false, "building": "train_station", "layer": "3", "name": "Vadaj", "name:gu": "વાડજ", "network": "Ahmedabad Metro", "operator": "Gujarat Metro Rail Corporation Limited", "operator:wikidata": "Q113158873", "operator:wikipedia": "en:Gujarat Metro Rail Corporation Limited", "public_transport": "station", "wikipedia": "en:List of Ahmedabad Metro stations" }, "osm_type": "way" }, "geometry": { "type": "Polygon", "coordinates": [ [ [ 72.5650688, 23.0677618 ], [ 72.5650667, 23.0675866 ], [ 72.5664487, 23.0675725 ], [ 72.5664508, 23.0677478 ], [ 72.5650688, 23.0677618 ] ] ] } },
{ "type": "Feature", "properties": { "construction": null, "disused": null, "light_rail": null, "monorail": null, "railway": "station", "station": "subway", "subway": "yes", "id": 1198134745, "timestamp": 1692050890, "version": 2, "tags": { "visible": false, "building": "train_station", "layer": "3", "name": "Vijay Nagar", "name:gu": "વિજય નગર", "network": "Ahmedabad Metro", "operator": "Gujarat Metro Rail Corporation Limited", "operator:wikidata": "Q113158873", "operator:wikipedia": "en:Gujarat Metro Rail Corporation Limited", "public_transport": "station", "wikipedia": "en:List of Ahmedabad Metro stations" }, "osm_type": "way" }, "geometry": { "type": "Polygon", "coordinates": [ [ [ 72.5620674, 23.0567843 ], [ 72.5623946, 23.0555503 ], [ 72.5626105, 23.0555997 ], [ 72.562298, 23.0568324 ], [ 72.5620674, 23.0567843 ] ] ] } },
{ "type": "Feature", "properties": { "construction": null, "disused": null, "light_rail": null, "monorail": null, "railway": "station", "station": "subway", "subway": "yes", "id": 1198134747, "timestamp": 1692050890, "version": 2, "tags": { "visible": false, "building": "train_station", "layer": "3", "name": "Usmanpura", "name:gu": "ઉસ્માનપુરા", "network": "Ahmedabad Metro", "operator": "Gujarat Metro Rail Corporation Limited", "operator:wikidata": "Q113158873", "operator:wikipedia": "en:Gujarat Metro Rail Corporation Limited", "public_transport": "station", "wikipedia": "en:List of Ahmedabad Metro stations" }, "osm_type": "way" }, "geometry": { "type": "Polygon", "coordinates": [ [ [ 72.5647203, 23.0464305 ], [ 72.5650312, 23.0451983 ], [ 72.5652438, 23.0452437 ], [ 72.5649329, 23.0464759 ], [ 72.5647203, 23.0464305 ] ] ] } },
{ "type": "Feature", "properties": { "construction": null, "disused": null, "light_rail": null, "monorail": null, "railway": "station", "station": "subway", "subway": "yes", "id": 1198134751, "timestamp": 1722424221, "version": 4, "tags": { "visible": false, "building": "train_station", "layer": "1", "name": "Gujarat University Station", "name:gu": "ગુજરાત યુનિવર્સિટી સ્ટેશન", "network": "Ahmedabad Metro", "network:wikidata": "Q1895288", "operator": "Gujarat Metro Rail Corporation Limited", "operator:wikidata": "Q113158873", "operator:wikipedia": "en:Gujarat Metro Rail Corporation Limited", "public_transport": "station", "wikipedia": "en:List of Ahmedabad Metro stations" }, "osm_type": "way" }, "geometry": { "type": "Polygon", "coordinates": [ [ [ 72.5428768, 23.0450736 ], [ 72.5428326, 23.0448697 ], [ 72.5431678, 23.0448081 ], [ 72.5441825, 23.0446218 ], [ 72.5442267, 23.0448257 ], [ 72.5428768, 23.0450736 ] ] ] } },
{ "type": "Feature", "properties": { "construction": null, "disused": null, "light_rail": null, "monorail": null, "railway": "station", "station": "subway", "subway": "yes", "id": 1198134752, "timestamp": 1692050890, "version": 2, "tags": { "visible": false, "building": "train_station", "layer": "3", "name": "Old High Court", "name:gu": "જૂની હાઇ કોર્ટ", "network": "Ahmedabad Metro", "operator": "Gujarat Metro Rail Corporation Limited", "operator:wikidata": "Q113158873", "operator:wikipedia": "en:Gujarat Metro Rail Corporation Limited", "public_transport": "station", "wikipedia": "en:List of Ahmedabad Metro stations" }, "osm_type": "way" }, "geometry": { "type": "Polygon", "coordinates": [ [ [ 72.5665397, 23.0377036 ], [ 72.5665155, 23.0375437 ], [ 72.566776, 23.0375058 ], [ 72.5669932, 23.0366394 ], [ 72.5672668, 23.0367011 ], [ 72.5670844, 23.0374613 ], [ 72.5678733, 23.0373697 ], [ 72.5678975, 23.0375296 ], [ 72.5670482, 23.0376218 ], [ 72.5669543, 23.037939 ], [ 72.5666808, 23.0378896 ], [ 72.5667411, 23.0376749 ], [ 72.5665397, 23.0377036 ] ] ] } },
{ "type": "Feature", "properties": { "construction": null, "disused": null, "light_rail": null, "monorail": null, "railway": "station", "station": "subway", "subway": "yes", "id": 1198140890, "timestamp": 1692050890, "version": 1, "tags": { "visible": false, "air_conditioning": "yes", "building": "train_station", "ele": "2", "internet_access": "yes", "layer": "1", "name": "Vastral Gam", "name:gu": "વસ્ત્રાલ ગામ", "network": "Ahmedabad Metro", "operator": "Gujarat Metro Rail Corporation Limited", "operator:wikidata": "Q113158873", "operator:wikipedia": "en:Gujarat Metro Rail Corporation Limited", "public_transport": "station", "wikipedia": "en:List of Ahmedabad Metro stations" }, "osm_type": "way" }, "geometry": { "type": "Polygon", "coordinates": [ [ [ 72.6666921, 22.9973124 ], [ 72.6679622, 22.9967306 ], [ 72.6680899, 22.9969669 ], [ 72.6668198, 22.9975487 ], [ 72.6666921, 22.9973124 ] ] ] } },
{ "type": "Feature", "properties": { "construction": null, "disused": null, "light_rail": null, "monorail": null, "railway": "station", "station": "subway", "subway": "yes", "id": 1198140891, "timestamp": 1692050890, "version": 1, "tags": { "visible": false, "air_conditioning": "yes", "building": "train_station", "ele": "2", "internet_access": "yes", "layer": "1", "name": "Nirant Cross Roads", "name:gu": "નિરંત ક્રોસ રોડ", "network": "Ahmedabad Metro", "operator": "Gujarat Metro Rail Corporation Limited", "operator:wikidata": "Q113158873", "operator:wikipedia": "en:Gujarat Metro Rail Corporation Limited", "public_transport": "station", "wikipedia": "en:List of Ahmedabad Metro stations" }, "osm_type": "way" }, "geometry": { "type": "Polygon", "coordinates": [ [ [ 72.6581964, 22.9999293 ], [ 72.6594745, 22.9993318 ], [ 72.6595817, 22.9995207 ], [ 72.6582929, 23.0001021 ], [ 72.6581964, 22.9999293 ] ] ] } },
{ "type": "Feature", "properties": { "construction": null, "disused": null, "light_rail": null, "monorail": null, "railway": "station", "station": "subway", "subway": "yes", "id": 1198140892, "timestamp": 1692050890, "version": 1, "tags": { "visible": false, "addr:city": "Ahmedabad", "addr:street": "Vastral", "air_conditioning": "yes", "building": "train_station", "ele": "2", "internet_access": "yes", "layer": "1", "name": "Vastral", "name:gu": "વસ્ત્રાલ", "network": "Ahmedabad Metro", "operator": "Gujarat Metro Rail Corporation Limited", "operator:wikidata": "Q113158873", "operator:wikipedia": "en:Gujarat Metro Rail Corporation Limited", "public_transport": "station", "wikipedia": "en:List of Ahmedabad Metro stations" }, "osm_type": "way" }, "geometry": { "type": "Polygon", "coordinates": [ [ [ 72.6468962, 23.0036688 ], [ 72.6482421, 23.00335 ], [ 72.6482921, 23.003529 ], [ 72.6469463, 23.0038477 ], [ 72.6468962, 23.0036688 ] ] ] } },
{ "type": "Feature", "properties": { "construction": null, "disused": null, "light_rail": null, "monorail": null, "railway": "station", "station": "subway", "subway": "yes", "id": 1198140893, "timestamp": 1692050890, "version": 1, "tags": { "visible": false, "air_conditioning": "yes", "building": "train_station", "ele": "2", "internet_access": "yes", "layer": "1", "name": "Rabari Colony", "name:gu": "રબારી કોલોની", "network": "Ahmedabad Metro", "operator": "Gujarat Metro Rail Corporation Limited", "operator:wikidata": "Q113158873", "operator:wikipedia": "en:Gujarat Metro Rail Corporation Limited", "public_transport": "station", "wikipedia": "en:List of Ahmedabad Metro stations" }, "osm_type": "way" }, "geometry": { "type": "Polygon", "coordinates": [ [ [ 72.6347177, 23.0056156 ], [ 72.636019, 23.0051462 ], [ 72.636095, 23.0053248 ], [ 72.6347937, 23.0057943 ], [ 72.6347177, 23.0056156 ] ] ] } },
{ "type": "Feature", "properties": { "construction": null, "disused": null, "light_rail": null, "monorail": null, "railway": "station", "station": "subway", "subway": "yes", "id": 1198140894, "timestamp": 1733047023, "version": 2, "tags": { "visible": false, "air_conditioning": "yes", "building": "train_station", "ele": "2", "internet_access": "yes", "layer": "1", "name": "Amraiwadi", "name:gu": "અમરીવાડી", "network": "Ahmedabad Metro", "operator": "Gujarat Metro Rail Corporation Limited", "operator:wikidata": "Q113158873", "operator:wikipedia": "en:Gujarat Metro Rail Corporation Limited", "public_transport": "station", "start_date": "2019-05-18", "wikipedia": "en:List of Ahmedabad Metro stations" }, "osm_type": "way" }, "geometry": { "type": "Polygon", "coordinates": [ [ [ 72.62805, 23.007849 ], [ 72.6293111, 23.0073006 ], [ 72.6294059, 23.0074854 ], [ 72.6281449, 23.0080338 ], [ 72.62805, 23.007849 ] ] ] } },
{ "type": "Feature", "properties": { "construction": null, "disused": null, "light_rail": null, "monorail": null, "railway": "station", "station": "subway", "subway": "yes", "id": 1198140895, "timestamp": 1692050890, "version": 1, "tags": { "visible": false, "air_conditioning": "yes", "building": "train_station", "ele": "2", "internet_access": "yes", "layer": "1", "name": "Apparel Park", "name:gu": "એપરલ પાર્ક", "network": "Ahmedabad Metro", "operator": "Gujarat Metro Rail Corporation Limited", "operator:wikidata": "Q113158873", "operator:wikipedia": "en:Gujarat Metro Rail Corporation Limited", "public_transport": "station", "wikipedia": "en:List of Ahmedabad Metro stations" }, "osm_type": "way" }, "geometry": { "type": "Polygon", "coordinates": [ [ [ 72.6173005, 23.0105209 ], [ 72.6187173, 23.0105134 ], [ 72.6187192, 23.0108183 ], [ 72.6173024, 23.0108258 ], [ 72.6173005, 23.0105209 ] ] ] } },
{ "type": "Feature", "properties": { "construction": null, "disused": null, "light_rail": null, "monorail": null, "railway": "station", "station": "subway", "subway": "yes", "id": 1198140896, "timestamp": 1698216124, "version": 2, "tags": { "visible": false, "building": "train_station", "layer": "3", "name": "Paldi", "name:gu": "પાલડી", "operator": "Gujarat Metro Rail Corporation Limited", "operator:wikidata": "Q113158873", "operator:wikipedia": "en:Gujarat Metro Rail Corporation Limited", "public_transport": "station", "wikipedia": "en:List of Ahmedabad Metro stations" }, "osm_type": "way" }, "geometry": { "type": "Polygon", "coordinates": [ [ [ 72.5617307, 23.0183563 ], [ 72.5618022, 23.0181912 ], [ 72.5623831, 23.0183702 ], [ 72.5630846, 23.0186584 ], [ 72.5630189, 23.0188194 ], [ 72.5617307, 23.0183563 ] ] ] } },
{ "type": "Feature", "properties": { "construction": null, "disused": null, "light_rail": null, "monorail": null, "railway": "station", "station": "subway", "subway": "yes", "id": 1317807984, "timestamp": 1727159506, "version": 1, "tags": { "visible": false, "building": "train_station", "layer": "3", "name": "Koba Gam", "name:gu": "કોબા ગામ", "network": "Ahmedabad Metro", "operator": "Gujarat Metro Rail Corporation Limited", "operator:wikidata": "Q113158873", "operator:wikipedia": "en:Gujarat Metro Rail Corporation Limited", "public_transport": "station", "start_date": "2024-09-17", "wikipedia": "en:List of Ahmedabad Metro stations" }, "osm_type": "way" }, "geometry": { "type": "Polygon", "coordinates": [ [ [ 72.643496, 23.1471251 ], [ 72.6436663, 23.1470368 ], [ 72.6443149, 23.1480946 ], [ 72.6441447, 23.1481828 ], [ 72.643496, 23.1471251 ] ] ] } }
]
}
