{
"type": "FeatureCollection",
"name": "water_point",
"crs": { "type": "name", "properties": { "name": "urn:ogc:def:crs:OGC:1.3:CRS84" } },
"features": [
{ "type": "Feature", "properties": { "version": 1, "visible": "False", "lon": 72.5833413, "timestamp": 1598436532, "tags": null, "changeset": 0.0, "lat": 22.9602778, "id": 7846055183, "natural": "wetland", "water": null, "wetland": "pond", "osm_type": "node", "grassland": null, "reef": null }, "geometry": { "type": "Point", "coordinates": [ 72.5833413, 22.9602778 ] } }
]
}
