{
"type": "FeatureCollection",
"name": "cemetery_polygon",
"crs": { "type": "name", "properties": { "name": "urn:ogc:def:crs:OGC:1.3:CRS84" } },
"features": [
{ "type": "Feature", "properties": { "tags": { "visible": false, "religion": "christian" }, "visible": null, "lon": null, "lat": null, "version": 2, "timestamp": 1423221542, "id": 245777095, "changeset": null, "depot": null, "industrial": null, "landuse": "cemetery", "military": null, "residential": null, "osm_type": "way", "basin": null, "construction": null, "farmyard": null, "grass": null, "port": null, "railway": null }, "geometry": { "type": "Polygon", "coordinates": [ [ [ 72.5998654, 23.0014187 ], [ 72.6003235, 23.0006425 ], [ 72.6006411, 23.000766 ], [ 72.6006366, 23.0014158 ], [ 72.5998654, 23.0014187 ] ] ] } },
{ "type": "Feature", "properties": { "tags": { "visible": false, "name": "Muslim Cemetery", "religion": "muslim" }, "visible": null, "lon": null, "lat": null, "version": 3, "timestamp": 1600364147, "id": 322227653, "changeset": null, "depot": null, "industrial": null, "landuse": "cemetery", "military": null, "residential": null, "osm_type": "way", "basin": null, "construction": null, "farmyard": null, "grass": null, "port": null, "railway": null }, "geometry": { "type": "Polygon", "coordinates": [ [ [ 72.5905232, 23.0439736 ], [ 72.5909212, 23.0438171 ], [ 72.5910705, 23.0441491 ], [ 72.5914851, 23.0440308 ], [ 72.5915721, 23.0440995 ], [ 72.591937, 23.0447938 ], [ 72.5921899, 23.0452554 ], [ 72.5922811, 23.045347 ], [ 72.5929403, 23.0453928 ], [ 72.5934295, 23.0453966 ], [ 72.593529, 23.0453928 ], [ 72.5936244, 23.0454424 ], [ 72.5937695, 23.0457285 ], [ 72.5939809, 23.0461367 ], [ 72.5944619, 23.0469837 ], [ 72.5932347, 23.0490629 ], [ 72.5931981, 23.0491306 ], [ 72.5931959, 23.0490051 ], [ 72.5918277, 23.0466475 ], [ 72.5915707, 23.0462431 ], [ 72.5910939, 23.0451901 ], [ 72.5907415, 23.0443317 ], [ 72.5905232, 23.0439736 ] ] ] } },
{ "type": "Feature", "properties": { "tags": { "visible": false }, "visible": null, "lon": null, "lat": null, "version": 3, "timestamp": 1731468767, "id": 326493241, "changeset": null, "depot": null, "industrial": null, "landuse": "cemetery", "military": null, "residential": null, "osm_type": "way", "basin": null, "construction": null, "farmyard": null, "grass": null, "port": null, "railway": null }, "geometry": { "type": "Polygon", "coordinates": [ [ [ 72.5265817, 22.9979518 ], [ 72.5265867, 22.9972408 ], [ 72.5264644, 22.9971399 ], [ 72.526523, 22.9969404 ], [ 72.5268799, 22.9970577 ], [ 72.5273516, 22.9971328 ], [ 72.5272929, 22.9979495 ], [ 72.5265817, 22.9979518 ] ] ] } },
{ "type": "Feature", "properties": { "tags": { "visible": false }, "visible": null, "lon": null, "lat": null, "version": 1, "timestamp": 1524704438, "id": 583602822, "changeset": null, "depot": null, "industrial": null, "landuse": "cemetery", "military": null, "residential": null, "osm_type": "way", "basin": null, "construction": null, "farmyard": null, "grass": null, "port": null, "railway": null }, "geometry": { "type": "Polygon", "coordinates": [ [ [ 72.5726495, 23.1775968 ], [ 72.5731459, 23.1773428 ], [ 72.5732318, 23.1775081 ], [ 72.5731956, 23.1777571 ], [ 72.5730373, 23.1778015 ], [ 72.5726546, 23.1777187 ], [ 72.5726495, 23.1775968 ] ] ] } },
{ "type": "Feature", "properties": { "tags": { "visible": false, "name": "Christian cemetery", "religion": "christian" }, "visible": null, "lon": null, "lat": null, "version": 3, "timestamp": 1736182093, "id": 1306574639, "changeset": null, "depot": null, "industrial": null, "landuse": "cemetery", "military": null, "residential": null, "osm_type": "way", "basin": null, "construction": null, "farmyard": null, "grass": null, "port": null, "railway": null }, "geometry": { "type": "Polygon", "coordinates": [ [ [ 72.5788381, 23.0132401 ], [ 72.578748, 23.0131988 ], [ 72.5785377, 23.0131793 ], [ 72.5785249, 23.0128892 ], [ 72.5791628, 23.012733 ], [ 72.5792632, 23.0130208 ], [ 72.5791146, 23.0131167 ], [ 72.5790397, 23.0131093 ], [ 72.5790333, 23.0131761 ], [ 72.5788381, 23.0132401 ] ] ] } }
]
}
