{
"type": "FeatureCollection",
"name": "farmland_polygon",
"crs": { "type": "name", "properties": { "name": "urn:ogc:def:crs:OGC:1.3:CRS84" } },
"features": [
{ "type": "Feature", "properties": { "tags": { "visible": false }, "visible": null, "lon": null, "lat": null, "version": 1, "timestamp": 1508508120, "id": 533807094, "changeset": null, "depot": null, "industrial": null, "landuse": "farmland", "military": null, "residential": null, "osm_type": "way", "basin": null, "construction": null, "farmyard": null, "grass": null, "port": null, "railway": null }, "geometry": { "type": "Polygon", "coordinates": [ [ [ 72.556141, 22.9842738 ], [ 72.5562966, 22.983454 ], [ 72.5563931, 22.9829404 ], [ 72.5562054, 22.9822095 ], [ 72.5561947, 22.9819823 ], [ 72.5578362, 22.9832021 ], [ 72.5582385, 22.9834589 ], [ 72.5585496, 22.9836812 ], [ 72.5583458, 22.984338 ], [ 72.5581902, 22.9851282 ], [ 72.5575197, 22.9849158 ], [ 72.5568505, 22.9846652 ], [ 72.5562215, 22.984338 ], [ 72.556141, 22.9842738 ] ] ] } },
{ "type": "Feature", "properties": { "tags": { "visible": false }, "visible": null, "lon": null, "lat": null, "version": 1, "timestamp": 1508508121, "id": 533807095, "changeset": null, "depot": null, "industrial": null, "landuse": "farmland", "military": null, "residential": null, "osm_type": "way", "basin": null, "construction": null, "farmyard": null, "grass": null, "port": null, "railway": null }, "geometry": { "type": "Polygon", "coordinates": [ [ [ 72.5521982, 22.9828515 ], [ 72.5530028, 22.9810242 ], [ 72.5561786, 22.982565 ], [ 72.5562322, 22.9827922 ], [ 72.5562644, 22.9830688 ], [ 72.5561893, 22.983533 ], [ 72.556082, 22.984175 ], [ 72.5559747, 22.9841948 ], [ 72.5554705, 22.9839874 ], [ 72.5534105, 22.9833157 ], [ 72.5526273, 22.9830392 ], [ 72.5521982, 22.9828515 ] ] ] } },
{ "type": "Feature", "properties": { "tags": { "visible": false, "name": "Janvi Farm" }, "visible": null, "lon": null, "lat": null, "version": 1, "timestamp": 1559554642, "id": 694242277, "changeset": null, "depot": null, "industrial": null, "landuse": "farmland", "military": null, "residential": null, "osm_type": "way", "basin": null, "construction": null, "farmyard": null, "grass": null, "port": null, "railway": null }, "geometry": { "type": "Polygon", "coordinates": [ [ [ 72.6448022, 23.1608505 ], [ 72.6447087, 23.1602001 ], [ 72.645725, 23.1600992 ], [ 72.6457047, 23.1599011 ], [ 72.6462373, 23.159845 ], [ 72.6463308, 23.160716 ], [ 72.6448022, 23.1608505 ] ] ] } },
{ "type": "Feature", "properties": { "tags": { "visible": false, "addr:city": "Raysan", "addr:postcode": "382421", "name": "Priya Farm" }, "visible": null, "lon": null, "lat": null, "version": 1, "timestamp": 1578398887, "id": 761459676, "changeset": null, "depot": null, "industrial": null, "landuse": "farmland", "military": null, "residential": null, "osm_type": "way", "basin": null, "construction": null, "farmyard": null, "grass": null, "port": null, "railway": null }, "geometry": { "type": "Polygon", "coordinates": [ [ [ 72.641553, 23.1672187 ], [ 72.6428943, 23.1672973 ], [ 72.6428817, 23.1688299 ], [ 72.6416163, 23.1688939 ], [ 72.641553, 23.1672187 ] ] ] } },
{ "type": "Feature", "properties": { "tags": { "visible": false }, "visible": null, "lon": null, "lat": null, "version": 1, "timestamp": 1587580403, "id": 794910716, "changeset": null, "depot": null, "industrial": null, "landuse": "farmland", "military": null, "residential": null, "osm_type": "way", "basin": null, "construction": null, "farmyard": null, "grass": null, "port": null, "railway": null }, "geometry": { "type": "Polygon", "coordinates": [ [ [ 72.5560025, 22.9800418 ], [ 72.5557664, 22.978938 ], [ 72.5558979, 22.9788788 ], [ 72.5559569, 22.9789084 ], [ 72.5559649, 22.9788615 ], [ 72.5561527, 22.978822 ], [ 72.5562305, 22.9788491 ], [ 72.5565282, 22.9799381 ], [ 72.5560025, 22.9800418 ] ] ] } },
{ "type": "Feature", "properties": { "tags": { "visible": false }, "visible": null, "lon": null, "lat": null, "version": 1, "timestamp": 1587580403, "id": 794910717, "changeset": null, "depot": null, "industrial": null, "landuse": "farmland", "military": null, "residential": null, "osm_type": "way", "basin": null, "construction": null, "farmyard": null, "grass": null, "port": null, "railway": null }, "geometry": { "type": "Polygon", "coordinates": [ [ [ 72.5558013, 22.9800122 ], [ 72.5555519, 22.9789998 ], [ 72.5556645, 22.9789602 ], [ 72.5556967, 22.9789701 ], [ 72.5557503, 22.9789479 ], [ 72.5559569, 22.9799431 ], [ 72.5558871, 22.9799554 ], [ 72.5558791, 22.9799924 ], [ 72.5558013, 22.9800122 ] ] ] } },
{ "type": "Feature", "properties": { "tags": { "visible": false }, "visible": null, "lon": null, "lat": null, "version": 1, "timestamp": 1587580403, "id": 794910718, "changeset": null, "depot": null, "industrial": null, "landuse": "farmland", "military": null, "residential": null, "osm_type": "way", "basin": null, "construction": null, "farmyard": null, "grass": null, "port": null, "railway": null }, "geometry": { "type": "Polygon", "coordinates": [ [ [ 72.5545782, 22.9804591 ], [ 72.5544414, 22.9804221 ], [ 72.5544092, 22.9803678 ], [ 72.5543556, 22.9803826 ], [ 72.5542403, 22.9802567 ], [ 72.5541517, 22.98019 ], [ 72.5542295, 22.9800887 ], [ 72.5543314, 22.9800542 ], [ 72.5545219, 22.9800073 ], [ 72.5545353, 22.9800369 ], [ 72.554994, 22.9799011 ], [ 72.5551093, 22.9803703 ], [ 72.5545782, 22.9804591 ] ] ] } },
{ "type": "Feature", "properties": { "tags": { "visible": false }, "visible": null, "lon": null, "lat": null, "version": 1, "timestamp": 1587580403, "id": 794910719, "changeset": null, "depot": null, "industrial": null, "landuse": "farmland", "military": null, "residential": null, "osm_type": "way", "basin": null, "construction": null, "farmyard": null, "grass": null, "port": null, "railway": null }, "geometry": { "type": "Polygon", "coordinates": [ [ [ 72.5543261, 22.980032 ], [ 72.5541115, 22.979506 ], [ 72.5545058, 22.9793973 ], [ 72.5547177, 22.9799529 ], [ 72.5545433, 22.9799974 ], [ 72.5545299, 22.9799702 ], [ 72.5543261, 22.980032 ] ] ] } },
{ "type": "Feature", "properties": { "tags": { "visible": false }, "visible": null, "lon": null, "lat": null, "version": 1, "timestamp": 1587580403, "id": 794910720, "changeset": null, "depot": null, "industrial": null, "landuse": "farmland", "military": null, "residential": null, "osm_type": "way", "basin": null, "construction": null, "farmyard": null, "grass": null, "port": null, "railway": null }, "geometry": { "type": "Polygon", "coordinates": [ [ [ 72.5549001, 22.9794862 ], [ 72.5548438, 22.9791726 ], [ 72.5552005, 22.979138 ], [ 72.5552541, 22.9794418 ], [ 72.5549001, 22.9794862 ] ] ] } },
{ "type": "Feature", "properties": { "tags": { "visible": false }, "visible": null, "lon": null, "lat": null, "version": 1, "timestamp": 1587580403, "id": 794910721, "changeset": null, "depot": null, "industrial": null, "landuse": "farmland", "military": null, "residential": null, "osm_type": "way", "basin": null, "construction": null, "farmyard": null, "grass": null, "port": null, "railway": null }, "geometry": { "type": "Polygon", "coordinates": [ [ [ 72.5544173, 22.9793998 ], [ 72.554259, 22.9786689 ], [ 72.5547016, 22.9785726 ], [ 72.5547928, 22.9790812 ], [ 72.5548303, 22.9793134 ], [ 72.5544173, 22.9793998 ] ] ] } },
{ "type": "Feature", "properties": { "tags": { "visible": false }, "visible": null, "lon": null, "lat": null, "version": 1, "timestamp": 1587580403, "id": 794910722, "changeset": null, "depot": null, "industrial": null, "landuse": "farmland", "military": null, "residential": null, "osm_type": "way", "basin": null, "construction": null, "farmyard": null, "grass": null, "port": null, "railway": null }, "geometry": { "type": "Polygon", "coordinates": [ [ [ 72.5547311, 22.9799381 ], [ 72.5546935, 22.9798418 ], [ 72.5549591, 22.9797677 ], [ 72.5549805, 22.9798714 ], [ 72.5547311, 22.9799381 ] ] ] } },
{ "type": "Feature", "properties": { "tags": { "visible": false }, "visible": null, "lon": null, "lat": null, "version": 1, "timestamp": 1587580403, "id": 794910723, "changeset": null, "depot": null, "industrial": null, "landuse": "farmland", "military": null, "residential": null, "osm_type": "way", "basin": null, "construction": null, "farmyard": null, "grass": null, "port": null, "railway": null }, "geometry": { "type": "Polygon", "coordinates": [ [ [ 72.5546935, 22.9798418 ], [ 72.5546292, 22.9796665 ], [ 72.5548947, 22.979585 ], [ 72.554951, 22.9797529 ], [ 72.5546935, 22.9798418 ] ] ] } },
{ "type": "Feature", "properties": { "tags": { "visible": false }, "visible": null, "lon": null, "lat": null, "version": 1, "timestamp": 1587580403, "id": 794910724, "changeset": null, "depot": null, "industrial": null, "landuse": "farmland", "military": null, "residential": null, "osm_type": "way", "basin": null, "construction": null, "farmyard": null, "grass": null, "port": null, "railway": null }, "geometry": { "type": "Polygon", "coordinates": [ [ [ 72.5548759, 22.9795751 ], [ 72.5546265, 22.9796467 ], [ 72.5545809, 22.9795233 ], [ 72.5548411, 22.9794467 ], [ 72.5548759, 22.9795751 ] ] ] } },
{ "type": "Feature", "properties": { "tags": { "visible": false }, "visible": null, "lon": null, "lat": null, "version": 1, "timestamp": 1587580403, "id": 794910725, "changeset": null, "depot": null, "industrial": null, "landuse": "farmland", "military": null, "residential": null, "osm_type": "way", "basin": null, "construction": null, "farmyard": null, "grass": null, "port": null, "railway": null }, "geometry": { "type": "Polygon", "coordinates": [ [ [ 72.5545809, 22.979506 ], [ 72.554538, 22.9794072 ], [ 72.554833, 22.9793381 ], [ 72.5548598, 22.9794294 ], [ 72.5545809, 22.979506 ] ] ] } },
{ "type": "Feature", "properties": { "tags": { "visible": false }, "visible": null, "lon": null, "lat": null, "version": 1, "timestamp": 1723102804, "id": 1306307806, "changeset": null, "depot": null, "industrial": null, "landuse": "farmland", "military": null, "residential": null, "osm_type": "way", "basin": null, "construction": null, "farmyard": null, "grass": null, "port": null, "railway": null }, "geometry": { "type": "Polygon", "coordinates": [ [ [ 72.4954585, 23.0572995 ], [ 72.4955617, 23.0568897 ], [ 72.4955457, 23.0563035 ], [ 72.4962553, 23.0563051 ], [ 72.4964925, 23.0569499 ], [ 72.4965847, 23.0574015 ], [ 72.4961182, 23.057437 ], [ 72.4959832, 23.0575165 ], [ 72.4959657, 23.057509 ], [ 72.4958315, 23.0574248 ], [ 72.4954585, 23.0572995 ] ] ] } },
{ "type": "Feature", "properties": { "tags": { "visible": false }, "visible": null, "lon": null, "lat": null, "version": 1, "timestamp": 1723102804, "id": 1306307807, "changeset": null, "depot": null, "industrial": null, "landuse": "farmland", "military": null, "residential": null, "osm_type": "way", "basin": null, "construction": null, "farmyard": null, "grass": null, "port": null, "railway": null }, "geometry": { "type": "Polygon", "coordinates": [ [ [ 72.4914829, 23.0534419 ], [ 72.4921977, 23.0535921 ], [ 72.4936551, 23.054196 ], [ 72.4939724, 23.0566681 ], [ 72.489736, 23.0547935 ], [ 72.4896774, 23.05473 ], [ 72.4890088, 23.054556 ], [ 72.489129, 23.0538246 ], [ 72.4893077, 23.0538629 ], [ 72.4893878, 23.0531867 ], [ 72.4901766, 23.0534858 ], [ 72.4913258, 23.0535574 ], [ 72.4914829, 23.0534419 ] ] ] } },
{ "type": "Feature", "properties": { "tags": { "visible": false }, "visible": null, "lon": null, "lat": null, "version": 1, "timestamp": 1730099378, "id": 1328734059, "changeset": null, "depot": null, "industrial": null, "landuse": "farmland", "military": null, "residential": null, "osm_type": "way", "basin": null, "construction": null, "farmyard": null, "grass": null, "port": null, "railway": null }, "geometry": { "type": "Polygon", "coordinates": [ [ [ 72.6003846, 23.1234353 ], [ 72.6004054, 23.1233637 ], [ 72.6004059, 23.1230732 ], [ 72.6004242, 23.1229833 ], [ 72.6005291, 23.1226336 ], [ 72.6017572, 23.1229086 ], [ 72.6017235, 23.1230398 ], [ 72.6016581, 23.1232165 ], [ 72.6014561, 23.1236828 ], [ 72.6003846, 23.1234353 ] ] ] } },
{ "type": "Feature", "properties": { "tags": { "visible": false }, "visible": null, "lon": null, "lat": null, "version": 3, "timestamp": 1730108199, "id": 1328734061, "changeset": null, "depot": null, "industrial": null, "landuse": "farmland", "military": null, "residential": null, "osm_type": "way", "basin": null, "construction": null, "farmyard": null, "grass": null, "port": null, "railway": null }, "geometry": { "type": "Polygon", "coordinates": [ [ [ 72.5992936, 23.1227475 ], [ 72.5987788, 23.1226331 ], [ 72.5989483, 23.1219056 ], [ 72.599117, 23.1219375 ], [ 72.5994346, 23.1219976 ], [ 72.5995819, 23.1214603 ], [ 72.5995898, 23.1214315 ], [ 72.600733, 23.1217898 ], [ 72.6005741, 23.1221823 ], [ 72.6004394, 23.1225867 ], [ 72.6003027, 23.1230585 ], [ 72.5992936, 23.1227475 ] ] ] } },
{ "type": "Feature", "properties": { "tags": { "visible": false, "layer": "1", "name": "Lulu Mall Ahmedabad" }, "visible": null, "lon": null, "lat": null, "version": 4, "timestamp": 1734449797, "id": 1328753830, "changeset": null, "depot": null, "industrial": null, "landuse": "farmland", "military": null, "residential": null, "osm_type": "way", "basin": null, "construction": null, "farmyard": null, "grass": null, "port": null, "railway": null }, "geometry": { "type": "Polygon", "coordinates": [ [ [ 72.6007196, 23.1246885 ], [ 72.6004764, 23.1247994 ], [ 72.6003865, 23.1244609 ], [ 72.5999737, 23.1243827 ], [ 72.599765, 23.1247291 ], [ 72.5987746, 23.1244684 ], [ 72.5978409, 23.1242551 ], [ 72.5984016, 23.1225492 ], [ 72.5987788, 23.1226331 ], [ 72.5992936, 23.1227475 ], [ 72.6003027, 23.1230585 ], [ 72.6003188, 23.1233374 ], [ 72.6002915, 23.1234086 ], [ 72.6003846, 23.1234353 ], [ 72.6014561, 23.1236828 ], [ 72.6014119, 23.1240191 ], [ 72.6008898, 23.1239036 ], [ 72.6006749, 23.1245314 ], [ 72.6007196, 23.1246885 ] ] ] } }
]
}
