{
"type": "FeatureCollection",
"name": "forest_polygon",
"crs": { "type": "name", "properties": { "name": "urn:ogc:def:crs:OGC:1.3:CRS84" } },
"features": [
{ "type": "Feature", "properties": { "tags": { "visible": false, "addr:city": "Gandhinagar", "addr:postcode": "382007", "name": "Indroda Nature Park", "tourism": "zoo", "wikidata": "Q6027142", "wikimedia_commons": "Category:Indroda Dinosaur and Fossil Park", "wikipedia": "en:Indroda Dinosaur and Fossil Park" }, "visible": null, "lon": null, "lat": null, "version": 8, "timestamp": 1731660332, "id": 244342863, "changeset": null, "depot": null, "industrial": null, "landuse": "forest", "military": null, "residential": null, "osm_type": "way", "basin": null, "construction": null, "farmyard": null, "grass": null, "port": null, "railway": null }, "geometry": { "type": "Polygon", "coordinates": [ [ [ 72.6426251, 23.1963391 ], [ 72.643001, 23.1908916 ], [ 72.6476518, 23.1913631 ], [ 72.6479271, 23.1863524 ], [ 72.6532888, 23.1854618 ], [ 72.6561699, 23.1857544 ], [ 72.6563837, 23.1869023 ], [ 72.6570017, 23.188788 ], [ 72.6579459, 23.1914862 ], [ 72.6572193, 23.1916222 ], [ 72.6584286, 23.1946792 ], [ 72.6581478, 23.1947484 ], [ 72.6539392, 23.1959248 ], [ 72.6550061, 23.1992059 ], [ 72.6535544, 23.2001456 ], [ 72.6502806, 23.1986702 ], [ 72.6449867, 23.1969211 ], [ 72.6426251, 23.1963391 ] ] ] } },
{ "type": "Feature", "properties": { "tags": { "visible": false, "description": "Explore the natural nature instead of artificial one on the bank of Sabarmati river, but be aware it might scare you up. Full of neelgay, monkeys, peacocks, rare birds accompied by manmade structures like camp site, amphitheatre, butterfly park.", "name": "Aranya Udhyan", "name:en": "Aranya Park", "opening_hours": "Tu-Su 08:30-17:30", "operator": "GEER Foundation" }, "visible": null, "lon": null, "lat": null, "version": 4, "timestamp": 1666010238, "id": 338752478, "changeset": null, "depot": null, "industrial": null, "landuse": "forest", "military": null, "residential": null, "osm_type": "way", "basin": null, "construction": null, "farmyard": null, "grass": null, "port": null, "railway": null }, "geometry": { "type": "Polygon", "coordinates": [ [ [ 72.6632846, 23.1876342 ], [ 72.6662976, 23.1873014 ], [ 72.6721884, 23.1865466 ], [ 72.6751857, 23.1863597 ], [ 72.6758078, 23.1876402 ], [ 72.6765078, 23.1889 ], [ 72.6779835, 23.1913481 ], [ 72.679009, 23.1924744 ], [ 72.6801666, 23.1937733 ], [ 72.6805745, 23.194464 ], [ 72.6837425, 23.1999221 ], [ 72.6767759, 23.2031492 ], [ 72.6744463, 23.2029322 ], [ 72.6740835, 23.2027648 ], [ 72.6736593, 23.2026092 ], [ 72.6734575, 23.2025246 ], [ 72.6734297, 23.2021231 ], [ 72.6732825, 23.2017274 ], [ 72.6732092, 23.201701 ], [ 72.6726513, 23.2015432 ], [ 72.6724271, 23.2012977 ], [ 72.6721696, 23.2002263 ], [ 72.6709108, 23.2003603 ], [ 72.6700035, 23.1977621 ], [ 72.6694026, 23.197841 ], [ 72.6691934, 23.1970175 ], [ 72.6700517, 23.1968745 ], [ 72.6700464, 23.1967069 ], [ 72.6691076, 23.1967414 ], [ 72.6688611, 23.1957284 ], [ 72.668348, 23.1936531 ], [ 72.6636341, 23.1951687 ], [ 72.663299, 23.1952764 ], [ 72.6622712, 23.1940961 ], [ 72.6615961, 23.1926788 ], [ 72.6613365, 23.1921336 ], [ 72.6608173, 23.1900159 ], [ 72.6607515, 23.1888486 ], [ 72.6606836, 23.1876714 ], [ 72.6616045, 23.1877241 ], [ 72.6632846, 23.1876342 ] ] ] } },
{ "type": "Feature", "properties": { "tags": { "visible": false }, "visible": null, "lon": null, "lat": null, "version": 2, "timestamp": 1733826834, "id": 1163653151, "changeset": null, "depot": null, "industrial": null, "landuse": "forest", "military": null, "residential": null, "osm_type": "way", "basin": null, "construction": null, "farmyard": null, "grass": null, "port": null, "railway": null }, "geometry": { "type": "Polygon", "coordinates": [ [ [ 72.5360719, 23.0352379 ], [ 72.5364871, 23.0359552 ], [ 72.5368687, 23.0367413 ], [ 72.5365623, 23.0369456 ], [ 72.5364672, 23.0367826 ], [ 72.5360096, 23.037043 ], [ 72.5358627, 23.0371471 ], [ 72.5355583, 23.0365892 ], [ 72.5350377, 23.0367864 ], [ 72.5348489, 23.0364389 ], [ 72.5343334, 23.0365469 ], [ 72.5338435, 23.0367864 ], [ 72.5336649, 23.0364953 ], [ 72.5340476, 23.0362839 ], [ 72.5341293, 23.0358377 ], [ 72.533818, 23.0353023 ], [ 72.5344028, 23.0350147 ], [ 72.5346624, 23.0356475 ], [ 72.5354898, 23.0354479 ], [ 72.5360719, 23.0352379 ] ] ] } },
{ "type": "Feature", "properties": { "tags": { "visible": false }, "visible": null, "lon": null, "lat": null, "version": 1, "timestamp": 1730099378, "id": 1328734058, "changeset": null, "depot": null, "industrial": null, "landuse": "forest", "military": null, "residential": null, "osm_type": "way", "basin": null, "construction": null, "farmyard": null, "grass": null, "port": null, "railway": null }, "geometry": { "type": "Polygon", "coordinates": [ [ [ 72.6013545, 23.1244108 ], [ 72.6007196, 23.1246885 ], [ 72.6006749, 23.1245314 ], [ 72.6008898, 23.1239036 ], [ 72.6014119, 23.1240191 ], [ 72.6013663, 23.1243302 ], [ 72.6013545, 23.1244108 ] ] ] } },
{ "type": "Feature", "properties": { "tags": { "visible": false }, "visible": null, "lon": null, "lat": null, "version": 1, "timestamp": 1730099378, "id": 1328734060, "changeset": null, "depot": null, "industrial": null, "landuse": "forest", "military": null, "residential": null, "osm_type": "way", "basin": null, "construction": null, "farmyard": null, "grass": null, "port": null, "railway": null }, "geometry": { "type": "Polygon", "coordinates": [ [ [ 72.6013663, 23.1243302 ], [ 72.6014119, 23.1240191 ], [ 72.6014561, 23.1236828 ], [ 72.6016581, 23.1232165 ], [ 72.6017235, 23.1230398 ], [ 72.6017572, 23.1229086 ], [ 72.6017796, 23.1228105 ], [ 72.6036454, 23.1234553 ], [ 72.6026214, 23.1238797 ], [ 72.6013545, 23.1244108 ], [ 72.6013663, 23.1243302 ] ] ] } }
]
}
