{
"type": "FeatureCollection",
"name": "recreation_ground_polygon",
"crs": { "type": "name", "properties": { "name": "urn:ogc:def:crs:OGC:1.3:CRS84" } },
"features": [
{ "type": "Feature", "properties": { "tags": { "visible": false, "name": "Back Fields" }, "visible": null, "lon": null, "lat": null, "version": 2, "timestamp": 1286629307, "id": 80831917, "changeset": null, "depot": null, "industrial": null, "landuse": "recreation_ground", "military": null, "residential": null, "osm_type": "way", "basin": null, "construction": null, "farmyard": null, "grass": null, "port": null, "railway": null }, "geometry": { "type": "Polygon", "coordinates": [ [ [ 72.5711752, 23.0113766 ], [ 72.5709399, 23.0109848 ], [ 72.5715112, 23.0107425 ], [ 72.5717072, 23.0111936 ], [ 72.5711752, 23.0113766 ] ] ] } },
{ "type": "Feature", "properties": { "tags": { "visible": false, "name": "LG Ground" }, "visible": null, "lon": null, "lat": null, "version": 3, "timestamp": 1423224094, "id": 245173457, "changeset": null, "depot": null, "industrial": null, "landuse": "recreation_ground", "military": null, "residential": null, "osm_type": "way", "basin": null, "construction": null, "farmyard": null, "grass": null, "port": null, "railway": null }, "geometry": { "type": "Polygon", "coordinates": [ [ [ 72.6071552, 23.0010361 ], [ 72.6070471, 23.0010125 ], [ 72.6068854, 23.0009726 ], [ 72.6067558, 23.000933 ], [ 72.6066371, 23.0008762 ], [ 72.6065178, 23.0008014 ], [ 72.6064165, 23.0007197 ], [ 72.6062971, 23.0005924 ], [ 72.6062295, 23.0004774 ], [ 72.606181, 23.0003542 ], [ 72.6061507, 23.0001906 ], [ 72.6061333, 23.0000486 ], [ 72.6072046, 23.0000476 ], [ 72.6071757, 23.0004994 ], [ 72.6071552, 23.0010361 ] ] ] } },
{ "type": "Feature", "properties": { "tags": { "visible": false, "name": "Mukti Medan" }, "visible": null, "lon": null, "lat": null, "version": 2, "timestamp": 1415433489, "id": 245777093, "changeset": null, "depot": null, "industrial": null, "landuse": "recreation_ground", "military": null, "residential": null, "osm_type": "way", "basin": null, "construction": null, "farmyard": null, "grass": null, "port": null, "railway": null }, "geometry": { "type": "Polygon", "coordinates": [ [ [ 72.6056707, 22.998492 ], [ 72.605547, 22.99842 ], [ 72.6054949, 22.9982402 ], [ 72.605573, 22.9981262 ], [ 72.6056837, 22.9980963 ], [ 72.6056707, 22.998492 ] ] ] } },
{ "type": "Feature", "properties": { "tags": { "visible": false }, "visible": null, "lon": null, "lat": null, "version": 2, "timestamp": 1427443539, "id": 325014563, "changeset": null, "depot": null, "industrial": null, "landuse": "recreation_ground", "military": null, "residential": null, "osm_type": "way", "basin": null, "construction": null, "farmyard": null, "grass": null, "port": null, "railway": null }, "geometry": { "type": "Polygon", "coordinates": [ [ [ 72.5809569, 23.023661 ], [ 72.5813432, 23.0236681 ], [ 72.5813352, 23.0240392 ], [ 72.5809488, 23.024032 ], [ 72.5809569, 23.023661 ] ] ] } },
{ "type": "Feature", "properties": { "tags": { "visible": false }, "visible": null, "lon": null, "lat": null, "version": 2, "timestamp": 1427443539, "id": 325014564, "changeset": null, "depot": null, "industrial": null, "landuse": "recreation_ground", "military": null, "residential": null, "osm_type": "way", "basin": null, "construction": null, "farmyard": null, "grass": null, "port": null, "railway": null }, "geometry": { "type": "Polygon", "coordinates": [ [ [ 72.5811959, 23.0241873 ], [ 72.5814384, 23.0241926 ], [ 72.5814341, 23.0243625 ], [ 72.5811916, 23.0243572 ], [ 72.5811959, 23.0241873 ] ] ] } },
{ "type": "Feature", "properties": { "tags": { "visible": false, "name": "GMDC Ground" }, "visible": null, "lon": null, "lat": null, "version": 1, "timestamp": 1424090478, "id": 328554535, "changeset": null, "depot": null, "industrial": null, "landuse": "recreation_ground", "military": null, "residential": null, "osm_type": "way", "basin": null, "construction": null, "farmyard": null, "grass": null, "port": null, "railway": null }, "geometry": { "type": "Polygon", "coordinates": [ [ [ 72.5331759, 23.0387502 ], [ 72.5334947, 23.0385998 ], [ 72.5356876, 23.0375677 ], [ 72.5360352, 23.0379647 ], [ 72.5360729, 23.0379415 ], [ 72.5369189, 23.0374135 ], [ 72.5366634, 23.037059 ], [ 72.5369649, 23.0369241 ], [ 72.5382339, 23.0394908 ], [ 72.5385228, 23.0401074 ], [ 72.5387825, 23.0406547 ], [ 72.5390044, 23.0410709 ], [ 72.5391803, 23.0413175 ], [ 72.5393478, 23.041541 ], [ 72.5400849, 23.0425238 ], [ 72.5385396, 23.0433061 ], [ 72.5383679, 23.0430363 ], [ 72.5382841, 23.0428937 ], [ 72.5379365, 23.0423812 ], [ 72.537702, 23.0421345 ], [ 72.5372413, 23.0418956 ], [ 72.5369984, 23.0417684 ], [ 72.5361525, 23.0414139 ], [ 72.5358007, 23.0412289 ], [ 72.5349463, 23.0406161 ], [ 72.5345611, 23.0402616 ], [ 72.5336816, 23.039406 ], [ 72.5334471, 23.0391632 ], [ 72.5331759, 23.0387502 ] ] ] } },
{ "type": "Feature", "properties": { "tags": { "visible": false }, "visible": null, "lon": null, "lat": null, "version": 2, "timestamp": 1641790759, "id": 368569081, "changeset": null, "depot": null, "industrial": null, "landuse": "recreation_ground", "military": null, "residential": null, "osm_type": "way", "basin": null, "construction": null, "farmyard": null, "grass": null, "port": null, "railway": null }, "geometry": { "type": "Polygon", "coordinates": [ [ [ 72.5119853, 23.0086013 ], [ 72.5120602, 23.0085334 ], [ 72.5122401, 23.0086064 ], [ 72.51231, 23.0086391 ], [ 72.5122206, 23.0087354 ], [ 72.5121635, 23.0087896 ], [ 72.5120568, 23.0086769 ], [ 72.5119853, 23.0086013 ] ] ] } },
{ "type": "Feature", "properties": { "tags": { "visible": false }, "visible": null, "lon": null, "lat": null, "version": 2, "timestamp": 1640905714, "id": 487820090, "changeset": null, "depot": null, "industrial": null, "landuse": "recreation_ground", "military": null, "residential": null, "osm_type": "way", "basin": null, "construction": null, "farmyard": null, "grass": null, "port": null, "railway": null }, "geometry": { "type": "Polygon", "coordinates": [ [ [ 72.4934161, 23.0403384 ], [ 72.4933505, 23.0399464 ], [ 72.493412, 23.0399377 ], [ 72.4934776, 23.0403297 ], [ 72.4934161, 23.0403384 ] ] ] } },
{ "type": "Feature", "properties": { "tags": { "visible": false }, "visible": null, "lon": null, "lat": null, "version": 2, "timestamp": 1640905714, "id": 487820096, "changeset": null, "depot": null, "industrial": null, "landuse": "recreation_ground", "military": null, "residential": null, "osm_type": "way", "basin": null, "construction": null, "farmyard": null, "grass": null, "port": null, "railway": null }, "geometry": { "type": "Polygon", "coordinates": [ [ [ 72.4934974, 23.0410878 ], [ 72.4935208, 23.0410002 ], [ 72.4935644, 23.0409533 ], [ 72.4935932, 23.0409249 ], [ 72.4936402, 23.0409206 ], [ 72.4936965, 23.0409182 ], [ 72.4937696, 23.0409268 ], [ 72.4938025, 23.0409336 ], [ 72.4938246, 23.0409515 ], [ 72.4938186, 23.0409873 ], [ 72.4937797, 23.0410335 ], [ 72.493732, 23.0410749 ], [ 72.4936871, 23.041102 ], [ 72.4936529, 23.0411223 ], [ 72.493555, 23.0411236 ], [ 72.4935175, 23.0411273 ], [ 72.4934974, 23.0410878 ] ] ] } },
{ "type": "Feature", "properties": { "tags": { "visible": false, "name": "EVENT GROUND, AMC" }, "visible": null, "lon": null, "lat": null, "version": 4, "timestamp": 1716804005, "id": 526398747, "changeset": null, "depot": null, "industrial": null, "landuse": "recreation_ground", "military": null, "residential": null, "osm_type": "way", "basin": null, "construction": null, "farmyard": null, "grass": null, "port": null, "railway": null }, "geometry": { "type": "Polygon", "coordinates": [ [ [ 72.5733412, 23.0160978 ], [ 72.573331, 23.0159092 ], [ 72.5732638, 23.0159077 ], [ 72.5732621, 23.0157715 ], [ 72.5732066, 23.0151834 ], [ 72.5732604, 23.0151788 ], [ 72.573257, 23.015154 ], [ 72.5733562, 23.0151447 ], [ 72.5733555, 23.0151335 ], [ 72.5733495, 23.015038 ], [ 72.5732604, 23.0150472 ], [ 72.5732469, 23.0149497 ], [ 72.5732217, 23.0149528 ], [ 72.5732079, 23.0148524 ], [ 72.5732359, 23.0148477 ], [ 72.5731824, 23.0145545 ], [ 72.5731442, 23.0145592 ], [ 72.5730932, 23.0142731 ], [ 72.5731952, 23.0142613 ], [ 72.5731915, 23.0142398 ], [ 72.5731748, 23.0141441 ], [ 72.5730881, 23.0141511 ], [ 72.5730703, 23.0140667 ], [ 72.573004, 23.0140831 ], [ 72.5728588, 23.0133911 ], [ 72.5729352, 23.013377 ], [ 72.5729326, 23.0133619 ], [ 72.5728995, 23.0131706 ], [ 72.5728231, 23.0131824 ], [ 72.5727186, 23.0126523 ], [ 72.5729429, 23.012596 ], [ 72.5729658, 23.012549 ], [ 72.5733863, 23.0124458 ], [ 72.5736182, 23.0132316 ], [ 72.5737447, 23.0138167 ], [ 72.5738002, 23.0141587 ], [ 72.5738708, 23.0148211 ], [ 72.5738901, 23.0150904 ], [ 72.5739044, 23.01529 ], [ 72.5739129, 23.0160947 ], [ 72.5734302, 23.0160973 ], [ 72.5733412, 23.0160978 ] ] ] } },
{ "type": "Feature", "properties": { "tags": { "visible": false }, "visible": null, "lon": null, "lat": null, "version": 1, "timestamp": 1505975981, "id": 526399711, "changeset": null, "depot": null, "industrial": null, "landuse": "recreation_ground", "military": null, "residential": null, "osm_type": "way", "basin": null, "construction": null, "farmyard": null, "grass": null, "port": null, "railway": null }, "geometry": { "type": "Polygon", "coordinates": [ [ [ 72.572725, 23.0117974 ], [ 72.5731392, 23.0117233 ], [ 72.5732885, 23.0121503 ], [ 72.5728728, 23.0122648 ], [ 72.572725, 23.0117974 ] ] ] } },
{ "type": "Feature", "properties": { "tags": { "visible": false }, "visible": null, "lon": null, "lat": null, "version": 1, "timestamp": 1599135159, "id": 843927909, "changeset": null, "depot": null, "industrial": null, "landuse": "recreation_ground", "military": null, "residential": null, "osm_type": "way", "basin": null, "construction": null, "farmyard": null, "grass": null, "port": null, "railway": null }, "geometry": { "type": "Polygon", "coordinates": [ [ [ 72.5256663, 23.0452355 ], [ 72.5273197, 23.0445578 ], [ 72.5275053, 23.0448977 ], [ 72.5270163, 23.0452096 ], [ 72.5271624, 23.0456206 ], [ 72.5270734, 23.046208 ], [ 72.5263421, 23.0466345 ], [ 72.5256663, 23.0452355 ] ] ] } },
{ "type": "Feature", "properties": { "tags": { "visible": false }, "visible": null, "lon": null, "lat": null, "version": 3, "timestamp": 1717152547, "id": 910947195, "changeset": null, "depot": null, "industrial": null, "landuse": "recreation_ground", "military": null, "residential": null, "osm_type": "way", "basin": null, "construction": null, "farmyard": null, "grass": null, "port": null, "railway": null }, "geometry": { "type": "Polygon", "coordinates": [ [ [ 72.5932467, 23.0939341 ], [ 72.5936049, 23.0940153 ], [ 72.5939553, 23.0940947 ], [ 72.5943839, 23.0941956 ], [ 72.5944483, 23.094245 ], [ 72.5945556, 23.0942746 ], [ 72.5944783, 23.0946533 ], [ 72.5942069, 23.0959819 ], [ 72.5938797, 23.0959227 ], [ 72.5937509, 23.0958437 ], [ 72.5933754, 23.0955872 ], [ 72.5930321, 23.0954786 ], [ 72.5930053, 23.0953256 ], [ 72.5932467, 23.0939341 ] ] ] } },
{ "type": "Feature", "properties": { "tags": { "visible": false }, "visible": null, "lon": null, "lat": null, "version": 1, "timestamp": 1638586363, "id": 1009015704, "changeset": null, "depot": null, "industrial": null, "landuse": "recreation_ground", "military": null, "residential": null, "osm_type": "way", "basin": null, "construction": null, "farmyard": null, "grass": null, "port": null, "railway": null }, "geometry": { "type": "Polygon", "coordinates": [ [ [ 72.54634, 23.0184431 ], [ 72.5463759, 23.0174761 ], [ 72.5464304, 23.0173367 ], [ 72.5465027, 23.0172507 ], [ 72.5466059, 23.0171557 ], [ 72.5467311, 23.0170981 ], [ 72.5468746, 23.0170838 ], [ 72.5470167, 23.0171128 ], [ 72.5471871, 23.0172276 ], [ 72.5472872, 23.0173919 ], [ 72.5472405, 23.0184158 ], [ 72.5472097, 23.0184895 ], [ 72.5471716, 23.0185684 ], [ 72.547081, 23.0186407 ], [ 72.547003, 23.0187011 ], [ 72.546867, 23.0187308 ], [ 72.5466997, 23.0187143 ], [ 72.546518, 23.018653 ], [ 72.5464282, 23.018559 ], [ 72.54634, 23.0184431 ] ] ] } },
{ "type": "Feature", "properties": { "tags": { "visible": false, "name": "Samadhi Mandir Ground", "surface": "paving_stones" }, "visible": null, "lon": null, "lat": null, "version": 1, "timestamp": 1693152600, "id": 1202571601, "changeset": null, "depot": null, "industrial": null, "landuse": "recreation_ground", "military": null, "residential": null, "osm_type": "way", "basin": null, "construction": null, "farmyard": null, "grass": null, "port": null, "railway": null }, "geometry": { "type": "Polygon", "coordinates": [ [ [ 72.6122895, 23.1252676 ], [ 72.6126291, 23.1252633 ], [ 72.6126351, 23.1256634 ], [ 72.6122956, 23.1256678 ], [ 72.6122895, 23.1252676 ] ] ] } },
{ "type": "Feature", "properties": { "tags": { "visible": false }, "visible": null, "lon": null, "lat": null, "version": 1, "timestamp": 1730107824, "id": 1328752893, "changeset": null, "depot": null, "industrial": null, "landuse": "recreation_ground", "military": null, "residential": null, "osm_type": "way", "basin": null, "construction": null, "farmyard": null, "grass": null, "port": null, "railway": null }, "geometry": { "type": "Polygon", "coordinates": [ [ [ 72.5968661, 23.1213155 ], [ 72.5967607, 23.1213602 ], [ 72.5966676, 23.1211744 ], [ 72.5968666, 23.12109 ], [ 72.5969311, 23.1212186 ], [ 72.5968374, 23.1212583 ], [ 72.5968661, 23.1213155 ] ] ] } },
{ "type": "Feature", "properties": { "tags": { "visible": false }, "visible": null, "lon": null, "lat": null, "version": 1, "timestamp": 1730107824, "id": 1328752894, "changeset": null, "depot": null, "industrial": null, "landuse": "recreation_ground", "military": null, "residential": null, "osm_type": "way", "basin": null, "construction": null, "farmyard": null, "grass": null, "port": null, "railway": null }, "geometry": { "type": "Polygon", "coordinates": [ [ [ 72.5989965, 23.1217595 ], [ 72.5990819, 23.1213109 ], [ 72.5995819, 23.1214603 ], [ 72.5994346, 23.1219976 ], [ 72.599117, 23.1219375 ], [ 72.5991438, 23.121782 ], [ 72.5989965, 23.1217595 ] ] ] } },
{ "type": "Feature", "properties": { "tags": { "visible": false }, "visible": null, "lon": null, "lat": null, "version": 1, "timestamp": 1730107824, "id": 1328752895, "changeset": null, "depot": null, "industrial": null, "landuse": "recreation_ground", "military": null, "residential": null, "osm_type": "way", "basin": null, "construction": null, "farmyard": null, "grass": null, "port": null, "railway": null }, "geometry": { "type": "Polygon", "coordinates": [ [ [ 72.5985375, 23.1219466 ], [ 72.5985596, 23.1218206 ], [ 72.5988793, 23.1218681 ], [ 72.5988571, 23.1219941 ], [ 72.5985375, 23.1219466 ] ] ] } }
]
}
