{
"type": "FeatureCollection",
"name": "residential_multipolygon",
"crs": { "type": "name", "properties": { "name": "urn:ogc:def:crs:OGC:1.3:CRS84" } },
"features": [
{ "type": "Feature", "properties": { "tags": { "type": "multipolygon", "members": [ { "member_id": 1339224141, "member_type": "way", "member_role": "outer" }, { "member_id": 1339224137, "member_type": "way", "member_role": "outer" }, { "member_id": 1339224135, "member_type": "way", "member_role": "outer" }, { "member_id": 1339224140, "member_type": "way", "member_role": "outer" }, { "member_id": 1339224142, "member_type": "way", "member_role": "outer" }, { "member_id": 1339224139, "member_type": "way", "member_role": "outer" }, { "member_id": 1339224138, "member_type": "way", "member_role": "outer" }, { "member_id": 1339224136, "member_type": "way", "member_role": "outer" } ] }, "visible": null, "lon": null, "lat": null, "version": 1, "timestamp": 1733059650, "id": 18356011, "changeset": 0.0, "depot": null, "industrial": null, "landuse": "residential", "military": null, "residential": "rural", "osm_type": "relation", "basin": null, "construction": null, "farmyard": null, "grass": null, "port": null, "railway": null }, "geometry": { "type": "MultiPolygon", "coordinates": [ [ [ [ 72.6370245, 23.1989125 ], [ 72.6375668, 23.1987355 ], [ 72.6376133, 23.1988433 ], [ 72.63784, 23.1994447 ], [ 72.63753, 23.1995416 ], [ 72.637758, 23.2001013 ], [ 72.637986, 23.2000248 ], [ 72.6380745, 23.2002171 ], [ 72.6378868, 23.2002837 ], [ 72.6381201, 23.2008704 ], [ 72.6375484, 23.2010662 ], [ 72.6376298, 23.2012272 ], [ 72.6371253, 23.2013905 ], [ 72.6370623, 23.2011962 ], [ 72.6370765, 23.2010878 ], [ 72.6368692, 23.2005964 ], [ 72.6365866, 23.2006992 ], [ 72.6358111, 23.1987302 ], [ 72.6368293, 23.1984173 ], [ 72.6370245, 23.1989125 ] ] ], [ [ [ 72.6374538, 23.1970135 ], [ 72.6376591, 23.1978593 ], [ 72.6376248, 23.1979048 ], [ 72.6368347, 23.1980689 ], [ 72.6368729, 23.1982552 ], [ 72.6356492, 23.1984869 ], [ 72.6353905, 23.1974006 ], [ 72.6374538, 23.1970135 ] ] ], [ [ [ 72.6380478, 23.1987176 ], [ 72.6376765, 23.1978871 ], [ 72.6377109, 23.1978222 ], [ 72.63842, 23.1976008 ], [ 72.6384484, 23.1977363 ], [ 72.639065, 23.1975762 ], [ 72.6393021, 23.1981585 ], [ 72.6389956, 23.1982615 ], [ 72.6390703, 23.1984375 ], [ 72.6388639, 23.198488 ], [ 72.6388287, 23.1984944 ], [ 72.638804, 23.1984375 ], [ 72.6383374, 23.198583 ], [ 72.6384375, 23.1988799 ], [ 72.6389991, 23.1986924 ], [ 72.6391719, 23.1991245 ], [ 72.6394373, 23.1990301 ], [ 72.6396358, 23.1992965 ], [ 72.6396798, 23.1994741 ], [ 72.6395807, 23.1995018 ], [ 72.6397736, 23.1999377 ], [ 72.6396338, 23.19998 ], [ 72.6398425, 23.2004371 ], [ 72.6385918, 23.2008321 ], [ 72.6384184, 23.2003344 ], [ 72.637992, 23.1994 ], [ 72.6377946, 23.1987909 ], [ 72.6380478, 23.1987176 ] ] ] ] } }
]
}
