{
"type": "FeatureCollection",
"name": "residential_point",
"crs": { "type": "name", "properties": { "name": "urn:ogc:def:crs:OGC:1.3:CRS84" } },
"features": [
{ "type": "Feature", "properties": { "tags": { "name": "aarohi apartment" }, "visible": "False", "lon": 72.547834, "lat": 23.042497, "version": 2, "timestamp": 1716378776, "id": 4797415997, "changeset": 0.0, "depot": null, "industrial": null, "landuse": "residential", "military": null, "residential": "apartments", "osm_type": "node", "basin": null, "construction": null, "farmyard": null, "grass": null, "port": null, "railway": null }, "geometry": { "type": "Point", "coordinates": [ 72.547834, 23.042497 ] } },
{ "type": "Feature", "properties": { "tags": { "addr:city": "Ahmedabad", "addr:housenumber": "Aman Appartment", "addr:postcode": "380009", "addr:street": "St. Xavier's College Road", "name": "Aman Apartment" }, "visible": "False", "lon": 72.5540638, "lat": 23.0352526, "version": 1, "timestamp": 1605728738, "id": 8139020066, "changeset": 0.0, "depot": null, "industrial": null, "landuse": "residential", "military": null, "residential": "apartments", "osm_type": "node", "basin": null, "construction": null, "farmyard": null, "grass": null, "port": null, "railway": null }, "geometry": { "type": "Point", "coordinates": [ 72.5540638, 23.0352526 ] } },
{ "type": "Feature", "properties": { "tags": { "addr:city": "Ahmedabad", "addr:housenumber": "Triveni Vista,", "addr:postcode": "380009", "addr:street": "Opp. Trikonya garden, Gulbai Tekra Road", "name": "Triveni Vista", "operator": "Triveni Vista Owners Asso." }, "visible": "False", "lon": 72.5496698, "lat": 23.0259222, "version": 1, "timestamp": 1605729374, "id": 8139093605, "changeset": 0.0, "depot": null, "industrial": null, "landuse": "residential", "military": null, "residential": "apartments", "osm_type": "node", "basin": null, "construction": null, "farmyard": null, "grass": null, "port": null, "railway": null }, "geometry": { "type": "Point", "coordinates": [ 72.5496698, 23.0259222 ] } },
{ "type": "Feature", "properties": { "tags": { "addr:city": "Ahmedabad", "addr:housenumber": "Ruchit flats", "addr:postcode": "380007", "addr:street": "Dr. Jivraj Mehta Road", "name": "Ruchit Flats", "operator": "Abhikalp Owners Assoc." }, "visible": "False", "lon": 72.5461438, "lat": 23.007513, "version": 1, "timestamp": 1605729546, "id": 8139233244, "changeset": 0.0, "depot": null, "industrial": null, "landuse": "residential", "military": null, "residential": "apartments", "osm_type": "node", "basin": null, "construction": null, "farmyard": null, "grass": null, "port": null, "railway": null }, "geometry": { "type": "Point", "coordinates": [ 72.5461438, 23.007513 ] } },
{ "type": "Feature", "properties": { "tags": { "addr:city": "Ahmedabad", "addr:postcode": "380061", "addr:street": "Ravishankar Maharaj Road", "name": "Sambhavi Apartments" }, "visible": "False", "lon": 72.539578, "lat": 23.0713102, "version": 1, "timestamp": 1607174993, "id": 8196333041, "changeset": 0.0, "depot": null, "industrial": null, "landuse": "residential", "military": null, "residential": "apartments", "osm_type": "node", "basin": null, "construction": null, "farmyard": null, "grass": null, "port": null, "railway": null }, "geometry": { "type": "Point", "coordinates": [ 72.539578, 23.0713102 ] } },
{ "type": "Feature", "properties": { "tags": { "addr:city": "Ahmedabad", "addr:street": "Vandemataram Road", "name": "Vandemataram Icon" }, "visible": "False", "lon": 72.547552, "lat": 23.0975425, "version": 1, "timestamp": 1607176295, "id": 8196383750, "changeset": 0.0, "depot": null, "industrial": null, "landuse": "residential", "military": null, "residential": "apartments", "osm_type": "node", "basin": null, "construction": null, "farmyard": null, "grass": null, "port": null, "railway": null }, "geometry": { "type": "Point", "coordinates": [ 72.547552, 23.0975425 ] } },
{ "type": "Feature", "properties": { "tags": { "addr:city": "Ahmedabad", "addr:housenumber": "Avichal Park", "addr:postcode": "382424", "addr:street": "Bh/ Satyamev Hospital", "name": "Avichal Park" }, "visible": "False", "lon": 72.5785461, "lat": 23.1191796, "version": 1, "timestamp": 1632497572, "id": 9120524223, "changeset": 0.0, "depot": null, "industrial": null, "landuse": "residential", "military": null, "residential": "apartments", "osm_type": "node", "basin": null, "construction": null, "farmyard": null, "grass": null, "port": null, "railway": null }, "geometry": { "type": "Point", "coordinates": [ 72.5785461, 23.1191796 ] } },
{ "type": "Feature", "properties": { "tags": { "addr:city": "Ahmedabad", "addr:postcode": "382421", "addr:street": "Shantigram, Nr. Vaishnodevi Circle, S.G Highway", "name": "The Storeys", "website": "https://thestoreys.in/" }, "visible": "False", "lon": 72.526586, "lat": 23.1701591, "version": 2, "timestamp": 1689767383, "id": 10905054224, "changeset": 0.0, "depot": null, "industrial": null, "landuse": "residential", "military": null, "residential": "apartments", "osm_type": "node", "basin": null, "construction": null, "farmyard": null, "grass": null, "port": null, "railway": null }, "geometry": { "type": "Point", "coordinates": [ 72.526586, 23.1701591 ] } },
{ "type": "Feature", "properties": { "tags": { "name": "Hariom Bungalows" }, "visible": "False", "lon": 72.5943537, "lat": 23.1091252, "version": 1, "timestamp": 1686061473, "id": 10959671663, "changeset": 0.0, "depot": null, "industrial": null, "landuse": "residential", "military": null, "residential": "apartments", "osm_type": "node", "basin": null, "construction": null, "farmyard": null, "grass": null, "port": null, "railway": null }, "geometry": { "type": "Point", "coordinates": [ 72.5943537, 23.1091252 ] } },
{ "type": "Feature", "properties": { "tags": { "addr:city": "Ahmedabad", "addr:district": "Ahmedabad", "addr:postcode": "382330", "name": "Shyam Elegance" }, "visible": "False", "lon": 72.6597701, "lat": 23.1073065, "version": 1, "timestamp": 1701320711, "id": 11384955028, "changeset": 0.0, "depot": null, "industrial": null, "landuse": "residential", "military": null, "residential": "apartments", "osm_type": "node", "basin": null, "construction": null, "farmyard": null, "grass": null, "port": null, "railway": null }, "geometry": { "type": "Point", "coordinates": [ 72.6597701, 23.1073065 ] } },
{ "type": "Feature", "properties": { "tags": { "addr:city": "Ahmedabad", "addr:postcode": "382424", "addr:street": "New CG Road, Chandkheda", "name": "Sakal Residency", "official_name": "Sakal Residency" }, "visible": "False", "lon": 72.5915248, "lat": 23.1080196, "version": 1, "timestamp": 1771525974, "id": 13582340755, "changeset": 0.0, "depot": null, "industrial": null, "landuse": "residential", "military": null, "residential": "apartments", "osm_type": "node", "basin": null, "construction": null, "farmyard": null, "grass": null, "port": null, "railway": null }, "geometry": { "type": "Point", "coordinates": [ 72.5915248, 23.1080196 ] } }
]
}
