{
"type": "FeatureCollection",
"name": "retail_polygon",
"crs": { "type": "name", "properties": { "name": "urn:ogc:def:crs:OGC:1.3:CRS84" } },
"features": [
{ "type": "Feature", "properties": { "tags": { "visible": false, "amenity": "marketplace", "name": "Jamalpur Market" }, "visible": null, "lon": null, "lat": null, "version": 1, "timestamp": 1423203861, "id": 326677145, "changeset": null, "depot": null, "industrial": null, "landuse": "retail", "military": null, "residential": null, "osm_type": "way", "basin": null, "construction": null, "farmyard": null, "grass": null, "port": null, "railway": null }, "geometry": { "type": "Polygon", "coordinates": [ [ [ 72.5790465, 23.0106838 ], [ 72.57902, 23.0105923 ], [ 72.5803313, 23.0103241 ], [ 72.5808081, 23.010251 ], [ 72.5809141, 23.010315 ], [ 72.5810267, 23.0106838 ], [ 72.581275, 23.0119029 ], [ 72.5811923, 23.0119456 ], [ 72.5803446, 23.011589 ], [ 72.5790465, 23.0106838 ] ] ] } },
{ "type": "Feature", "properties": { "tags": { "visible": false }, "visible": null, "lon": null, "lat": null, "version": 1, "timestamp": 1427193609, "id": 334470503, "changeset": null, "depot": null, "industrial": null, "landuse": "retail", "military": null, "residential": null, "osm_type": "way", "basin": null, "construction": null, "farmyard": null, "grass": null, "port": null, "railway": null }, "geometry": { "type": "Polygon", "coordinates": [ [ [ 72.5306054, 23.0462509 ], [ 72.5313861, 23.0461225 ], [ 72.5312691, 23.0476102 ], [ 72.5305261, 23.0476038 ], [ 72.5306054, 23.0462509 ] ] ] } },
{ "type": "Feature", "properties": { "tags": { "visible": false }, "visible": null, "lon": null, "lat": null, "version": 1, "timestamp": 1427194510, "id": 334471860, "changeset": null, "depot": null, "industrial": null, "landuse": "retail", "military": null, "residential": null, "osm_type": "way", "basin": null, "construction": null, "farmyard": null, "grass": null, "port": null, "railway": null }, "geometry": { "type": "Polygon", "coordinates": [ [ [ 72.5397676, 23.0467423 ], [ 72.5398372, 23.0465571 ], [ 72.5399689, 23.0462911 ], [ 72.5401857, 23.0460797 ], [ 72.5403482, 23.04598 ], [ 72.540805, 23.045904 ], [ 72.5407612, 23.0467803 ], [ 72.5397676, 23.0467423 ] ] ] } },
{ "type": "Feature", "properties": { "tags": { "visible": false, "name": "Gujari Bazar" }, "visible": null, "lon": null, "lat": null, "version": 4, "timestamp": 1650709180, "id": 528399868, "changeset": null, "depot": null, "industrial": null, "landuse": "retail", "military": null, "residential": null, "osm_type": "way", "basin": null, "construction": null, "farmyard": null, "grass": null, "port": null, "railway": null }, "geometry": { "type": "Polygon", "coordinates": [ [ [ 72.5773678, 23.020995 ], [ 72.5773491, 23.0209679 ], [ 72.5774215, 23.0207235 ], [ 72.5775234, 23.0205482 ], [ 72.5777192, 23.0203087 ], [ 72.5779177, 23.0200693 ], [ 72.5781733, 23.0201384 ], [ 72.57821, 23.0201483 ], [ 72.5781805, 23.0202297 ], [ 72.5780518, 23.0202001 ], [ 72.5779887, 23.0203665 ], [ 72.5777138, 23.0210913 ], [ 72.5773678, 23.020995 ] ] ] } },
{ "type": "Feature", "properties": { "tags": { "visible": false }, "visible": null, "lon": null, "lat": null, "version": 2, "timestamp": 1616722150, "id": 544508724, "changeset": null, "depot": null, "industrial": null, "landuse": "retail", "military": null, "residential": null, "osm_type": "way", "basin": null, "construction": null, "farmyard": null, "grass": null, "port": null, "railway": null }, "geometry": { "type": "Polygon", "coordinates": [ [ [ 72.6971256, 23.1612056 ], [ 72.6976212, 23.1612384 ], [ 72.6975938, 23.1615878 ], [ 72.6970983, 23.161555 ], [ 72.6971256, 23.1612056 ] ] ] } },
{ "type": "Feature", "properties": { "tags": { "visible": false }, "visible": null, "lon": null, "lat": null, "version": 1, "timestamp": 1525491526, "id": 585813387, "changeset": null, "depot": null, "industrial": null, "landuse": "retail", "military": null, "residential": null, "osm_type": "way", "basin": null, "construction": null, "farmyard": null, "grass": null, "port": null, "railway": null }, "geometry": { "type": "Polygon", "coordinates": [ [ [ 72.5737973, 23.1771155 ], [ 72.5737182, 23.1769959 ], [ 72.5735894, 23.176811 ], [ 72.573517, 23.1767666 ], [ 72.5733963, 23.1767506 ], [ 72.5741412, 23.1762994 ], [ 72.5742331, 23.1764387 ], [ 72.5742559, 23.1764818 ], [ 72.5743753, 23.1767247 ], [ 72.5743833, 23.1768147 ], [ 72.5743337, 23.1768763 ], [ 72.5740011, 23.1770119 ], [ 72.5737973, 23.1771155 ] ] ] } },
{ "type": "Feature", "properties": { "tags": { "visible": false, "name": "Site" }, "visible": null, "lon": null, "lat": null, "version": 1, "timestamp": 1679388902, "id": 1155983464, "changeset": null, "depot": null, "industrial": null, "landuse": "retail", "military": null, "residential": null, "osm_type": "way", "basin": null, "construction": null, "farmyard": null, "grass": null, "port": null, "railway": null }, "geometry": { "type": "Polygon", "coordinates": [ [ [ 72.5270451, 23.0410837 ], [ 72.5269822, 23.0410091 ], [ 72.5270393, 23.0409683 ], [ 72.5271022, 23.0410429 ], [ 72.5270451, 23.0410837 ] ] ] } },
{ "type": "Feature", "properties": { "tags": { "visible": false, "addr:city": "Ahmedabad", "addr:district": "Ahmedabad", "addr:housenumber": "o-3", "addr:postcode": "380027", "addr:street": "Ashram Road", "building": "apartments", "building:colour": "beige", "building:levels": "3", "building:material": "plaster", "email": "archanafashion94@gmail.com", "mobile": "9409349381", "name": "Archana Fashion", "roof:colour": "lightgrey", "roof:material": "concrete", "roof:shape": "flat" }, "visible": null, "lon": null, "lat": null, "version": 2, "timestamp": 1781096760, "id": 1300667905, "changeset": null, "depot": null, "industrial": null, "landuse": "retail", "military": null, "residential": null, "osm_type": "way", "basin": null, "construction": null, "farmyard": null, "grass": null, "port": null, "railway": null }, "geometry": { "type": "Polygon", "coordinates": [ [ [ 72.5822635, 23.0636925 ], [ 72.5823478, 23.0636387 ], [ 72.5825977, 23.0639706 ], [ 72.5825134, 23.0640243 ], [ 72.5822635, 23.0636925 ] ] ] } },
{ "type": "Feature", "properties": { "tags": { "visible": false }, "visible": null, "lon": null, "lat": null, "version": 1, "timestamp": 1722260960, "id": 1304455464, "changeset": null, "depot": null, "industrial": null, "landuse": "retail", "military": null, "residential": null, "osm_type": "way", "basin": null, "construction": null, "farmyard": null, "grass": null, "port": null, "railway": null }, "geometry": { "type": "Polygon", "coordinates": [ [ [ 72.5360152, 23.0460659 ], [ 72.5394093, 23.045977 ], [ 72.5394165, 23.0463643 ], [ 72.5386943, 23.0463776 ], [ 72.538672, 23.0462827 ], [ 72.5384578, 23.0463316 ], [ 72.5384303, 23.0462612 ], [ 72.5383988, 23.0461667 ], [ 72.5381641, 23.0461581 ], [ 72.5379629, 23.0461588 ], [ 72.5379665, 23.04625 ], [ 72.5375761, 23.04627 ], [ 72.5375749, 23.0461551 ], [ 72.5370823, 23.0461572 ], [ 72.5370823, 23.0462754 ], [ 72.5368709, 23.0462829 ], [ 72.5368651, 23.0461669 ], [ 72.5362977, 23.0462185 ], [ 72.5363222, 23.0463689 ], [ 72.5360829, 23.0464086 ], [ 72.5360152, 23.0460659 ] ] ] } },
{ "type": "Feature", "properties": { "tags": { "visible": false }, "visible": null, "lon": null, "lat": null, "version": 1, "timestamp": 1722324482, "id": 1304593481, "changeset": null, "depot": null, "industrial": null, "landuse": "retail", "military": null, "residential": null, "osm_type": "way", "basin": null, "construction": null, "farmyard": null, "grass": null, "port": null, "railway": null }, "geometry": { "type": "Polygon", "coordinates": [ [ [ 72.5833634, 23.0671648 ], [ 72.5847355, 23.0693117 ], [ 72.582532, 23.0689845 ], [ 72.5824527, 23.068947 ], [ 72.5822149, 23.0686422 ], [ 72.5821519, 23.0683374 ], [ 72.5822617, 23.0680381 ], [ 72.583154, 23.0672227 ], [ 72.5833634, 23.0671648 ] ] ] } },
{ "type": "Feature", "properties": { "tags": { "visible": false, "area": "yes" }, "visible": null, "lon": null, "lat": null, "version": 1, "timestamp": 1722339269, "id": 1304630199, "changeset": null, "depot": null, "industrial": null, "landuse": "retail", "military": null, "residential": null, "osm_type": "way", "basin": null, "construction": null, "farmyard": null, "grass": null, "port": null, "railway": null }, "geometry": { "type": "Polygon", "coordinates": [ [ [ 72.5902196, 23.086915 ], [ 72.5902643, 23.0868378 ], [ 72.5903336, 23.0867619 ], [ 72.590976, 23.0862518 ], [ 72.5911424, 23.086662 ], [ 72.5900921, 23.087346 ], [ 72.5902196, 23.086915 ] ] ] } },
{ "type": "Feature", "properties": { "tags": { "visible": false, "area": "yes" }, "visible": null, "lon": null, "lat": null, "version": 1, "timestamp": 1723038104, "id": 1306170871, "changeset": null, "depot": null, "industrial": null, "landuse": "retail", "military": null, "residential": null, "osm_type": "way", "basin": null, "construction": null, "farmyard": null, "grass": null, "port": null, "railway": null }, "geometry": { "type": "Polygon", "coordinates": [ [ [ 72.5780494, 23.0391796 ], [ 72.5780894, 23.0390066 ], [ 72.5786933, 23.0390917 ], [ 72.5796762, 23.0391228 ], [ 72.5796577, 23.0392504 ], [ 72.5787902, 23.039332 ], [ 72.5780494, 23.0391796 ] ] ] } },
{ "type": "Feature", "properties": { "tags": { "visible": false }, "visible": null, "lon": null, "lat": null, "version": 1, "timestamp": 1723125099, "id": 1306367276, "changeset": null, "depot": null, "industrial": null, "landuse": "retail", "military": null, "residential": null, "osm_type": "way", "basin": null, "construction": null, "farmyard": null, "grass": null, "port": null, "railway": null }, "geometry": { "type": "Polygon", "coordinates": [ [ [ 72.5832752, 23.0291308 ], [ 72.5832135, 23.0291308 ], [ 72.5831894, 23.028568 ], [ 72.5832484, 23.0276843 ], [ 72.5844822, 23.027509 ], [ 72.5845332, 23.0277509 ], [ 72.5839136, 23.0278349 ], [ 72.5839297, 23.0288691 ], [ 72.5832752, 23.0291308 ] ] ] } }
]
}
